EVENT_NAME: 
EVENT_DATE_YYYYMMDD: 20201105
EVENT_TIME_HHMMSS: 032527
EVENT_LATITUDE_DEGREE: 38.6957
EVENT_LONGITUDE_DEGREE: 13.8490
EVENT_DEPTH:   4.90
MAGNITUDE_L: 3.6
MAGNITUDE_W:
FOCAL_MECHNISM:
NETWORK: IV
STATION_CODE: ACATE
STATION_NAME: Acate
STATION_LATITUDE_DEGREE: 37.0239
STATION_LONGITUDE_DEGREE: 14.5006
STATION_ELEVATION: 210
LOCATION:
VS30_M/S: '0' (0=missing)
SITE_CLASSIFICATION_EC8: A
MORPHOLOGICAL_CLASSIFICATION: T1
EPICENTRAL_DISTANCE_KM: 194.405045
EARTHQUAKE_AZIMUTH_DEGREE: 162.695084
DATA_TIME_FIRST_SAMPLE_YYYYMMDD_HHMMSS: 20201105_032527.0
DATA_TIME_FIRST_SAMPLE_PRECISION: milliseconds
SAMPLING_INTERVAL_S: 0.01000000
NDATA: 30000
DURATION_S: 300
STREAM: HNE
UNITS: cm/s^2
INSTRUMENT: GAIA2-FS-40-VPP_____TITAN
INSTRUMENT_ANALOG/DIGITAL: D
INSTRUMENTAL_FREQUENCY_HZ:
INSTRUMENTAL_DUMPING:
FULL_SCALE: '2' (999=missing)
N_BIT_DIGITAL_CONVERTER:
PGA_CM/S^2: 0.0354286
TIME_PGA:
BASELINE_CORRECTION: REMOVED
FILTER_TYPE: BUTTERWORTH
FILTER_ORDER: 4TH
LOW_CUT_FREQUENCY: 0.20
HIGH_CUT_FREQUENCY: 45
LATE/NORMAL TRIGGERED:
DATA_VERSION: ISMD_2.0
DATA_TYPE: AUTOMATIC_PROCESSED_ACCELERATION
DATA_TIMESTAMP_YYYYMMDD_HHMMSS:
UNUSED1:
UNUSED2:
USER1: MEAN_REMOVED
USER2:
USER3:
[...]
3.086220e-05
0.0001939263
0.001414684
-0.0005553326
-0.005040006
-0.003084932
-0.003817837
-0.003011312
-0.001730491
-0.002298070
0.001637710
0.002716026
0.0003972148
0.002370300
0.006390672
0.004750351
0.003742598
0.004252688
0.003320138
0.002489829
0.001964065
0.003230232
0.003399086
0.001801174
0.0001503696
6.278639e-05
-0.001534945
-0.003564199
-0.004739389
-0.008499490
-0.009120406
-0.006950555
-0.003794482
-0.002925166
-0.002532167
-0.0001018200
-0.001035150
-0.001862152
-0.002123911
-0.001046969
0.001708450
0.002005126
0.001746894
0.004493089
0.003283998
0.001410412
0.006062384
0.005791823
0.001055305
0.003016268
0.003824604
-0.001004566
-0.003667685
-0.004444460
-0.003639658
-0.005414613
-0.007971034
-0.006675186
-0.005802535
-0.002897036
-0.0002450195
-0.001276510
4.067768e-06
0.002534739
0.001478241
0.001072284
0.0007561023
0.001478741
0.004425129
0.004950675
0.005041733
0.004615052
0.006647821
0.008298322
0.005767756
0.002954297
0.0004936833
0.0001395445
-0.003249961
-0.006720264
-0.006029025
-0.007086685
-0.007189170
-0.005951997
-0.003316329
-0.002969180
-0.001944818
5.971490e-05
-0.002221897
-0.0002213942
0.001434780
0.0005237318
0.001597004
0.001314820
-0.0004598314
0.0005856878
0.001818859
0.002363152
0.004729289
0.002869417
-0.001690244
-0.001622247
-0.0003118921
0.002599551
0.003297107
0.0008069325
0.002354396
-0.001129347
-0.0003312017
0.002786014
-0.002086916
-0.001027600
0.001696129
0.001133266
0.001711573
0.002365087
0.001729955
0.001416303
0.003929095
0.003274544
0.001124675
0.0004988200
-0.001754504
-0.001560981
-0.0006712995
-0.0004247519
0.0003475946
0.002635695
0.001327181
0.0004065603
0.001406027
-0.0003450628
-0.0005799480
-0.001856138
0.0003746526
0.003688634
0.002351506
0.0004375971
0.0003298759
-0.0003682859
0.0002185353
0.001612025
0.001347943
-0.0004314723
-0.003181282
-0.002726070
-0.004967624
-0.005597184
-0.003956357
-0.005075868
-0.002875217
0.0009748308
0.001716140
-0.0008508133
0.0004653325
0.0003764882
-0.001375154
-0.001194318
-0.0004660885
0.003247992
0.004078986
0.004056915
0.002918985
-0.001612384
-0.005151605
-0.006612148
-0.007028555
-0.006576802
-0.005213361
-0.001198062
0.0003111233
0.0007555654
0.003056463
0.004522021
0.004952236
0.003818333
0.006338877
0.006122293
0.003757218
0.001832551
0.0008710948
0.0003810752
-0.001145711
0.001835585
0.0004656214
-0.0003573306
0.002024747
0.0002568878
-0.002306487
-0.001982481
-3.163981e-05
-0.001182119
-0.001419396
-0.002941430
-0.002138776
0.001218357
-0.002583478
-0.004232370
-0.0005722511
-0.0006274144
-0.002304793
-0.002305117
-0.0009560883
-0.0001990463
0.0006480487
-0.0005108427
-0.001278980
0.001805448
0.002555220
0.004910416
0.003425874
0.001904151
0.004548723
0.003270646
0.002885912
0.003052199
-1.780875e-07
-0.001235056
0.001499120
0.002544523
0.001176055
0.001284405
0.003395230
0.004651659
0.001620467
-0.001098886
-0.0006869693
-0.003837571
-0.005999408
-0.005737475
-0.004380154
-0.003315525
-0.004928722
-0.004326234
-0.002977439
-0.001602324
0.001169174
0.002345423
0.003157475
0.003468555
0.004831934
0.003058929
0.0005202426
0.001822556
-0.001127627
0.0004291641
0.001462131
4.289247e-05
-1.049021e-05
-0.003197831
-0.003580770
-0.005595689
-0.007073864
-0.004613467
-0.004615807
-0.005215759
-0.001505876
7.878750e-05
-0.001499956
0.001015775
-0.001200596
-0.003040605
0.001963972
0.002773458
0.003379343
0.003492221
0.002066510
0.002292596
0.002026093
0.001702313
0.001998435
0.001722745
0.001973062
0.001756757
0.001608120
0.003080103
0.003362237
0.002609058
5.231193e-05
-0.001220169
-0.002070651
-0.002826609
-0.001093403
0.0002504478
-0.002298427
-0.001674632
0.001211935
-0.001186313
-0.0001572718
-0.002045900
-0.002712116
-0.0004118798
-0.001912252
-0.0002077619
0.0009219698
0.001080304
-0.0007463015
0.001547772
0.002188219
0.002031298
0.003620844
-0.0004191293
-0.001317868
-0.003060834
-0.002966975
-0.003651263
-0.004219659
-0.002713479
-0.003004973
-0.002336215
-0.002510856
0.0006509504
-0.003054736
-0.003470205
0.0007849299
-0.002401763
0.0001286276
0.0003427527
0.002433808
0.0008155699
-0.002437458
0.001399343
-0.0006499812
0.0009810122
0.002458003
0.003559824
0.005107314
0.0009439663
-0.001040826
-0.001296084
-0.006328302
-0.005644907
-0.0007407284
-0.001277873
0.003337322
0.006160073
0.004303674
0.008023863
0.005835802
0.002747017
0.002406923
0.0001819870
0.002864180
0.001506453
4.251920e-05
0.0002252117
-0.002401355
-0.001398179
-0.0007706473
-0.003050269
-0.004081988
-0.004439116
-0.002059115
-0.002104458
-0.004724547
-0.005021623
-0.005913853
-0.003162299
-0.001583748
-0.003423301
-0.001353874
0.003529299
0.003204820
0.003649810
0.006212524
0.004031297
0.004938636
0.005273426
0.004016698
0.004324693
0.003075684
0.0009153424
0.0002193425
0.001616033
0.0004170067
-0.0007444574
-0.001616333
-0.001826405
-0.001779608
-0.003554825
-0.002212861
-0.002209488
-0.002623745
0.0003843467
0.0003827769
-0.0007423029
-0.0006759172
-0.002191440
-0.002965014
0.0003998441
-0.0005561996
-0.004233127
-0.001490330
-0.0005566872
0.0004883664
0.003041756
0.002201963
0.001002516
0.002685712
0.003629364
0.003793576
0.003480584
0.002655629
0.005596506
0.005165788
0.005609605
0.004517312
0.002488771
0.002699819
-0.002322726
-0.0008327697
0.0005200493
-0.001155455
-0.0004056841
5.706797e-05
-0.0009628396
-0.002865058
-0.001093985
-0.003424330
-0.006099303
-0.005628387
-0.004189529
-0.002864982
-0.0004196826
-0.0003773510
-0.005767714
-0.001216766
0.001578476
-0.003892103
-0.003201844
-0.001331169
-0.0004391845
-0.0003717780
0.0004743168
0.0009063722
0.001359321
0.001927261
-2.936808e-05
0.002125354
0.001898759
0.001785144
0.002225508
-0.001064979
0.002612468
0.005377968
0.003655077
0.005590763
0.003428240
0.002066007
0.002308232
-0.0009239130
0.0007035374
-0.0009546566
-0.001085770
0.001747814
-0.002238366
-0.003323243
-0.001539546
-0.002473577
-0.001761940
-0.0003939765
-0.002286898
-0.003921984
-0.0009456269
-0.0008936744
-0.003064139
-0.002468381
-0.002476870
-0.001438960
-0.003253753
-0.002177510
-0.001292275
-0.002903432
-0.0002230659
0.0006586326
-1.125392e-05
-0.0002259645
0.001531220
0.001939637
0.0009425741
-0.0002879674
4.778125e-05
0.001867506
-0.0002651149
3.003638e-05
6.012348e-06
-0.0002504232
0.0006254652
-0.0002952518
-0.001141899
-0.003584631
-0.003406314
-0.003573413
-0.001502084
0.001355818
0.001366066
0.003174467
0.004827569
0.005342527
0.006998321
0.006638832
0.006596173
0.007106263
0.001054603
0.002749331
0.004113783
-0.0009227069
-0.001855980
-0.0006109960
-0.0002478044
-0.003223757
-0.002243206
-0.002848329
-0.002270336
-0.003137517
-0.005126429
-0.002084996
-0.003452261
-0.003672095
-0.002252979
-0.002001632
-0.002421353
-0.001161818
0.0001313917
0.0003653427
-0.0004793217
-0.001838515
-0.001068131
0.001222605
0.004939945
0.002979710
0.0007064935
0.003472058
0.002388128
0.001798559
0.001590541
-0.001180031
0.0005645260
0.003230253
0.005545741
0.004772581
0.003071565
0.003821538
0.0008853851
0.0004158776
0.0008597314
-0.004870367
-0.005376540
-0.002367299
-0.001672363
-9.499346e-05
0.0009952706
0.001972046
0.0007427976
0.0004111503
-0.0005462035
-0.001073577
0.001548771
0.001828695
-0.001051642
-0.002741294
-0.004271050
-0.003588890
-0.002141102
-0.003273986
-0.003324828
-0.003086254
-0.001252331
-0.002729555
-0.004669972
-0.002775418
-0.001477756
-0.002247899
0.0005083883
0.004494421
0.002788831
0.001916635
0.002860683
-1.402402e-05
-0.002389229
-0.0006617582
-0.001456920
-0.001256649
-0.001177216
-0.001852338
0.0003936423
-0.001900078
-0.001708405
-0.0004253948
-0.0003941423
0.002670344
0.0008175547
-0.0006780220
-0.0005405681
-0.0005469772
-4.837528e-05
0.0005156432
0.001715007
0.001849630
0.001972731
0.002819505
0.004166554
0.005892836
0.007060986
0.006073890
0.007241728
0.008666368
0.009355437
0.01090686
0.01210602
0.01064641
0.009243088
0.008861753
0.006628602
0.008097447
0.008921256
0.009891871
0.01149886
0.01260522
0.01411987
0.01150734
0.009652601
0.008773901
0.007116701
0.004436338
0.0008646447
7.726023e-05
-0.0003721225
-0.004932078
-0.007817634
-0.009951985
-0.01465855
-0.01991267
-0.02343936
-0.02510200
-0.02702563
-0.02706074
-0.02731006
-0.02577936
-0.02240453
-0.01972842
-0.02132588
-0.02297471
-0.01964347
-0.01935961
-0.01702798
-0.01415475
-0.01510845
-0.008847416
-0.004564126
-0.001909849
5.576420e-05
-0.0003476565
0.001688973
-0.001141880
0.003820916
0.01193909
0.01757565
0.02157134
0.01974721
0.02006041
0.01902529
0.01863542
0.01730836
0.01692445
0.02028649
0.01952578
0.01710162
0.01207892
0.008975980
0.008045197
0.006752891
0.01030076
0.01101013
0.008868771
0.007440723
0.004632425
-0.001720155
-0.01085625
-0.01613810
-0.02046465
-0.02086274
-0.02102854
-0.02470549
-0.02491788
-0.02679381
-0.02620790
-0.01992886
-0.01153699
-0.004688932
0.001908356
0.008052059
0.01033375
0.01274882
0.01589105
0.01532670
0.01077734
0.006142915
-0.001597550
-0.005139753
-0.002170902
-0.001130543
0.005977959
0.01038030
0.008438016
0.01236829
0.01508904
0.01639630
0.01473673
0.01585021
0.01619750
0.01093541
0.007755174
0.003100526
-0.002424016
-0.007674803
-0.007785690
-0.007036828
-0.007135836
-0.006774638
-0.008322123
-0.009332908
-0.009502839
-0.008462517
-0.006008407
-0.005101508
-0.005958856
-0.004511184
-0.002511427
-0.002645742
-0.003451908
-0.002314287
0.001504810
0.005213956
0.007062727
0.01121455
0.01414818
0.01098373
0.006904810
0.004193834
0.002164754
0.0008207653
0.0005450404
-0.002232604
-0.006697513
-0.007127807
-0.006495815
-0.007315962
-0.006626783
-0.004364580
-0.0008565906
0.004231940
0.006429475
0.007246605
0.006222117
0.002141891
0.0001257476
0.0001118140
-0.0009368923
0.0008297259
0.005239870
0.007695565
0.01526570
0.01602705
0.009429926
0.005371850
-0.0008473907
-0.003609183
-0.007504531
-0.005649038
-0.003586474
-0.005563099
-0.005452152
-0.01253952
-0.01457582
-0.01784791
-0.02107110
-0.01945787
-0.01544230
-0.007870708
-0.007788595
-0.006707843
-0.005593219
-0.005112589
-0.003466195
-0.002237121
-9.920394e-05
0.001548910
0.002688694
0.002780440
0.005547571
0.007364095
0.005348801
0.004422536
0.003953591
0.004223778
0.006380559
0.004556634
0.007647477
0.01294650
0.01700926
0.02047482
0.01782279
0.01632003
0.01129329
0.006083899
0.002778388
0.001221320
-0.0001557240
-0.005840153
-0.01084213
-0.01544764
-0.01679136
-0.01263539
-0.009291411
-0.01174622
-0.01263939
-0.006227965
0.0005666512
0.002679951
0.004778917
0.007178857
0.006836826
0.003558450
0.001730876
0.003055793
0.004395335
0.006025112
0.007018999
0.008720045
0.01086006
0.01205989
0.01125642
0.007921752
0.004805681
-0.002141414
-0.01102175
-0.01527680
-0.01786470
-0.01682253
-0.01290153
-0.009315456
-0.006071665
-0.001809564
0.005141637
0.006606866
0.006387331
0.006318902
0.001644624
-0.0004183498
-0.003813710
-0.005523938
-0.004011829
-0.0009753937
0.005505808
0.01066092
0.01262552
0.01003384
0.006449119
0.005238449
0.004433396
0.0006509275
0.001903905
0.001903926
-0.001844053
-0.004294131
-0.006288932
-0.006318139
-0.01057840
-0.01224017
-0.009393485
-0.009009265
-0.006438985
-0.001612819
0.001055975
0.005611519
0.003731946
-0.0007660961
-0.003305639
-0.008399609
-0.01340863
-0.01767047
-0.01748982
-0.01301753
-0.005868324
-0.002242307
0.0008596090
0.001600901
-0.0001729289
0.002332541
1.252886e-05
-0.002535253
0.001772462
0.007834481
0.01356844
0.01938461
0.02294475
0.02523416
0.02806427
0.02690543
0.02552703
0.02285098
0.02213228
0.01844099
0.01248741
0.007566642
-0.003538876
-0.01060445
-0.01569534
-0.02331961
-0.02830278
-0.02904145
-0.03168495
-0.03090923
-0.02734792
-0.02371438
-0.01923745
-0.01596779
-0.01102363
-0.005238456
-0.001099993
-0.002783071
-0.003471198
-0.003919640
-0.002900714
0.0001396794
0.001786119
0.002921638
0.002434108
0.002583626
0.005261790
0.01036018
0.01244183
0.01627270
0.02587745
0.02899964
0.02188700
0.01490013
0.009813632
0.002939541
-0.001272904
-0.006257419
-0.009223088
-0.01075434
-0.01257075
-0.01201581
-0.01201695
-0.008735396
-0.008529586
-0.007787354
-0.005470517
-0.003648232
-0.004004641
-0.005443086
-0.0006113068
0.001407827
0.004730876
0.009772689
0.01256349
0.01536668
0.01627922
0.01699350
0.01647967
0.01402719
0.008807021
0.008638549
0.008892766
0.003556600
0.002161526
0.004330756
0.002980094
-0.0005793450
-0.002342434
-0.002174607
0.001814635
0.002642259
0.004833219
0.003970949
-0.002432846
-0.005863211
-0.008557610
-0.007153703
-0.008258593
-0.006780820
-0.002714896
-0.003912282
-0.001817484
-0.003575916
-0.006525781
-0.005997142
-0.004786648
-0.001427716
-9.638487e-05
0.004883337
0.005366744
0.002270315
-0.001381792
-0.005339975
-0.006504261
-0.01212635
-0.01273576
-0.01123560
-0.01172705
-0.008510562
-0.004156714
0.001375422
0.007792114
0.009055941
0.005409537
0.005515147
0.006764955
0.007265503
0.009094013
0.009894002
0.009929353
0.008714197
0.005228202
0.002789219
0.001843981
0.0002025164
0.001055016
-0.0006124782
-0.005891887
-0.01020718
-0.01280829
-0.01670509
-0.01847876
-0.01007356
-0.002685192
-0.001544399
0.0006390932
0.001361619
0.001470339
0.002107290
0.004132062
0.009466687
0.01200634
0.01721779
0.02263398
0.02372913
0.02611879
0.02333301
0.01685883
0.01045898
0.005402958
-0.0001955787
-0.009855207
-0.01513660
-0.02268963
-0.03035882
-0.03081291
-0.03380721
-0.03542862
-0.03202697
-0.02814457
-0.02405929
-0.02049938
-0.01770639
-0.01060647
-0.001133100
0.007744164
0.01480109
0.01861720
0.01733672
0.01263173
0.01150017
0.01127750
0.008202491
0.008317816
0.01056751
0.007465175
0.005227409
0.004980823
0.005232315
0.006529011
0.009908949
0.01215274
0.01422229
0.01755961
0.01248318
0.009386221
0.005029046
2.365382e-06
-0.003631819
-0.009488972
-0.007755378
-0.008583745
-0.009823139
-0.009688491
-0.008691125
-0.006468129
-0.006625507
-0.004460093
-0.0008663221
0.004456768
0.007962436
0.004371328
-0.0003908773
-0.002522194
-0.005693966
-0.001544829
0.006103580
0.009093393
0.01263410
0.01033168
0.005166995
0.002534690
-0.003274859
-0.008646615
-0.01206153
-0.01139485
-0.01054843
-0.01231407
-0.008959625
-0.006153634
-0.004181791
-0.001588252
0.001856051
0.008285634
0.007865474
0.005394703
0.004540355
0.003065701
0.003805686
0.002181826
0.0009990910
-0.001298268
-0.002351671
-0.002944299
-0.004461262
-0.004853854
-0.005719423
-0.006340956
-0.008667324
-0.008302713
-0.01206245
-0.01359628
-0.01082795
-0.009555527
-0.0007939597
0.006557272
0.01054190
0.01110939
0.007218949
0.006047098
0.006948140
0.009780897
0.01378376
0.01451104
0.01275851
0.01122146
0.009149684
0.008019877
0.004203508
0.0008399860
0.0001481254
0.003026155
0.005777595
0.006085108
0.006516417
0.0009048723
-0.004753008
-0.008460702
-0.01186266
-0.01354382
-0.01110470
-0.002472534
0.005598517
0.008233503
0.007703446
0.004857481
0.001747890
-0.001352728
0.0004807577
0.004305155
0.007556229
0.01163415
0.009188156
0.002295937
-0.002756689
-0.001252922
0.001022280
0.0003455896
-0.004383130
-0.006967676
-0.009562214
-0.01238298
-0.01471732
-0.01725635
-0.01381341
-0.01200849
-0.009003817
-0.005354099
-0.004689270
-0.006593395
-0.005595678
-0.004141436
-0.004623302
-0.002276410
2.659004e-05
0.002472093
0.002103001
0.001989064
0.0006993489
-0.001278516
0.001801458
0.005710833
0.006055633
0.007356862
0.008500887
0.005171152
0.006695012
0.005377036
0.005880780
0.009654817
0.008708017
0.01222416
0.01135605
0.01120815
0.01015586
0.007420422
0.007749898
0.005713362
0.004547834
-0.003316782
-0.006309671
-0.005885551
-0.007187379
-0.003702399
-0.002890407
0.0008045076
-0.001217108
-0.005202936
-0.003604636
-0.004095986
-0.004964797
-0.006217459
-0.004029296
-0.001274814
-0.0008225073
0.002345417
0.005883026
0.006503968
0.007701817
0.008069924
0.006487519
0.0008399152
-0.003720262
-0.008275698
-0.01240293
-0.01074794
-0.009989196
-0.003427402
0.003219777
0.003342057
0.003927652
0.003887158
0.0008832110
-0.002106016
-0.005276672
-0.008122889
-0.01045513
-0.01295214
-0.008383017
-0.006950740
-0.004406258
0.002835533
0.004137093
0.005910042
0.004103753
0.003197434
0.001173283
-0.003220414
-0.001738153
-0.002524676
-0.005840505
-0.009044746
-0.009284541
-0.005911935
-0.0008853448
0.002535837
-0.0003162833
-0.002689136
-0.004451714
-0.003232026
0.0008003489
0.001133188
0.002100892
0.001654048
0.001306756
0.001483220
-6.955141e-05
-0.0005818775
0.0004423550
0.001708781
0.002828055
0.002757573
0.004883670
0.003850055
0.003422411
0.007897573
0.007682823
0.01248302
0.01328890
0.01285423
0.01384388
0.009770673
0.009504241
0.003133375
-0.0003381509
-0.001065200
-0.004584723
-0.003933264
-0.004901602
-0.003238273
-0.001594323
-0.001833243
-0.002079867
-0.002590824
-0.003809804
-0.005556602
-0.006738312
-0.007347025
-0.007702828
-0.008937253
-0.005735061
-0.002861843
-0.003969585
-0.003421325
-0.002118028
-0.002206170
0.003886222
0.009834433
0.008062338
0.006285928
0.006310665
0.006167311
0.005489749
0.005121972
0.004034712
0.003148755
-0.0005381583
-0.006321492
-0.006322887
-0.008348690
-0.01147341
-0.01034045
-0.01170726
-0.01318513
-0.01420127
-0.01346562
-0.008946546
-0.003429210
0.002822954
0.007261680
0.007071656
0.005210903
-0.0002458838
-0.003371254
-0.002245799
-0.0007937849
0.001468475
0.006021573
0.01157018
0.01016394
0.01188389
0.01227568
0.008871997
0.008111789
0.006474530
0.008969924
0.01120869
0.01015944
0.009087758
0.006349877
0.005722055
0.004111011
-0.0004879466
-0.005223019
-0.009293366
-0.01225280
-0.01574562
-0.01071158
-0.006432111
-0.004720205
0.001615920
0.003729696
0.003474658
0.002160725
0.001935069
0.0002717014
-0.003058458
-0.002816102
-0.003124194
-0.002098535
-0.0001219108
-0.0004174168
-0.001809179
-0.003407286
-0.004741950
-0.005773245
-0.002991693
-0.0003539178
-0.002502463
-0.002388521
-0.0007874237
0.001810795
0.002204309
-0.0006045219
0.001242445
0.003721588
0.004450173
0.003269957
0.003693274
0.0002576976
-0.003898401
-0.005211253
-0.007524643
-0.003384744
-0.0003829535
0.002618101
0.006362115
0.006480251
0.005925186
0.002229447
0.0001965493
-0.0001379551
-0.002135107
-0.0005906314
-0.001084731
-0.004442758
-0.002832450
-0.001152649
-0.0002008303
0.002145567
0.002413364
0.004214835
0.005329462
0.004081226
0.002371733
-0.003291177
-0.006745426
-0.007609705
-0.008653658
-0.01131683
-0.009014351
-0.005307996
-0.006052994
0.001168651
0.005471242
0.009328853
0.01164160
0.01122141
0.01387544
0.01230803
0.01165432
0.008174264
0.007464035
0.005118561
-0.0003541776
-0.002972552
-0.004747754
-0.006035892
-0.004226272
-0.002125243
-0.006982804
-0.007076020
-0.008980696
-0.01220154
-0.01353286
-0.01390523
-0.01148413
-0.01227714
-0.009611750
-0.007347434
-0.004841638
-0.004356054
-0.005658001
-0.001324711
0.002486998
0.004273081
0.005894622
0.006202100
0.002673978
0.0007140921
-0.002469605
-0.002563280
-0.0004023843
-0.002206565
0.001803832
0.002991986
0.002588700
0.005607967
0.007771504
0.008519065
0.008590407
0.006473871
0.003745397
0.007301108
0.01034776
0.01070127
0.01129281
0.01195070
0.009400824
0.006979042
0.005978198
0.005373585
