EVENT_NAME: 
EVENT_DATE_YYYYMMDD: 20201105
EVENT_TIME_HHMMSS: 032527
EVENT_LATITUDE_DEGREE: 38.6957
EVENT_LONGITUDE_DEGREE: 13.8490
EVENT_DEPTH:   4.90
MAGNITUDE_L: 3.6
MAGNITUDE_W:
FOCAL_MECHNISM:
NETWORK: IV
STATION_CODE: ECHR
STATION_NAME: Biancavilla
STATION_LATITUDE_DEGREE: 37.6863
STATION_LONGITUDE_DEGREE: 14.9129
STATION_ELEVATION: 1171
LOCATION:
VS30_M/S: '0' (0=missing)
SITE_CLASSIFICATION_EC8: A
MORPHOLOGICAL_CLASSIFICATION: T1
EPICENTRAL_DISTANCE_KM: 145.678467
EARTHQUAKE_AZIMUTH_DEGREE: 140.031998
DATA_TIME_FIRST_SAMPLE_YYYYMMDD_HHMMSS: 20201105_032527.0
DATA_TIME_FIRST_SAMPLE_PRECISION: milliseconds
SAMPLING_INTERVAL_S: 0.01000000
NDATA: 29500
DURATION_S: 300
STREAM: HNE
UNITS: cm/s^2
INSTRUMENT: TRIDENT-FS-40-VPP_____EPISENSOR-FBA
INSTRUMENT_ANALOG/DIGITAL: D
INSTRUMENTAL_FREQUENCY_HZ:
INSTRUMENTAL_DUMPING:
FULL_SCALE: '0.5' (999=missing)
N_BIT_DIGITAL_CONVERTER:
PGA_CM/S^2: 0.0133989
TIME_PGA:
BASELINE_CORRECTION: REMOVED
FILTER_TYPE: BUTTERWORTH
FILTER_ORDER: 4TH
LOW_CUT_FREQUENCY: 0.20
HIGH_CUT_FREQUENCY: 45
LATE/NORMAL TRIGGERED:
DATA_VERSION: ISMD_2.0
DATA_TYPE: AUTOMATIC_PROCESSED_ACCELERATION
DATA_TIMESTAMP_YYYYMMDD_HHMMSS:
UNUSED1:
UNUSED2:
USER1: MEAN_REMOVED
USER2:
USER3:
[...]
-0.007850035
0.002270139
0.002475673
-0.003314206
-4.869843e-06
0.0004459615
0.005187566
0.003168121
-0.003714828
-0.0005348565
0.002705079
0.001842793
0.0002334422
0.0004213483
0.0003969806
0.002670609
0.004143236
-0.002794988
-0.003570224
0.003778257
0.001826805
-0.0002951212
-0.0005417058
-0.004505268
-0.002178179
-0.001547616
-0.003348331
0.001720859
-0.001904862
-0.009421814
-0.002722471
-0.0005638693
-0.005360997
-0.001959930
0.001913799
0.0008841493
0.0001238668
0.0004103285
0.002192847
0.001974619
-0.0002465991
0.002861302
0.007543522
0.006325252
-0.001272501
-0.0008237879
0.001045933
-0.001152168
0.002070637
0.001732808
-0.001522140
-0.003006516
0.0004699118
0.001829777
0.002412176
-0.003216064
-0.008398292
0.0009056669
0.001835229
-0.0008117754
0.0009238907
-0.0002075248
-0.001173879
-0.001733885
-0.002857927
0.0007988886
0.002818651
0.004021296
0.002104396
-0.001880822
0.002066258
0.001793160
0.0006712006
0.0001098217
0.001709949
0.004070001
0.001044506
-0.0008953360
-0.0001473448
0.003309119
0.006534702
-0.0007273808
-0.002653708
0.001981863
-0.001087680
0.0009907210
0.001962352
-0.001206944
0.002455639
0.006554691
0.0001499953
-0.003168020
0.001633190
0.008276603
0.005352199
-0.0002261082
0.001151543
0.003094893
0.006330448
0.0004405235
0.001419261
0.001992684
-0.001369348
0.001909000
-0.003527751
-0.0004347806
0.004954955
-0.004370651
0.0009938333
0.005578538
-0.005321274
-0.002289770
-0.0006580480
-0.0007804955
0.001836812
0.003411791
0.0009418284
-0.004960794
0.001712629
-0.0008136155
-0.001678751
0.001725140
0.0003865170
0.0004570030
-0.003631545
0.001091137
1.147551e-05
-0.0006635800
0.007184721
0.001440878
-0.003503009
0.001520564
0.0009649014
0.002634304
0.004500410
0.002896098
-0.0003574612
0.001004744
0.004855365
-0.003430796
-0.0001553171
-0.0007311569
-0.0001659553
0.003397103
-0.002766816
-0.002667994
-0.005561161
-0.0009743012
9.564772e-05
0.0008346181
0.002621482
-0.002856638
-0.0001148467
0.003395158
0.002278946
-0.0009800681
-0.001017402
0.0007190781
-0.0001754099
-0.0009640323
0.0004842258
0.004466200
0.0008974264
-0.0001778720
-0.0002584950
-0.004136762
0.001410103
0.004913711
0.005570226
0.0001746218
-0.003628025
-0.001308525
-0.002120494
-0.0002679778
-2.801130e-05
0.001403197
-0.001354213
-0.003303801
0.001988380
0.001480291
0.002421749
-0.001101032
-0.001301999
0.003567904
0.0007455162
-0.0006526404
-0.002625564
0.001640004
-0.0002736455
-0.004626221
-0.001085929
-0.001936216
-0.0008756160
-0.003155403
-0.0009535680
0.002470866
-0.004336422
-0.006316890
-0.001470050
0.001799782
-0.0008478110
-0.003104085
-0.002329294
-0.0005370650
0.004366299
0.002433074
-0.002050545
0.001946872
0.004273710
0.0006099183
-0.001101062
-0.0001236799
-0.001393299
0.0007463458
0.002920803
0.003530283
0.0001569044
-0.003820076
0.002369091
0.002514760
0.0003177192
0.0003629413
0.0009237427
0.001191281
-0.001809378
0.002700384
0.002492364
-0.002371917
-0.0005406349
0.002972043
-0.0005451695
-0.003990893
0.0001538859
-0.001952344
-0.002631862
0.0001811000
-0.0006055229
0.001711720
-0.0004383803
-0.005218390
-0.001029799
0.003058159
0.003810627
0.002075634
-0.0008192700
-0.003195387
-0.002848610
0.003368521
0.001716565
-0.003784609
-0.001477165
0.0008373474
-0.001797227
0.0006905963
0.001321960
0.002012918
0.002684939
-0.003755385
-0.0009380450
-0.0008091997
-0.0006992410
0.0001388630
-0.002603817
-0.001345420
-0.0008475426
-0.001861380
-0.002593653
0.003533437
0.002314299
0.001372960
0.002235895
-0.0007463037
-0.0001850770
0.001496715
0.004166341
0.001659709
-0.001035708
-0.002347525
0.0004850727
-0.003237478
-0.004974658
-0.0001772723
-8.441186e-05
-0.001811426
-0.005260587
-0.004318659
-0.003083776
0.001201023
-0.002041892
-0.004526529
-0.0009368067
-0.001282727
0.001565753
0.0006508054
0.0001636894
-0.001143850
-0.002396978
0.0005982617
0.0002325170
-0.001670626
-0.004157421
-0.003247059
0.001199365
0.001589473
-0.002176913
-0.007334010
-0.001734126
0.005944798
0.002188757
-2.014737e-05
0.001991356
-0.0003442910
-0.001950845
0.003652406
0.003495513
0.002718537
0.0005024342
9.554951e-05
0.002777488
-0.005302320
-0.006963048
0.002489254
0.004155157
-0.0005879950
-0.001833005
-0.003630606
-0.002461441
0.0004281274
-0.001574279
-0.001674500
0.003642155
-0.001004400
-0.002343897
0.001758581
-0.0001103814
0.002086364
0.003106415
-0.0004003885
-0.0006111225
0.002471621
0.0005177025
0.0008182660
-0.002575917
-0.001387471
0.003485295
-0.0008907965
-0.002766460
-0.001962672
-0.0005240904
-0.003981591
0.0003073921
0.008765022
0.001992955
-0.0003779380
0.003763977
0.003075985
0.003159995
0.005275223
0.003384162
0.002094404
0.006139076
0.003219469
0.0002307516
0.0001763221
-0.003278217
0.001078262
0.003924270
-0.002524446
-0.002896825
-0.0003859552
-0.0009620711
-0.0001084312
0.001043194
-0.0003902281
-0.004973965
-0.002096444
0.002224225
-0.0008236187
0.0003607612
-0.001101710
-0.002133582
-0.001670119
-0.001402810
-0.0001292227
0.0004698697
0.003932253
-0.002412119
-0.003261338
0.0006318600
-0.004647209
-0.005431433
-0.003324131
0.001836856
0.0008855539
-0.005051123
-0.002690914
3.182560e-05
-0.001681743
-0.006269864
-0.0002081706
-0.0003701364
-0.002269065
0.001418631
-0.003114917
-0.003064291
-0.001282451
0.003256515
-0.002688200
-0.001656881
0.003832614
0.001092637
0.001611891
-0.004555515
-0.0005698745
0.001857217
0.0003652560
0.003051450
0.002260126
0.003464057
0.001541784
-0.0001958973
0.003137352
0.005336278
-0.0005949647
-0.0004265382
0.002907980
-0.0009366882
0.001159511
-0.0005028845
-0.004937385
-0.004552878
-0.003963667
-0.002592636
-0.001227967
-0.003429717
-0.004782271
8.556736e-05
-0.001673876
-0.002097982
0.003511426
0.002401867
-0.0001608676
-0.001340310
3.960828e-05
0.003991236
-0.001545873
-0.007052880
0.001769220
-0.001208364
-0.007618350
-0.001376700
-0.0006685789
-0.005095569
-0.005859819
-0.002066445
-0.002362158
-0.003012106
4.537923e-05
0.001701146
-0.001596410
-0.001993726
-0.001968756
-0.003397072
0.001183729
0.001632359
0.0009037375
0.003012161
0.001363013
-0.003078422
-0.001558139
0.002130723
0.0005557336
0.001409031
0.003268998
0.0008033718
-0.0002499017
-0.0004910454
-0.001445261
-0.002371632
0.0008053149
0.002445149
-0.001725522
-0.001829868
-0.001312179
-0.001272631
-0.0005641225
-0.0005749852
-0.002579467
0.002192473
-0.001166104
-0.004017236
0.001699022
-0.001887914
0.0001723131
-0.003958801
-0.003279931
0.002011752
-0.001785839
-0.001581779
0.0003929964
-0.004427769
-0.002621650
0.005529257
-0.002283206
-0.002047950
0.001110304
0.0008748336
0.003566570
-0.002102124
-0.003412074
0.0002456189
0.002833009
0.001038072
0.002153024
0.001195820
-0.002431645
-0.0003708780
-0.001116719
0.003275144
0.002124103
-0.002673187
-0.001195862
0.003191021
0.004205711
-0.0008882526
0.003787764
0.002803301
0.0008197270
0.001726097
-0.002816759
0.001021176
0.005713628
0.002238173
-0.001575394
0.0004017307
0.002510713
0.0004312419
0.0002602261
0.0001883068
-0.005117013
0.002106845
0.007059383
-0.001914774
-0.002494421
0.0006135355
-0.001261500
0.0004574314
0.005673979
0.0008869739
7.373132e-05
0.002868410
0.0007472331
-0.001351519
-0.0008236516
0.006148575
0.004621978
-0.002697630
-0.001129908
0.004961690
0.006277538
0.006572688
-0.0002836621
-0.007381876
0.002780520
0.006206415
0.0004577171
0.0002483452
-0.002965794
-0.0009885635
0.001126717
-0.002818074
-0.0007447788
0.001717532
0.002779009
0.0003311353
-0.005211215
-0.003796256
0.001300870
0.001529615
0.001429413
7.848075e-05
0.0002705480
0.003331378
-0.001524105
-0.004351295
-0.004126486
-0.0007956489
0.003171743
-0.004122372
-0.006340737
-0.0002384166
5.695855e-05
-0.005066339
-0.002676618
-0.002329232
-0.004215344
0.004200822
0.001678560
-0.001191836
0.003514393
0.001434101
0.0006904062
0.002832010
0.0009800857
-0.0009032199
0.001210114
0.002882541
0.003976171
0.003403111
-0.002075152
0.001275112
0.005289318
0.002694638
0.004223682
-0.001904825
-0.004376241
-0.001854850
0.005154441
0.006638357
-0.0008532600
0.001111388
-0.003139155
-0.0008523671
0.003288188
6.375642e-05
0.002283700
0.0006880068
0.003359979
0.005333582
0.003112628
0.001624051
-0.002988982
0.0006686235
0.001898891
0.001477978
0.003022255
-0.001932616
-0.002920833
-0.004602531
-0.0001959820
-0.0006751321
-0.005328643
-0.0004176683
-0.002771768
-0.005797703
-0.005713132
0.0002243761
-0.001675418
-0.003145852
5.013918e-05
-0.003661969
3.206736e-06
-0.002874399
0.001199070
0.004181513
-0.001374559
-0.002934266
-0.003550876
0.002249131
0.001735977
0.003948351
0.003390091
0.001469504
0.004176988
0.001358676
0.0003275692
0.0008980114
0.005961232
0.006479186
0.001654189
0.0004146240
0.001050219
-0.004120189
-0.001854676
0.005122005
0.0003077590
0.002012241
0.0004161822
0.001746775
0.003431455
-0.001490682
0.005608295
0.005129485
-0.001909433
-0.001477698
0.003750032
0.004019865
0.0007057389
-0.0009771775
-0.003411294
-0.0003987809
0.0001947250
-0.0005803260
0.002947764
0.002327127
-0.003569010
-0.002289563
-0.003515691
-0.003431714
0.005051945
-5.217569e-05
-0.001605622
0.0009518336
0.003206122
0.001381604
-0.003825754
0.002228116
0.0003106052
-0.001295728
-0.0007397939
-0.002661496
0.002930093
0.0009018203
-0.0002471310
0.003104459
-0.002017638
0.003142313
0.004108028
0.004071177
0.006731529
-0.001449116
0.003277882
0.007240487
0.006460309
0.003620652
0.001760906
-0.0006109147
-0.004685934
0.002200854
0.002247297
-0.007268518
-0.007195274
-0.002075389
-0.004001596
-4.998814e-05
0.0002959241
-0.005140174
-0.001880416
0.002505705
-0.0009004936
0.0009123965
0.004713679
-0.002391845
0.002471312
0.005793794
0.003483413
0.005078772
0.001412429
-0.003653137
-0.0005789670
0.003940182
-0.002709505
-0.003180957
1.678562e-05
0.002747057
-0.002881291
-0.004539722
-0.0004160541
-0.006288871
-0.004679632
-0.003359677
-0.005311671
-0.001692346
0.003018174
-0.001625008
-0.003492122
0.0002152302
0.0003491768
9.582892e-05
-0.001846343
0.001059092
0.005120408
0.0009291967
-0.002011399
-3.720188e-05
0.0006094326
0.0004813410
-0.002793498
-0.0002197997
0.002414307
-0.003093909
-0.001860871
-0.001579755
-0.0005737963
0.001611102
-0.003177701
-0.001313564
0.002415637
0.001997211
0.0003406330
-0.0009022392
0.0003879059
0.002397698
0.003194318
0.001643891
0.004112271
0.001017679
-0.002868603
0.002967490
0.002778528
0.004249410
-0.0003582912
-0.002633072
0.001729721
-0.003404249
-0.0004336641
0.001290071
0.0005925227
4.695887e-05
-0.002873076
-0.003142559
0.0007743892
-0.0004703977
-0.005421553
-0.001798166
0.0002379927
0.001518050
-0.002033990
-0.001927097
-0.001643955
-0.001691415
0.001787378
-0.003850048
5.531602e-05
0.002549181
-0.001060811
-0.0003324405
-0.002532794
-0.0006178956
0.001368215
-0.0005994109
-0.003281595
0.002123531
0.004234930
-0.004383599
-0.004878424
0.001727968
0.002804860
-0.0006245794
0.0007069391
-0.005643304
-0.002204014
0.002397743
-0.003499482
0.003949821
0.001616294
-0.003569682
-0.0003516102
0.001730921
0.006303329
0.003358702
0.002570271
0.01163139
0.003238330
-0.002967827
0.006101084
0.004148317
-0.001663896
0.001367900
0.004256960
0.001552508
-0.0002950990
0.0001793325
-0.0005860233
0.0002926143
0.002749196
-6.134113e-05
0.002456740
-0.002581189
0.0005020362
0.005967193
-0.0005124933
0.002283429
-0.001039425
-0.0006473808
-0.001351487
0.003163380
0.0001833463
-0.008276538
-0.001914019
-0.002135727
-0.0008710154
-0.0007829762
-0.0009028831
-0.003878641
-0.005196125
-0.001410161
-0.0004201922
0.0008722734
-0.003639368
-0.0009275943
0.002476062
0.0005463025
0.006806043
0.003034674
-0.001679091
0.003403844
0.003760885
0.004292738
0.003780346
0.002609772
0.0009474551
-0.001648094
4.051874e-05
-0.0006113205
-0.0002889617
-0.0006693187
-0.006617978
-0.002727091
0.0004647062
-0.001890715
-0.001340508
-0.004050146
0.002131124
0.004114641
-0.002289261
0.002671428
0.0009533812
-0.002114720
0.001857047
-0.0002894709
-0.001544252
0.0009996492
0.0009697714
-0.0009290543
0.0004584410
-0.003449161
-0.003538514
-0.0002723175
-0.0008148669
0.0008552365
-0.0007485371
0.001408093
-0.0005218766
-0.004867528
-0.002108135
0.0003039205
0.003448281
0.005078874
-0.003174674
-0.005315706
0.001499993
-0.0004764356
-0.003689521
-0.0007864116
0.002078138
0.0004474115
-0.0001274053
0.0001600950
-0.003955534
-0.005363774
-0.002472342
-0.002799607
0.003001088
0.003225080
-0.001379230
-0.0004101480
-0.005255426
-0.005922388
-0.002466560
0.0005621761
0.002391608
0.001888299
0.0004734001
-0.0005069820
-0.002366340
-0.0002266820
0.002634812
0.001846621
-0.0005430520
-0.003818207
0.001531399
0.004260961
0.003006097
0.0007969026
-0.003767431
-0.001858592
0.003220970
0.003235727
0.002270071
-0.0003777056
-0.002028122
0.004425123
-0.001161060
-0.004614112
0.002487202
-0.0007264643
-0.002386179
-0.002773048
-0.004377326
-0.003975399
-0.002042396
-0.0002190232
-0.006591738
-0.005145460
-0.002046929
-0.004604177
5.712760e-05
0.0002316285
-0.002813678
-0.004695791
-0.0006827039
0.0003781419
-0.003229256
0.001623206
0.001745185
-0.002450552
-0.004050431
-0.001057555
0.001812534
0.0004735923
0.0003959861
-0.0001072815
0.001698072
-0.001608530
-0.005929123
-7.029754e-05
-0.0009458550
-0.005147948
-0.003149997
-0.004982642
-0.006850965
-0.001831481
-0.003007550
0.0008537929
-0.002837118
-0.01339889
-0.001460014
0.0002843158
0.0003340664
0.004362678
0.003493767
0.004067749
0.0002761601
-0.0002804158
0.002130679
0.003789594
0.002486419
0.002681626
0.004284986
0.0005500070
-0.003806467
-0.002828317
0.0002993109
0.003422901
-0.003196029
-0.004270483
0.001319894
-0.001500470
-0.005228539
-0.003639298
-0.002428852
-0.006278909
0.0001699820
0.001954358
-0.002040302
-0.001397550
-0.001021697
-0.0001444605
-0.003533106
-0.0006838382
0.002817631
-0.0007581767
-0.001975576
-0.001661037
-0.002817177
0.001268196
0.005583125
0.002274313
0.002943031
0.001883204
-0.0008580618
0.0003212247
-0.0001037734
0.002319000
0.004689554
0.004676028
0.002156545
-0.003553399
-0.001800102
0.002588256
-0.0001230475
0.0009809881
0.001953483
0.002123619
0.0006011587
-4.616110e-05
0.003051965
-0.0009876102
0.002211620
0.006233427
0.003192484
0.0006130141
-0.0008713400
0.001842971
0.005910464
0.004498037
-0.0006411489
0.001447783
0.0007755183
-0.002186720
0.0005616776
-0.002573128
-0.003637532
0.002964309
0.001154374
-0.005204446
-0.009614109
-0.005210774
-0.0006042366
-0.003184416
-0.001770533
-0.004931206
-0.002301605
-0.002408990
-0.006403977
0.0005437937
0.002102117
-0.001552753
-0.0008752400
-0.003325254
-0.005981944
0.0008173665
0.001355656
0.0001592552
7.925303e-06
0.005166850
0.005100095
-0.003977134
0.0001838588
0.004730517
0.004815110
0.002019371
0.001896012
9.268321e-05
0.004936570
0.008786527
0.0004896016
-0.0001826703
-0.0002531811
-0.001647923
-0.0003187685
0.002989949
0.0002145360
-0.0004207731
0.0005242692
4.614053e-05
0.003780964
-0.001202535
0.001224368
0.004639962
-0.001222796
0.003470587
0.004482297
0.0002361093
0.003069543
0.001007459
0.002306388
0.001917086
-0.002109213
0.001173450
0.003280514
0.006522993
-0.0008415214
-0.004106505
-0.0007721844
0.0002534264
0.002992907
0.004878166
0.005338329
-0.006416183
-0.003228786
0.002336572
0.006448857
0.006444742
-0.001167887
-0.002447627
-0.004067530
0.003826581
-0.002486785
-0.006441372
-0.004830661
-0.001915306
0.002282964
-0.002088805
0.0007875323
-0.007619792
-0.007576099
0.0003863948
-0.001857995
0.004172575
-0.0003514915
-0.003325147
0.001397930
7.880083e-05
0.005034304
-0.0002090343
-0.003919921
0.003050468
0.004873073
0.005415651
0.004005182
-0.0005812406
0.002304135
0.005744823
0.0004862483
0.003223741
0.006844246
0.005535316
0.004444178
0.002159781
0.001504850
0.0004160662
0.002817501
0.006021347
0.001723354
0.0005581580
0.0001399348
-0.002751408
0.002032768
0.003558859
-0.003318022
-0.003826006
0.0001918528
-0.002205973
-0.0008697862
2.225706e-05
-0.002160810
-0.003833456
-0.001100055
0.003803791
0.0002429745
0.0008348036
0.001354418
-0.0005988252
0.004843755
0.006108754
0.002260770
0.0002322425
-0.003824486
0.001597880
0.005016338
0.002972041
-0.004249384
-0.007141722
0.004162022
-0.002359487
0.001424425
0.003882031
-0.002732117
0.0007294552
-0.007831346
-0.005458376
-0.001156274
-0.002438444
-0.001916396
-0.0009658060
0.0007235112
-0.002954096
-0.004409310
-0.005154692
0.0005312264
0.0003205060
-0.0003754661
0.005801626
0.0004555889
-0.002486697
0.0005487978
-0.003702321
0.0001985777
0.007894062
0.004361396
0.002478336
-0.001814802
0.0003212296
0.004142711
0.0008355064
-0.0007629037
-0.001447135
0.0001604916
-0.001725990
-0.003311088
-0.001576036
-0.002879267
0.001290812
0.002289979
-0.004938399
-0.003847572
-0.002342269
-1.069107e-05
0.001052254
0.0003982289
0.001006566
0.001131673
0.001597674
0.004073631
0.002535561
-0.003680679
0.001472930
0.0001736230
0.0003953234
0.008134806
0.003438379
0.002960431
0.004494307
0.0008178517
-0.001223846
-0.003041041
0.001341185
0.001690294
-0.001238044
-0.0002570526
-0.001793011
-9.091559e-05
-0.003049419
-0.003367443
0.002023590
0.0006862347
-0.001169301
0.002574903
0.004246040
0.0004256423
-0.001404423
5.128440e-06
0.002316961
0.0009964783
0.004686000
0.004229152
0.001128229
0.001895746
0.003175838
0.003770745
0.001568973
0.0005876873
-0.0009645885
0.002891080
-0.0002786388
0.002664702
0.006347577
-0.001183949
-0.001672855
0.0009682529
0.0005697449
-0.001087628
0.002994896
0.003163628
-0.001336390
-0.001668012
-0.002612648
-0.005389277
0.0006475059
0.003595069
-0.001865613
-0.0009492497
-0.0008139000
0.0003661651
0.004591335
0.0007895642
0.0003516008
0.001518621
-0.001135307
0.003292786
0.002559665
0.001026172
0.0007357600
-0.002167741
-0.0002882153
0.0004845171
0.0003278797
-0.005045920
-0.004515408
-0.001928123
-0.007061248
-0.003976737
-0.002869874
-0.005069827
-0.001910333
-0.001006290
-0.003220919
-0.003858107
-0.003443307
3.901621e-05
0.0001489757
-0.0004058108
0.001945146
-0.001189546
-0.003371602
-0.002704117
-0.002332358
0.002425347
0.0005378390
-0.004011978
0.002787511
-0.003375030
-0.005565920
0.002585698
-0.0005622233
-0.003802127
-0.002240741
-0.0006833982
-0.001914860
-0.001083797
-0.0007106223
0.001118069
0.0009820015
0.0007088306
0.002575411
0.002985842
0.002009792
-0.0008814224
0.003010899
0.004720778
0.003210504
0.001248755
-0.002401473
0.002338582
0.003905755
0.002569124
0.003590609
0.004462829
0.003004601
-0.001563511
-0.001028917
0.0006832108
0.004125221
0.002043250
0.002884552
0.002707032
-0.002362949
-0.001589978
-0.003704925
-0.003753458
-0.002278344
0.0001846832
-0.002147434
-0.001912819
-0.004068250
-0.006160428
-0.0006676988
-0.002458931
-0.006393924
-0.005762990
-0.0009428347
-0.001189454
-0.001232969
-0.002178938
-0.005941499
-0.003912783
0.001159494
-0.0007714577
-0.003075608
0.002474563
0.003696596
0.002506738
-0.002597960
-0.003440183
0.006766153
0.006106305
0.002285944
0.003689076
-0.001450069
-0.0006744135
0.001507862
0.0007680111
0.003142027
-0.004723900
-0.0008656060
0.004641520
-0.0009932455
0.002361452
