EVENT_NAME: 
EVENT_DATE_YYYYMMDD: 20201105
EVENT_TIME_HHMMSS: 032527
EVENT_LATITUDE_DEGREE: 38.6957
EVENT_LONGITUDE_DEGREE: 13.8490
EVENT_DEPTH:   4.90
MAGNITUDE_L: 3.6
MAGNITUDE_W:
FOCAL_MECHNISM:
NETWORK: IV
STATION_CODE: ENIC
STATION_NAME: Nicolisi
STATION_LATITUDE_DEGREE: 37.6314
STATION_LONGITUDE_DEGREE: 15.0216
STATION_ELEVATION: 886
LOCATION:
VS30_M/S: '0' (0=missing)
SITE_CLASSIFICATION_EC8: A
MORPHOLOGICAL_CLASSIFICATION: T1
EPICENTRAL_DISTANCE_KM: 156.496429
EARTHQUAKE_AZIMUTH_DEGREE: 138.735352
DATA_TIME_FIRST_SAMPLE_YYYYMMDD_HHMMSS: 20201105_032527.0
DATA_TIME_FIRST_SAMPLE_PRECISION: milliseconds
SAMPLING_INTERVAL_S: 0.01000000
NDATA: 30000
DURATION_S: 300
STREAM: HNE
UNITS: cm/s^2
INSTRUMENT: TRIDENT-FS-40-VPP_____EPISENSOR-FBA
INSTRUMENT_ANALOG/DIGITAL: D
INSTRUMENTAL_FREQUENCY_HZ:
INSTRUMENTAL_DUMPING:
FULL_SCALE: '2.0' (999=missing)
N_BIT_DIGITAL_CONVERTER:
PGA_CM/S^2: 0.0309011
TIME_PGA:
BASELINE_CORRECTION: REMOVED
FILTER_TYPE: BUTTERWORTH
FILTER_ORDER: 4TH
LOW_CUT_FREQUENCY: 0.20
HIGH_CUT_FREQUENCY: 45
LATE/NORMAL TRIGGERED:
DATA_VERSION: ISMD_2.0
DATA_TYPE: AUTOMATIC_PROCESSED_ACCELERATION
DATA_TIMESTAMP_YYYYMMDD_HHMMSS:
UNUSED1:
UNUSED2:
USER1: MEAN_REMOVED
USER2:
USER3:
[...]
-0.002502493
-0.003629280
-0.01072693
-0.01475309
-0.01678287
-0.01876647
-0.01520026
-0.01254414
-0.01012681
-0.005382375
0.0008521234
0.006427275
0.008398004
0.01138042
0.01373241
0.01288445
0.01101138
0.005763376
-5.093368e-06
-0.005062748
-0.01174556
-0.01466771
-0.01415798
-0.01571990
-0.01384079
-0.01017153
-0.009120171
-0.007040497
-0.004690407
-0.001168108
0.002643104
0.008407306
0.01168605
0.008886466
0.009256517
0.01029261
0.009314101
0.007518353
0.006422217
0.007709920
0.008150900
0.01088396
0.01132240
0.008908672
0.009134242
0.007120694
0.005778818
0.003819155
0.001948798
-0.0004419656
-0.003658260
-0.002157304
-0.003985176
-0.006463859
-0.005616106
-0.003122290
-0.001631904
-0.0007619532
0.002376957
0.004250912
0.006437324
0.007009767
0.005628001
0.007052051
0.007775977
0.005108079
0.005545011
0.005343486
0.001598760
0.001190893
0.0003149466
-0.0007334955
-0.002436834
-0.002447317
0.002234739
0.002852895
0.002103632
-0.0002664245
-0.003368031
-0.006594179
-0.01130230
-0.01337331
-0.01218395
-0.009787203
-0.009957518
-0.005384339
0.0007867645
0.005172550
0.008114407
0.004890874
0.003739826
0.0008752914
-0.004779607
-0.007535771
-0.01089377
-0.01588776
-0.01928072
-0.01877136
-0.01721076
-0.01347758
-0.01129538
-0.008372446
-0.005892343
-0.001331503
0.007186276
0.009512215
0.01305372
0.01654321
0.02073248
0.02156665
0.01688027
0.01806837
0.01735698
0.01415255
0.01166036
0.007064784
0.004002153
0.0007168611
-0.006371064
-0.01296149
-0.02043965
-0.02615140
-0.02761089
-0.02739140
-0.02391159
-0.02136768
-0.01693978
-0.01246569
-0.007730305
-0.002576594
-0.0002820675
0.001257058
0.0006998349
0.004208039
0.007724473
0.008933124
0.008599879
0.009227488
0.01589953
0.01950284
0.01640756
0.01132716
0.01010838
0.01216950
0.01659928
0.01544465
0.01007927
0.005546213
-0.001209689
0.002155843
0.007486172
0.008152410
0.007343803
0.003328714
0.003827336
0.004082133
-0.002583742
-0.008927325
-0.01165211
-0.01365759
-0.008889558
-0.004457910
-0.002935319
0.003560841
0.004171444
0.001833287
0.005369065
0.003049865
-0.004968839
-0.006723016
-0.007517912
-0.008120174
-0.004192323
-0.004131693
-0.005276468
-0.0003702241
-0.002225642
-0.005425380
-0.003047907
-0.008134911
-0.01159283
-0.01412598
-0.01911332
-0.01765888
-0.01195615
-0.006197989
-0.001160845
0.003837339
0.006150794
0.005340869
0.004345316
0.005419585
0.003968980
0.001848289
0.003099776
0.004877709
0.006429542
0.007381276
0.008326961
0.008864762
0.005362932
0.002695774
0.006396202
0.007713854
0.008005188
0.01169175
0.01406442
0.01147416
0.01082436
0.01028571
0.004593910
-0.001357902
-0.006892398
-0.006270831
-0.005973001
-0.007930015
-0.006058219
-0.003465401
-0.0004881394
0.003678704
0.008536041
0.01006288
0.01169345
0.01399721
0.01262069
0.01037110
0.004682514
-0.001321060
-0.003011781
-0.003227198
-0.006255826
-0.01081945
-0.01017259
-0.009409368
-0.008885065
-0.005333020
-0.002682932
-0.001260805
0.0005828310
0.0008443377
-0.0003227536
-0.003160447
-0.008124878
-0.01079946
-0.009110552
-0.006129304
-0.003286764
0.002776080
0.006147143
0.01074333
0.01582562
0.01326881
0.01014213
0.004427611
-0.003805245
-0.008139808
-0.008886698
-0.01093877
-0.01246572
-0.01007395
-0.005749361
-0.002087384
0.002172772
0.005934887
0.006606671
0.009612887
0.009995477
0.007203839
0.005284763
0.003795289
0.003798183
0.003282393
0.001875297
0.001241385
0.004669568
0.005030005
0.001123306
-0.005400698
-0.01079710
-0.01183514
-0.01668694
-0.02011790
-0.01948926
-0.01582508
-0.009591289
-0.002185680
0.001033694
0.003586251
0.01025116
0.01073072
0.01075029
0.01215114
0.01056305
0.01085081
0.01186693
0.009770971
0.008539361
0.009655421
0.01085009
0.01053484
0.007989702
0.007032731
0.006567711
0.003066797
-0.002230158
-0.007005668
-0.009828390
-0.01042944
-0.008387226
-0.004499109
-0.002328953
0.002450937
0.004201218
0.001043102
0.007359819
0.008396260
0.003180415
0.003551256
-0.0006250585
-0.001656938
-0.0008490726
-0.001672519
-0.003269775
-0.005911240
-0.003636656
-0.002663291
-0.003155233
-0.001720300
0.0008458114
0.0001230847
-0.0004799840
-0.001505092
-0.003764745
-0.001384794
0.0007438243
0.001730509
0.004228442
0.005130414
0.004969549
0.006627744
0.004417695
0.001319165
-0.002539888
-0.007917349
-0.01092931
-0.01549900
-0.01729067
-0.01700334
-0.01602429
-0.01140247
-0.005697881
0.002548601
0.008056860
0.007656731
0.01008148
0.01272448
0.01041078
0.005776669
0.003622560
7.314024e-05
-0.009089355
-0.01562152
-0.01843056
-0.01925479
-0.01873199
-0.01820850
-0.01390259
-0.007336412
-0.004687948
-0.004278007
-0.002607399
0.0002665541
0.0006899085
-0.0005833926
0.002041881
0.002224209
-0.001015656
0.0001494253
0.002269700
0.003981164
0.003347048
0.005580745
0.01012793
0.009520832
0.01116891
0.01110805
0.01012648
0.01064706
0.01183317
0.01237104
0.01059065
0.008489792
0.005862399
0.005655644
0.006212446
0.007546647
0.008222798
0.009479553
0.01462038
0.01829113
0.01781576
0.01388830
0.01190507
0.01394910
0.007648283
-0.0004075246
-0.002249943
-0.003530840
-0.002270866
-0.001580299
-0.002225731
-0.003604951
-0.005573626
-0.008353363
-0.01111554
-0.01407995
-0.01814532
-0.02050952
-0.02300873
-0.02347207
-0.02029422
-0.01710803
-0.01268325
-0.008033044
-0.008283455
-0.009230234
-0.006839016
-0.004054898
-0.002934428
-0.003792567
-0.004168325
-0.003783501
-0.002458575
-0.001069755
0.002663171
0.01124233
0.01803330
0.02188671
0.02209354
0.02420080
0.02887329
0.02498972
0.01684350
0.008804249
-0.0005409893
-0.008636941
-0.01274596
-0.01605088
-0.01856465
-0.01953687
-0.01827990
-0.01121218
-0.007500647
-0.008739548
-0.005063748
-0.001119651
-0.0006808552
0.001142521
0.001205977
0.002457141
0.002598726
5.926161e-05
-0.001328275
-0.003423594
-0.0002333308
0.0008283368
-0.0005321148
0.002351570
0.006764823
0.008561155
0.009600076
0.01141349
0.008651054
0.004092913
-0.003208001
-0.008758779
-0.01245010
-0.01518947
-0.01312619
-0.009858492
-0.007166524
0.0003532886
0.008395357
0.01146867
0.01720172
0.01977306
0.01923548
0.01772369
0.01393378
0.01004279
0.003701727
-0.0002983371
-0.004101671
-0.01137472
-0.01581253
-0.01609379
-0.01648025
-0.01469499
-0.009278785
-0.006222890
-0.003757796
-0.001202694
-0.0006875223
0.0003963535
0.002364088
0.001772504
0.002442989
0.007367172
0.009071638
0.01156288
0.01687268
0.01995124
0.02000835
0.01853172
0.01506335
0.007772184
0.002795549
-0.002515873
-0.009235420
-0.01080814
-0.01052722
-0.009737998
-0.007930404
-0.003988592
-0.0006850701
-0.001188969
-0.002242806
-0.003321937
-0.006223108
-0.008675715
-0.009178040
-0.01114119
-0.01207826
-0.01144620
-0.008329763
-0.003180450
-0.0009115889
-0.001026271
-0.003074056
-0.005476858
-0.007207568
-0.008698189
-0.008644051
-0.008485525
-0.008617116
-0.006541082
-0.002235479
8.231035e-05
0.001420180
0.004787768
0.005265544
0.004397210
0.002700969
9.755118e-05
-0.001572756
-0.003735397
-0.005567659
-0.008829861
-0.01345287
-0.01542415
-0.01468755
-0.01298551
-0.008522817
-0.005438771
0.0006068309
0.009475101
0.01286907
0.01662191
0.02015346
0.02308924
0.02642220
0.02712236
0.02557495
0.02600648
0.02547759
0.02362482
0.02349026
0.02041242
0.01841774
0.01686387
0.01562042
0.01254090
0.008171123
0.005304386
-7.356297e-05
-0.004552083
-0.006924137
-0.009432805
-0.01654104
-0.02234509
-0.02227030
-0.02127459
-0.02186223
-0.02218178
-0.01750592
-0.01110579
-0.006015174
-0.001024814
-0.0006433884
-0.002492290
-0.002331560
-0.006968917
-0.009596891
-0.009024467
-0.01221493
-0.01104309
-0.006286736
-0.003975713
0.0006196466
0.005554605
0.007003164
0.009251161
0.009653902
0.007596069
0.006884523
0.003510374
-0.001308104
-4.043621e-05
0.0007489596
0.0008470378
0.001592500
-0.0005219608
-0.003126613
-0.006886735
-0.01068988
-0.01800337
-0.02038104
-0.01543383
-0.01266521
-0.007689369
-0.001053325
0.002760767
0.003696258
0.001438741
0.002315835
0.004059195
0.001130054
0.0008694707
0.0006050825
-0.0007943215
-0.0009273793
-0.0002479290
0.003189350
0.007390567
0.008308657
0.008136363
0.009791679
0.009561679
0.006186978
0.002346512
0.002887415
-0.0005067601
-0.004561556
-0.002345602
0.0001670458
0.002542900
0.002081360
0.003379099
0.001201637
-0.004062048
-0.006308788
-0.008099207
-0.01131144
-0.01539727
-0.01671188
-0.01740937
-0.01293236
-0.008479048
-0.005175091
-0.002499094
-0.001133394
0.002823523
0.003782227
0.008014903
0.01228356
0.01546315
0.02004478
0.02140591
0.02467678
0.02606402
0.02518234
0.02384429
0.02003756
0.01821753
0.01535873
0.009414599
0.003331874
-0.002592433
-0.008672346
-0.01266672
-0.01548777
-0.02107716
-0.02273657
-0.02046045
-0.01648326
-0.01223245
-0.01075440
-0.007383764
-0.002387884
0.003153550
0.004960907
0.003415101
0.003729478
0.002681505
0.002019319
-0.0004971935
-0.005361229
-0.007295551
-0.006933181
-0.004449828
-0.005152613
-0.001295521
0.0007777054
-0.002362962
0.0002171237
7.147445e-05
0.001066591
-0.0001042410
0.001046042
0.003352021
-0.0002272640
-0.0009505369
-0.002351336
-0.006116486
-0.009491778
-0.01116744
-0.01649802
-0.01906362
-0.01743712
-0.01321654
-0.007064135
-0.002786241
0.002192714
0.004326757
0.007904564
0.006913566
0.003149172
0.004326992
0.005730783
0.004724868
0.005313558
0.007166556
0.003559111
0.006300504
0.006611639
0.005462533
0.01119673
0.009884683
0.01177529
0.01441714
0.01586400
0.02016002
0.01943053
0.01737774
0.01607744
0.01292773
0.008509620
0.005588109
0.002360726
-0.0007240378
-0.002841062
-0.003337689
-0.0006962435
0.004344691
0.006119270
0.002192866
0.001454772
0.003677554
0.003925959
0.002699101
0.001500870
0.002206610
0.003738722
0.003178945
0.004263553
0.005143778
-0.0003931003
-0.006572756
-0.01367375
-0.01998730
-0.02252625
-0.02387670
-0.01980749
-0.01310235
-0.008965287
-0.003820990
0.003863846
0.008126141
0.008383666
0.006330890
0.004807900
0.002109086
-4.414470e-05
-0.0003098911
-0.005750502
-0.006277295
-0.005187444
-0.005325533
-0.001436151
0.0002452121
-0.0003263768
-0.0008611649
-0.001853078
-0.002036507
-0.001091342
-0.005019610
-0.006126302
-0.002667591
-0.002315040
-0.002761780
-0.004398922
-0.004077266
-0.001078915
-0.001004412
-0.001652206
0.0003306789
0.004161297
0.004603832
0.005061240
0.007198789
0.004909718
0.001302313
-0.002686186
-0.006719213
-0.01108878
-0.01345426
-0.01120196
-0.007896447
-0.004724675
0.002106069
0.007124840
0.009405701
0.01165839
0.01001407
0.008190790
0.006121790
0.004309753
0.002903796
0.002438089
0.003820885
0.008183585
0.01111512
0.01071182
0.01233950
0.01046962
0.008480740
0.008227495
0.007815213
0.007969477
0.004657689
0.004568255
0.007601314
0.007788120
0.009825905
0.01099500
0.008857840
0.006383860
0.003679971
0.004023538
0.002878197
-0.001015217
-0.0008594689
-0.0009212575
0.001043780
0.004839432
0.0009277388
-0.001346095
-0.002418355
-0.002391526
-0.0003052448
-0.004041781
-0.005405599
-0.007055708
-0.008681954
-0.006707816
-0.007015483
-0.009572290
-0.01096449
-0.01294611
-0.01491089
-0.01556630
-0.01693382
-0.01789018
-0.01656559
-0.01328186
-0.01039031
-0.008098486
-0.005530802
-0.002821336
-0.003222536
-0.001127763
-0.0004945921
-0.002837879
-0.003878013
-0.003625612
-0.001779628
-0.002808945
0.001175185
0.004768738
0.004437402
0.006688971
0.007196711
0.007156929
0.004799210
0.001483793
0.003904929
0.003861167
0.003030792
0.006012762
0.003574306
0.001847846
0.003592646
0.002588572
0.0004404160
-0.001105049
0.001473886
0.006468437
0.007655420
0.009387719
0.01359889
0.01399618
0.01319949
0.01147602
0.008626625
0.006530191
0.0008292407
-0.006955670
-0.01068342
-0.01158065
-0.01243668
-0.01369191
-0.01621979
-0.01499910
-0.01564778
-0.01432213
-0.007691986
-0.003920608
-0.001091117
0.0009591057
0.004410482
0.003755419
0.003145950
0.002083849
-0.0008160710
0.001933438
0.003231393
0.003827496
0.002800884
-0.001104432
-0.0003467432
0.003295830
0.002364470
0.0006121875
0.002611409
0.003564832
0.003841195
0.004074561
0.002840865
0.0006941439
-0.001632220
-0.003375862
-0.005419658
-0.002985892
0.0005667667
0.003781952
0.007319546
0.006319317
0.006058771
0.005839706
0.004365450
0.002624052
-0.001471005
-0.006005045
-0.005819330
-0.003366523
-0.003310307
-0.003403534
-0.002054545
-0.001450086
-0.001082201
0.0007981605
-0.002618596
-0.005980055
-0.005394692
-0.007386968
-0.008131510
-0.006868863
-0.005206339
-0.003176007
-0.002031831
2.232347e-05
0.002130432
0.001734747
0.0001828859
-0.0004968363
-0.001254615
-0.0007914387
4.147165e-05
-0.001628924
0.001884507
0.005827926
0.007162278
0.009893417
0.01064933
0.01282080
0.01160115
0.007964436
0.009086024
0.009496146
0.007289771
0.002967376
-0.002887689
-0.006939097
-0.01214270
-0.01434618
-0.01504257
-0.01343856
-0.007579334
-0.004303328
0.001236152
0.004462727
0.004266056
0.005806926
0.008808702
0.008350318
0.005020021
0.004296214
0.002414732
0.001020855
2.245160e-05
-0.004199597
-0.007283787
-0.005972931
-0.006520197
-0.01190135
-0.01703741
-0.01832196
-0.01897153
-0.02328085
-0.02530649
-0.02505335
-0.02431252
-0.01868647
-0.01332462
-0.01055347
-0.005805213
0.0003058541
0.001189113
0.0006483233
0.002787102
0.001215308
-0.0007376779
-0.001170797
-0.003290861
-0.003538277
-0.002917862
-0.0005130651
0.003606742
0.002470923
0.0003694927
0.003949726
0.007699930
0.009072185
0.009934106
0.009961127
0.01517737
0.02378638
0.02903939
0.03048047
0.03090112
0.02957053
0.02588571
0.02157949
0.01641417
0.01216743
0.008363295
0.004278064
0.001242193
-0.0008630366
-0.001279022
-0.001767689
-0.004126320
-0.003807186
-0.005345941
-0.006026784
-0.007081562
-0.01023120
-0.01021828
-0.01159512
-0.01299669
-0.01429516
-0.01371387
-0.01168827
-0.01043780
-0.009383010
-0.006870147
-0.004905459
-0.001572573
0.002774335
0.005395648
0.008317872
0.007616553
0.007087633
0.007798901
0.006649985
0.003526629
0.002565033
0.005123720
0.004607564
0.001088338
0.003946920
0.005655235
0.0005268503
-0.002416858
-0.007682968
-0.008653670
-0.007882580
-0.01094296
-0.01320314
-0.01427657
-0.01230883
-0.01084439
-0.008124539
-0.006769799
-0.004849176
-0.001023802
0.001624543
0.001550919
-0.0005188473
0.001484062
0.005363030
0.01030392
0.01266991
0.01375556
0.01752660
0.01694016
0.01529292
0.01350693
0.007143717
0.004237210
0.002390319
-0.002081141
-0.006264727
-0.008442660
-0.007997414
-0.01021634
-0.009660427
-0.009338777
-0.01278862
-0.01357746
-0.01498753
-0.01580313
-0.01771405
-0.01948731
-0.01674970
-0.01486520
-0.01036056
-0.002656778
0.002879954
0.009337084
0.01609032
0.01865262
0.01898983
0.01842910
0.01303138
0.01087730
0.009772031
0.004503770
0.003415429
0.0004785185
0.003270376
0.008927987
0.007252898
0.007912000
0.007197953
0.004301601
-0.001024613
-0.002939371
-0.0009175731
-0.002373565
-0.003681153
-0.005567810
-0.006609559
-0.006871570
-0.005312302
-0.004536508
-0.002285550
0.002723072
0.003628513
0.005887548
0.009231012
0.01081402
0.01015008
0.007415330
0.007637439
0.007938226
0.008545422
0.01070209
0.008665582
0.009596128
0.01096526
0.009208228
0.006463935
0.0003844324
-0.005270089
-0.01371628
-0.01737500
-0.01833938
-0.01792814
-0.01557520
-0.01562701
-0.01072071
-0.008319658
-0.006722104
-0.005266802
-0.006603786
-0.006631976
-0.008952214
-0.01239048
-0.01327718
-0.01225162
-0.01124426
-0.01111033
-0.008501165
-0.005026451
-0.001897458
0.004571504
0.006823295
0.007872398
0.009863582
0.01068367
0.01122103
0.01000414
0.007509381
0.002855967
0.001447951
0.001005277
0.001594441
0.003764286
0.005684605
0.004810816
0.004103644
0.007638657
0.009050041
0.007140988
0.003836249
0.006014858
0.009071664
0.01010057
0.01035940
0.008785590
0.008736736
0.01134646
0.01256942
0.008679671
0.007669647
0.007396520
0.006509251
0.004860032
0.0009330266
-0.0001016736
0.0004669545
-0.001588261
-0.002497103
-0.002273976
-0.002858050
0.0008356652
-0.0001538962
0.001833140
0.005951669
0.004745717
0.006530642
0.007755348
0.01143279
0.01160617
0.005900105
-5.875423e-05
-0.006208632
-0.009546513
-0.01166979
-0.01514514
-0.01832159
-0.02175475
-0.02176694
-0.02002538
-0.01715661
-0.01381116
-0.01093817
-0.006962325
-0.007099225
-0.004100693
-0.001705401
0.0003552601
0.003859591
0.009732774
0.01608087
0.01755162
0.02009623
0.02080608
0.02230261
0.02073854
0.01578498
0.009078950
0.004393076
0.0008745404
-0.006820487
-0.009929649
-0.01152063
-0.008631089
-0.007197656
-0.007832057
-0.002559361
-0.003718016
-0.006379626
-0.005088991
-0.006218477
-0.01091600
-0.008476954
-0.003750529
-0.006372881
-0.006052234
-0.004130374
-0.005319152
-0.006135211
-0.006712356
-0.01092490
-0.009981022
-0.008908330
-0.009567147
-0.005362764
-0.004352765
-0.001209338
0.003209638
0.005220069
0.006074078
0.005050705
0.005740355
0.005137675
0.0002378526
-0.003571792
-0.007496125
-0.01007018
-0.008587939
-0.006316609
-0.004962273
-0.002878364
0.002669363
0.004881581
0.005968546
0.009645043
0.01125833
0.009733388
0.009202008
0.01031302
0.009094855
0.007240698
0.008958158
0.009350862
0.007051165
0.009088960
0.006772579
0.001292883
9.319666e-05
-0.001362843
-0.004600800
-0.008699010
-0.01000964
-0.009924980
-0.01075134
-0.009188093
-0.005855505
-0.003308641
-0.005603043
-0.01143150
-0.01143767
-0.01076855
-0.01504851
-0.01549651
-0.01351296
-0.01582455
-0.01513817
-0.01101769
-0.006482177
-0.0005302602
0.003832274
0.008552302
0.01211890
0.01498942
0.01669921
0.01432795
0.01269816
0.01317850
0.01506077
0.01523829
0.01125971
0.01170106
0.01453910
0.01404904
0.01098074
0.007770205
0.006259731
0.002884514
0.0006394431
-0.001337981
-0.002717533
-0.0006904532
-0.0004169379
-0.001289158
-0.001515868
-0.001443277
0.001852353
0.001050535
0.002054482
0.004556626
0.001425851
0.004775821
0.007997386
0.008064124
0.008108577
0.006746901
0.004022326
0.0002924573
-0.0007959103
-0.0007803552
-0.004617066
-0.008251783
-0.009862593
-0.01114159
-0.008388520
-0.009234563
-0.01074746
-0.008852367
-0.006960014
-0.003069159
0.002203504
0.006903294
0.009868260
0.01298779
0.01529356
0.01517567
0.01138073
0.008060514
0.008942060
0.006816061
0.003320558
0.0004398842
-0.005284493
-0.006862268
-0.007315120
-0.009735321
-0.009575612
-0.009697424
-0.01204864
-0.01361532
-0.01301218
-0.01120665
-0.009507045
-0.01278070
-0.01526566
-0.01634401
-0.01686573
-0.01348772
-0.009955811
-0.008338980
-0.007307424
-0.002845192
-0.004271355
-0.004141040
-2.290063e-05
-0.001079954
0.0001641405
0.001370997
0.005849154
0.009138759
0.009117454
0.01201496
0.01111657
0.009544012
0.009164263
0.006344774
0.006725546
0.007317497
0.004504059
0.004665680
0.005410195
0.007698185
0.008993603
0.006550539
0.006487832
0.007311650
0.008200007
0.007053263
0.006505166
0.008749179
0.01018696
0.01145717
0.01212124
0.01296686
0.009376000
0.002219951
-0.001191055
-0.002192108
-0.003871727
-0.006643600
-0.007980374
-0.009175764
-0.01156512
-0.01124423
-0.008992677
-0.01089638
-0.01545706
-0.01890778
-0.01994972
-0.02177029
-0.02053892
-0.01550916
-0.01410484
-0.009387823
-0.003356361
-0.002215195
0.0002342781
0.005493419
0.009649319
0.01155270
0.008949130
0.006632289
0.003804769
0.0004801177
-0.004725768
-0.01237565
