EVENT_NAME: 
EVENT_DATE_YYYYMMDD: 20201105
EVENT_TIME_HHMMSS: 032527
EVENT_LATITUDE_DEGREE: 38.6957
EVENT_LONGITUDE_DEGREE: 13.8490
EVENT_DEPTH:   4.90
MAGNITUDE_L: 3.6
MAGNITUDE_W:
FOCAL_MECHNISM:
NETWORK: IV
STATION_CODE: EVRN
STATION_NAME: Santa_Venerina
STATION_LATITUDE_DEGREE: 37.6892
STATION_LONGITUDE_DEGREE: 15.1356
STATION_ELEVATION: 421
LOCATION:
VS30_M/S: '0' (0=missing)
SITE_CLASSIFICATION_EC8: B
MORPHOLOGICAL_CLASSIFICATION: T1
EPICENTRAL_DISTANCE_KM: 158.566330
EARTHQUAKE_AZIMUTH_DEGREE: 134.467514
DATA_TIME_FIRST_SAMPLE_YYYYMMDD_HHMMSS: 20201105_032527.0
DATA_TIME_FIRST_SAMPLE_PRECISION: milliseconds
SAMPLING_INTERVAL_S: 0.01000000
NDATA: 30000
DURATION_S: 300
STREAM: HNE
UNITS: cm/s^2
INSTRUMENT: TRIDENT-FS-40-VPP_____EPISENSOR-FBA
INSTRUMENT_ANALOG/DIGITAL: D
INSTRUMENTAL_FREQUENCY_HZ:
INSTRUMENTAL_DUMPING:
FULL_SCALE: '0.5' (999=missing)
N_BIT_DIGITAL_CONVERTER:
PGA_CM/S^2: 0.0310282
TIME_PGA:
BASELINE_CORRECTION: REMOVED
FILTER_TYPE: BUTTERWORTH
FILTER_ORDER: 4TH
LOW_CUT_FREQUENCY: 0.20
HIGH_CUT_FREQUENCY: 45
LATE/NORMAL TRIGGERED:
DATA_VERSION: ISMD_2.0
DATA_TYPE: AUTOMATIC_PROCESSED_ACCELERATION
DATA_TIMESTAMP_YYYYMMDD_HHMMSS:
UNUSED1:
UNUSED2:
USER1: MEAN_REMOVED
USER2:
USER3:
[...]
-0.002039179
-0.003698102
-0.002550198
-0.0002013395
0.004400730
0.006972881
0.008965497
0.008879269
0.009035642
0.008747756
0.005595469
0.003326789
-0.0006600925
-0.005040173
-0.009598991
-0.01061576
-0.008371386
-0.006283116
-0.004339860
-0.002689222
0.002037424
0.003887583
0.006396093
0.007616315
0.004054078
0.002950301
0.001441403
0.002049351
0.005374526
0.008559988
0.007244536
0.003936267
0.002563489
0.0005039518
0.0002590028
0.0005163722
0.001062328
0.001662229
-0.0001979277
-0.001866858
-0.003397751
-0.006347714
-0.006313317
-0.006264457
-0.008969706
-0.01040535
-0.007413344
-0.004895396
-0.007926635
-0.009006430
-0.004457938
0.002075982
0.004906993
0.006702986
0.006468156
0.004270346
0.007515046
0.009996552
0.006957998
0.003001183
0.003609882
0.003092450
0.002161526
0.004690690
0.004997795
0.004775499
0.002058687
0.002219311
0.003328086
0.0006181353
0.0009243705
-0.003086644
-0.008095187
-0.007679261
-0.005227348
-0.004954096
-0.01055009
-0.01254231
-0.01173514
-0.01265538
-0.01368276
-0.01662279
-0.01599869
-0.01389949
-0.009278158
-0.0005657435
0.007395458
0.01386786
0.01444249
0.01598006
0.01863423
0.01931197
0.02035655
0.01651153
0.01056501
0.006477441
0.003767943
0.0008701279
0.0004446083
-4.440470e-05
-0.002691244
-0.006145933
-0.01059085
-0.01096452
-0.01204992
-0.01310986
-0.01087978
-0.01110529
-0.007175600
0.002296179
0.007601209
0.009662188
0.01279208
0.01514431
0.01453067
0.01366177
0.009390616
0.002305996
-0.002400607
-0.005175449
-0.002981703
-0.002100192
-0.006235200
-0.007361636
-0.005388155
-0.003614557
-0.001529403
-0.002569622
-0.003563149
-0.001186704
0.001823762
0.006459354
0.008055414
0.007243984
0.005231932
0.003270284
0.001306011
0.0001283908
0.001784194
-0.001612899
-0.006249643
-0.007815095
-0.008498704
-0.006487522
-0.002528780
-0.0008139323
0.0001920834
0.003525546
0.001480613
-0.001686905
-0.0005790755
-0.002172583
-0.003984350
-0.003326578
0.0003745811
0.001990655
0.0006905264
-0.0007555019
-0.002541008
0.001165407
0.002311335
0.0003691328
0.001523967
0.0009527385
0.0007753549
-0.001740660
-0.002299498
0.001056222
0.001415616
0.002725701
0.001110194
0.0003038861
0.001622377
0.001127895
0.001067893
0.001281842
-0.0003945144
-0.004783222
-0.003225338
-0.001933919
-0.003480228
-0.002416055
-0.0008014259
-0.001402148
-0.004964647
-0.004752078
-0.002739236
-0.001023456
-0.001868860
-0.007057217
-0.008135995
-0.005769335
-0.002862727
0.0008523600
0.003992108
0.004243772
0.005052922
0.01069047
0.01211868
0.008855443
0.004935171
0.001999717
0.002667422
0.002660627
0.003606533
0.004053657
0.002012892
0.004565374
0.002223654
-0.003750529
-0.004619900
-0.006098310
-0.006627882
-0.01180197
-0.01456129
-0.01134845
-0.01013662
-0.007158029
-0.005107161
-0.002966785
0.001347395
0.004750550
0.006794347
0.009490917
0.01240089
0.01633094
0.01929278
0.01788557
0.01493347
0.01370850
0.01471493
0.01010852
0.005136752
0.002853595
-0.004012687
-0.007383259
-0.007415846
-0.006783142
-0.005446801
-0.006059377
-0.006163253
-0.0008801071
0.001060780
-0.005759363
-0.007671906
-0.008231328
-0.009648739
-0.009204664
-0.01002921
-0.009734419
-0.008285956
-0.007054735
-0.004544665
-0.001216753
0.0005016696
-0.001332404
-0.002853053
-0.004365388
-0.009079226
-0.007941293
-0.007339027
-0.005792236
-0.003355894
-0.003683634
-0.001974049
-0.0007900851
0.002015223
0.002676659
0.001380233
0.001096228
0.001981435
0.002576148
0.009501067
0.01157648
0.009309460
0.01054053
0.01006461
0.01467737
0.01096496
0.004787150
0.003646094
0.002557367
0.001769649
-0.0001803675
-0.001165020
-0.003532285
-0.004339765
-0.002409698
-0.0002290194
0.0008712470
0.001231053
0.001044902
0.002299336
0.001744082
0.001899469
0.005599138
0.005853829
0.005540670
0.006312951
0.006144112
0.003177465
0.002240411
0.003223921
-0.0005830344
-0.005454826
-0.007369765
-0.006006189
-0.005610069
-0.003835031
-0.003360779
-0.004273067
-0.0007341763
-0.001680232
-0.004821100
-0.004912040
-0.006722361
-0.01154553
-0.009702740
-0.004572850
-0.0005307891
0.002679858
0.002190023
0.008195275
0.01216626
0.01101593
0.007850492
0.002951255
-0.001415967
-0.003628485
-0.002513103
-0.006082783
-0.006628809
-0.005555201
-0.008375420
-0.007725505
-0.003394771
-0.001665935
-0.002056446
-0.002241024
-0.003788022
-0.0007179787
-0.0004961928
-0.003764293
-0.003742155
-0.006315312
-0.008147370
-0.004389568
0.0009840721
0.001649370
0.002384373
0.001036290
-0.003023294
0.0002185940
0.005243643
0.005881998
0.004653133
0.004769114
0.004405527
0.005875811
0.007293826
0.006329930
0.005531134
0.003201835
0.001966175
-2.196164e-05
0.0009351972
0.0005628046
0.0002173357
9.600872e-05
-0.0007976106
0.006599937
0.007983604
0.008927289
0.01248248
0.01123691
0.008961458
0.007622122
0.007710591
0.004231059
0.0008502338
-0.001694706
-0.002451914
-0.003864398
-0.008613642
-0.01173061
-0.01583042
-0.01830697
-0.01592013
-0.01345523
-0.01118954
-0.008026072
-0.001468643
0.004744920
0.006407773
0.009938760
0.01334322
0.01311393
0.01250721
0.009958607
0.006532824
0.003496150
-7.117060e-05
-0.003980170
-0.006281691
-0.005405032
-0.006660146
-0.008744247
-0.006090844
-0.002374187
-0.001567713
0.0007216025
0.0006618759
-0.002496933
-0.005532604
-0.008904419
-0.007784162
-0.006079832
-0.003100231
0.0006834671
0.003010317
0.005921546
0.008116204
0.01002744
0.01226659
0.01074345
0.005878585
0.005405537
0.005293828
0.003932476
0.0004426077
-0.004516459
-0.006846369
-0.008280310
-0.006615250
-0.005339676
-0.007096564
-0.007128047
-0.005854818
-0.005987464
-0.002881599
0.001646476
0.0004430538
-0.001847504
-0.002504663
-0.003191017
-0.004772121
-0.003079554
0.0004731026
-0.0008217819
-0.0008263208
0.003817615
0.008106409
0.006627644
0.003907225
0.002055030
0.002096651
0.001807045
-0.003579168
-0.005770058
-0.006706317
-0.006663591
-0.003247853
5.324281e-05
0.0009509559
-0.001580684
-0.002857887
0.0003184973
0.005612197
0.006181112
0.002145237
0.0006398984
-0.0004623012
0.002312901
0.008503979
0.006476298
0.004875116
0.007385737
0.008079710
0.005350476
0.004155489
0.0005463212
-0.005689855
-0.005578233
-0.008546704
-0.007787800
-0.005467829
-0.006434126
-0.007238983
-0.009225901
-0.005142347
-0.0002020999
0.001368403
0.003750341
0.004488374
0.005626213
0.01068716
0.01121247
0.008265346
0.006808717
0.004964584
0.001946187
0.003340939
0.004988805
0.004929268
0.005231587
0.0005165709
-0.001380221
-0.0008321873
0.0008679675
-0.004075891
-0.01207841
-0.008432412
-0.007157184
-0.008355319
-0.009377608
-0.01344584
-0.01020062
-0.008654315
-0.008869770
-0.002589134
-2.693319e-05
1.593875e-05
0.001077276
0.002677334
0.003181903
0.003219601
0.004604153
0.002777485
-0.0001585486
0.001111847
0.006347752
0.008773945
0.005296477
0.005797833
0.006989180
0.008128352
0.009494376
0.005126079
0.006080931
0.007497753
0.005654206
0.003007370
0.002058283
0.004480446
0.003439064
0.001666699
-0.002841010
-0.003744225
0.001052885
-0.0004890860
-0.0003365620
0.0009050155
-0.0002813693
-0.001244036
-0.004011494
-0.003081454
-0.003824764
-0.005056592
-0.003710415
-0.002212236
-0.002382414
0.0002501642
0.007390097
0.007230267
0.003827078
0.001025328
0.001099215
0.004801389
0.001241199
-0.002630498
-0.001903537
-0.005893747
-0.007550823
-0.005346926
-0.004415732
-0.004852193
-0.008047588
-0.007698997
-0.007529772
-0.007984539
-0.003775841
-0.005948334
-0.008606688
-0.008706470
-0.009129055
-0.004204900
-0.002590412
-0.001991680
-0.002373956
-0.002019451
0.003009326
0.006172303
0.009506950
0.009270048
0.008758185
0.01051357
0.006949405
0.002839752
0.0008289844
0.0003788026
0.0005451830
-8.845878e-05
-6.534634e-05
0.0002541316
0.001458866
-0.0007998430
-0.001336400
0.0009660249
0.0003641571
0.002430893
0.005426775
0.002548448
-0.0003610193
0.002867806
0.005092270
0.005306992
0.004949362
0.003273577
-0.001862851
-0.004123434
-0.004196334
-0.004584997
-0.004345915
-0.006166947
-0.004696093
-0.005167386
-0.002372081
0.0007380198
0.0009956318
0.003265945
0.003960080
0.006708538
0.009010158
0.008609204
0.01046051
0.009027963
0.005397054
0.005029520
0.001102384
-0.001448675
-0.004184253
-0.003602579
-0.003629259
-0.008414986
-0.006544160
-0.006600545
-0.009293726
-0.009398308
-0.01015021
-0.01242567
-0.01451367
-0.01403141
-0.01331011
-0.01367282
-0.009589994
-0.007856339
-0.01013117
-0.006568525
-0.002482407
0.0004934956
0.007075973
0.009989208
0.01289658
0.01774274
0.01973991
0.02089021
0.01530040
0.01165283
0.008758137
0.002561018
0.002917110
0.006043346
0.007304537
0.004332366
0.001001023
0.002046649
0.003719666
0.001405314
-0.002133708
-0.002974366
-0.007013219
-0.009566464
-0.005175456
-0.002370314
0.0005917790
0.0009778256
-0.002575215
-0.001541662
-0.001663944
-0.004783653
-0.006256092
-0.008235548
-0.01069914
-0.01311961
-0.01187988
-0.009297925
-0.009469680
-0.008924260
-0.006930038
-0.005123054
-0.004879207
-0.001752506
-0.0006688382
-0.001980588
-0.0002385777
-4.956260e-05
0.003002734
0.009626847
0.01196487
0.009421874
0.009664710
0.01435530
0.01765721
0.01911590
0.01908612
0.01743912
0.01812924
0.01815418
0.01666220
0.01554160
0.01065936
0.006986965
0.005219481
0.003056441
0.001000413
-0.0003940196
-0.002580824
-0.006095046
-0.007387388
-0.009171259
-0.01077648
-0.01156891
-0.01515980
-0.02185720
-0.02434287
-0.02347052
-0.02010271
-0.01316080
-0.01230030
-0.01364455
-0.009868627
-0.004304098
-0.0004003128
0.0002706803
0.001326282
0.0007084046
-0.0005573518
0.0001281151
-0.002734716
-0.001255834
-0.0002233453
-0.0008204690
0.002365657
0.005496808
0.009521291
0.01078871
0.01010405
0.008868442
0.01022786
0.01140640
0.01156931
0.01079542
0.007817051
0.008005845
0.007644154
0.004144613
0.002609080
0.002448905
-0.0007409782
-7.030129e-05
0.0005522769
-0.003717528
-0.003916301
-0.004188311
-0.006733533
-0.008066296
-0.007507785
-0.009684440
-0.01509521
-0.01378690
-0.008187399
-0.007513848
-0.004786555
-0.001693281
-0.001713381
0.002473617
0.008937714
0.01653377
0.01565204
0.01316935
0.01355302
0.009114292
0.003608381
0.0005608840
-0.003414434
-0.01136580
-0.01420771
-0.01590887
-0.01561798
-0.009264437
-0.001891167
0.001630141
0.003768819
0.006520730
0.008170042
0.01072922
0.01072959
0.007832319
0.005014377
0.003279349
0.005608911
0.01026406
0.008688693
0.005140457
0.001648155
0.0008493448
0.002454356
0.001851688
0.004797810
0.006337528
0.004194047
0.007597229
0.01019068
0.004986770
-0.001426107
-0.008582379
-0.01220760
-0.01879373
-0.02522964
-0.02455716
-0.02571383
-0.02720077
-0.02852245
-0.02422319
-0.01940254
-0.01690818
-0.01273531
-0.007605942
-0.003554625
-0.002680359
0.002053828
0.006919349
0.01179470
0.01364684
0.01345585
0.01538169
0.01565472
0.01550299
0.01051010
0.009106715
0.009771296
0.008304810
0.01096452
0.009775282
0.009082277
0.01000171
0.01207674
0.01575343
0.01080084
0.004640126
-0.001109053
-0.003910158
-0.002601196
-0.005453450
-0.008746051
-0.009764160
-0.01034708
-0.01175691
-0.01132010
-0.005613481
0.003660941
0.003392731
0.0005558612
0.002037242
-8.957631e-05
0.002111990
0.002806702
-0.004389980
-0.007362508
-0.007205488
-0.005310208
0.003103158
0.006099472
0.005077322
0.005537064
0.004332920
0.0003671001
-0.001021349
0.001983872
-0.002037307
-0.004103101
-0.003224369
-0.001247970
0.003862995
0.004876459
0.004884284
0.007258691
0.009890826
0.009325924
0.01386308
0.02152061
0.02275080
0.02141029
0.01954512
0.01892082
0.01646127
0.01108018
0.005449400
-0.002021738
-0.008754090
-0.01634308
-0.02285561
-0.02553168
-0.02819700
-0.02809061
-0.02606226
-0.02667844
-0.02415503
-0.01718158
-0.01104494
-0.009923616
-0.01244109
-0.01119297
-0.006726277
-0.001803929
-0.0002582223
0.002342571
0.006270085
0.009761930
0.01599468
0.01678428
0.01875537
0.02124542
0.01789631
0.01441230
0.01065908
0.008322896
0.005442343
0.001794473
0.001167936
-0.0005318510
-0.004436722
-0.006111508
-0.008999304
-0.01145798
-0.01321944
-0.01637736
-0.01790551
-0.01692164
-0.01157567
-0.005497406
-0.001591695
0.0002605679
0.001854353
0.007289221
0.01377348
0.01509403
0.01253956
0.01147880
0.01193561
0.01096713
0.009272993
0.007308282
0.003133148
-0.001148522
-0.002676536
-0.004361407
-0.004542819
-0.004146071
-0.009304818
-0.01169460
-0.006898849
-0.002101322
-0.0002330869
-0.0003844791
-0.001747798
-0.004771578
-0.001575746
0.003335490
0.005428907
0.007414438
0.01029610
0.01623352
0.01542993
0.01613359
0.01910666
0.01553450
0.009227980
0.002848212
-0.003322552
-0.006934889
-0.009986540
-0.01552550
-0.01708592
-0.02055796
-0.02341365
-0.02184821
-0.01832303
-0.01534022
-0.01407235
-0.009376074
-0.005305626
0.001074265
0.004883513
0.007484382
0.01273269
0.01220255
0.01199923
0.01245270
0.01485073
0.01828246
0.02128380
0.02522081
0.02401011
0.01944642
0.01359002
0.004745635
-0.003594053
-0.008946760
-0.01548326
-0.02321333
-0.02617704
-0.02512891
-0.02520679
-0.02301310
-0.01551146
-0.01026130
-0.009656698
-0.008670046
-0.01152433
-0.01340958
-0.01168444
-0.01057935
-0.007863314
-0.004940718
0.001304136
0.008783779
0.01438085
0.01745152
0.01668586
0.01305904
0.008752428
0.004755148
0.0004291354
-0.002356690
-0.008958866
-0.01503950
-0.01507257
-0.01454160
-0.01228773
-0.009209344
-0.006010623
-0.003557151
-0.0009244865
0.002687525
0.008576880
0.01409869
0.01552346
0.01736132
0.02325236
0.02885820
0.02929034
0.03102815
0.02793116
0.02064041
0.01588600
0.01048085
0.007983156
0.006170130
0.003719739
0.002708947
0.001785049
0.0005992311
-0.003704391
-0.005874777
-0.005049029
-0.01057778
-0.01893972
-0.02460818
-0.02639525
-0.02931135
-0.02885585
-0.02426112
-0.02186680
-0.01698299
-0.01043482
0.001656643
0.007927809
0.005711934
0.009309859
0.01279886
0.01611590
0.01418299
0.009091312
0.007995596
0.006042235
0.006554928
0.003829551
0.0004500934
-0.001705747
-0.008932941
-0.01196658
-0.01186902
-0.01607217
-0.01990249
-0.02151136
-0.01987612
-0.01329743
-0.007401506
-0.001169615
0.001118588
0.002434592
0.008033406
0.01275345
0.01745293
0.01896428
0.02030657
0.01993258
0.02113873
0.02265901
0.01912352
0.01767061
0.01738910
0.01644598
0.01618424
0.01953436
0.01992772
0.01612099
0.01218288
0.007743599
-0.0002040751
-0.01004924
-0.01589884
-0.02301314
-0.02839442
-0.03020653
-0.03044717
-0.02747031
-0.01976733
-0.01305535
-0.008598740
-0.001243947
0.002945055
0.005780697
0.003177526
0.0001727414
0.0005289579
-0.001753047
-0.002697630
-0.004403300
-0.004525196
-0.007948752
-0.009904126
-0.01028212
-0.01348983
-0.01110977
-0.01057310
-0.005339770
0.002955422
0.007776486
0.01366956
0.01545815
0.01670789
0.01519811
0.01141932
0.007669611
0.003502767
0.0002797910
-0.001754178
0.002013334
0.007215701
0.009674470
0.008312249
0.005520164
0.003587231
0.0003668029
-0.004910409
-0.009845579
-0.008891932
-0.006918364
-0.005188711
-0.0007432735
0.004621331
0.007245088
0.007208196
0.009112250
0.009106006
0.005289089
0.001869472
0.001097042
-0.003768315
-0.004714551
-0.002834280
-0.008212662
-0.008947695
-0.007488775
-0.007664364
-0.007633892
-0.007066530
-0.005361137
-0.003445378
-0.003095694
-0.001365162
-0.0003061426
-0.003703189
-0.001164794
0.002819868
0.004286177
0.006256466
0.007894952
0.009039555
0.009935696
0.01064396
0.009893532
0.008334414
0.002424781
-0.002797398
-0.007110532
-0.009324430
-0.006866773
-0.006294019
-0.003418285
-0.0005743689
-0.0002921897
0.002422448
0.004930663
0.003198890
-0.001350047
-0.005725896
-0.005964335
-0.004171689
-0.004095352
-0.006510214
-0.006317888
-0.0005679618
0.0008728641
0.0008624720
-0.002411946
-0.002910099
-0.0002456264
-0.004969818
-0.004161654
-0.001375113
-0.0008959604
-0.001548056
-0.002724868
-0.001561498
0.0002890395
0.0005258318
-0.002368367
-0.006288819
-0.007352509
-0.005246289
-0.001272570
0.004057531
0.002236296
0.0007221883
0.004627367
0.002328177
-0.0004272100
0.001964492
-0.001328974
-0.003416580
-0.002381445
-0.001224537
0.001668887
0.0009135198
0.002298479
0.003290901
0.002911249
0.004180767
0.008726751
0.01221144
0.01025392
0.008131037
0.009227982
0.01212810
0.01273990
0.01429006
0.01239783
0.008267709
0.006913290
0.004477330
0.006316968
0.009663077
0.007446349
0.003456531
0.002740700
0.0003933621
-0.006167518
-0.007458450
-0.005567085
-0.003878008
-0.003378649
-0.004544442
-0.006544179
-0.009804221
-0.01160105
-0.01238615
-0.009773226
-0.01117344
-0.01281399
-0.006269920
-0.001625809
0.003716301
0.01069020
0.01260880
0.01185712
0.008749285
0.005781197
0.005590380
0.004629723
0.001312893
-0.004351908
-0.008192673
-0.007057131
-0.004734861
-0.006850866
-0.01105663
-0.01493347
-0.02032174
-0.02319215
-0.01721289
-0.009616897
-0.008563287
-0.005424382
-8.612243e-05
0.003084680
0.005075591
0.005579929
0.006692433
0.007209399
0.005369040
0.004244838
0.006862770
0.008393786
0.007911697
0.008594385
0.008051655
0.008723071
0.006682441
0.004327878
0.004543434
0.001892316
0.001506628
0.001888258
0.003495716
0.004118948
0.004503061
0.009206329
0.01077998
0.008049419
0.006266567
0.005670046
0.005048037
0.006439377
0.0009315551
-0.003894322
-0.006673241
-0.01075445
-0.005001124
-0.003381708
-0.004223186
-0.006396513
-0.01133046
-0.01262033
-0.01527038
-0.02033756
-0.02312263
-0.01903802
-0.02124331
-0.01965319
-0.01443515
-0.01021956
-0.003116515
-0.007572534
-0.006381134
-0.002007985
-0.0002657848
0.001251625
0.003298782
0.008966521
0.009219010
0.01098089
0.01189697
0.01614425
0.01650595
0.01114963
0.01210549
0.008370486
0.004025362
0.002679587
0.001640525
0.001126480
0.001291058
0.0005583691
0.0007925883
0.004639644
0.003776886
-0.0004003293
-0.003163824
-0.002642208
-0.002773616
-0.006167863
-0.006656993
-0.005793748
-0.005805959
-0.004076622
-0.002988200
-0.004029045
-0.004129019
-0.003887987
-0.002609468
-0.002105646
-0.002622759
0.0006100052
0.004759708
0.006834379
0.005336512
0.004896740
0.006617360
0.007680765
0.01061512
0.008969393
0.007145540
0.007891131
0.008270120
0.008504199
0.005229915
0.002015576
0.001873353
0.001788155
-0.0009461333
-0.001850714
-0.001451721
0.0004545541
-0.0005218348
-0.0006118083
0.004133892
0.007360234
0.008179364
0.003913262
0.002990849
0.003283053
0.003466384
0.0008984678
-0.004223567
-0.004731024
-0.003435968
-0.003737071
-0.01057421
-0.01185475
-0.01292263
-0.01851141
-0.01636285
-0.01350375
-0.01271535
-0.01219003
-0.01060208
-0.006572201
-0.002630906
0.002508943
0.005500350
0.003754274
0.0009491551
0.0001443382
0.001073687
0.003190446
0.003931627
0.004039216
0.005391317
0.005043576
0.004924703
0.004298331
0.007421719
0.007973058
0.003063400
0.002430779
0.001705735
0.0002002621
0.001706571
0.003287456
6.329206e-05
-0.001850052
0.0002871800
0.001971272
0.002722422
0.002105257
0.004492308
0.008860451
0.008819511
0.009263379
0.009889966
0.007688391
0.005729470
0.001956153
0.002349414
0.006498734
0.006133495
0.004630104
0.004501498
0.003083580
-0.0002717484
-0.001143961
-0.0003960407
-0.004269713
-0.007748960
-0.006833037
-0.006610976
-0.003481161
-0.0007046487
-0.003212465
-0.007561640
-0.01287462
-0.01104426
-0.007751282
-0.006794774
-0.002898158
-0.002120142
0.001529097
