EVENT_NAME: 
EVENT_DATE_YYYYMMDD: 20201105
EVENT_TIME_HHMMSS: 032527
EVENT_LATITUDE_DEGREE: 38.6957
EVENT_LONGITUDE_DEGREE: 13.8490
EVENT_DEPTH:   4.90
MAGNITUDE_L: 3.6
MAGNITUDE_W:
FOCAL_MECHNISM:
NETWORK: IV
STATION_CODE: EMCN
STATION_NAME: Monte_Conca
STATION_LATITUDE_DEGREE: 37.7912
STATION_LONGITUDE_DEGREE: 15.0336
STATION_ELEVATION: 1916
LOCATION:
VS30_M/S: '0' (0=missing)
SITE_CLASSIFICATION_EC8: A
MORPHOLOGICAL_CLASSIFICATION: T1
EPICENTRAL_DISTANCE_KM: 144.213669
EARTHQUAKE_AZIMUTH_DEGREE: 133.824341
DATA_TIME_FIRST_SAMPLE_YYYYMMDD_HHMMSS: 20201105_032527.0
DATA_TIME_FIRST_SAMPLE_PRECISION: milliseconds
SAMPLING_INTERVAL_S: 0.01000000
NDATA: 29500
DURATION_S: 300
STREAM: HNE
UNITS: cm/s^2
INSTRUMENT: TRIDENT-FS-40-VPP_____EPISENSOR-FBA
INSTRUMENT_ANALOG/DIGITAL: D
INSTRUMENTAL_FREQUENCY_HZ:
INSTRUMENTAL_DUMPING:
FULL_SCALE: '0.5' (999=missing)
N_BIT_DIGITAL_CONVERTER:
PGA_CM/S^2: 0.0477874
TIME_PGA:
BASELINE_CORRECTION: REMOVED
FILTER_TYPE: BUTTERWORTH
FILTER_ORDER: 4TH
LOW_CUT_FREQUENCY: 0.20
HIGH_CUT_FREQUENCY: 45
LATE/NORMAL TRIGGERED:
DATA_VERSION: ISMD_2.0
DATA_TYPE: AUTOMATIC_PROCESSED_ACCELERATION
DATA_TIMESTAMP_YYYYMMDD_HHMMSS:
UNUSED1:
UNUSED2:
USER1: MEAN_REMOVED
USER2:
USER3:
[...]
0.01201840
0.002409418
0.0005743665
-0.005364622
-0.008511302
-0.008230946
-0.01525531
-0.01091697
-0.009930969
-0.007833358
0.001375487
-0.001025098
-0.002333431
-0.001500561
-0.001989024
0.0001414303
0.002402779
0.001917671
0.002417014
0.003376720
0.004491758
0.008755795
0.01009888
0.009690906
0.01151270
0.01255005
0.01117719
0.01159087
0.01165447
0.01030162
0.007208004
0.002088550
-0.004949343
-0.01234144
-0.01706416
-0.01708273
-0.01684606
-0.01622462
-0.01055001
-0.01031079
-0.01170909
-0.009348367
-0.007033262
-0.002371639
-0.001203679
0.001654258
0.006391802
0.004725671
0.01098552
0.01700908
0.01592750
0.01699889
0.01455085
0.008851211
0.006483309
0.004397128
-0.003213403
-0.005895935
-0.004234352
-0.004245108
-0.005029506
-0.005355463
-0.002434254
-0.002510251
-0.006926171
-0.007522951
-0.01207107
-0.01578357
-0.01041135
-0.009817130
-0.003112554
0.004652229
0.004922032
0.007794342
0.01002408
0.01301961
0.01231669
0.005894009
0.004546327
0.004360782
4.267917e-05
-0.002862173
-0.006749284
-0.007744934
-0.004517897
-0.005433369
-0.0001620338
0.007047038
0.001752311
0.005694440
0.007486812
-0.0005615083
0.001016211
0.0004215057
0.001036600
0.006165637
0.01071203
0.01166889
0.007854572
0.01084520
0.01121059
0.001068870
-0.0003474751
-0.001141902
-0.007084083
-0.01134662
-0.01593481
-0.01438407
-0.01130338
-0.01350534
-0.01437975
-0.006997277
-0.003418461
-0.002781728
0.004366442
0.009356552
0.01036065
0.01183663
0.009152726
0.008996623
0.009078889
0.0009826802
-0.001041709
-0.003048713
-0.01083671
-0.01520744
-0.01792054
-0.01922868
-0.01835895
-0.02089088
-0.02116626
-0.01641739
-0.01285887
-0.009247353
-0.007863004
-0.003066611
0.004643545
0.009724010
0.01149244
0.01086460
0.01627764
0.01768999
0.01381030
0.009327540
0.005516880
0.003831290
-0.001815764
-0.001200004
-0.0002165383
0.002802472
0.006951075
0.002385084
0.001981790
0.0009785476
-0.002148822
-0.001288496
-0.0002963010
0.001990134
0.003497944
0.003677730
0.008041152
0.006210064
0.001473036
0.003113457
-0.0007932443
-0.004527175
0.0003491622
0.003518084
0.004866112
0.01054109
0.01425215
0.01636347
0.02314468
0.02145088
0.01674141
0.01548216
0.007044698
0.003888798
-0.002461554
-0.009247779
-0.009776838
-0.01497651
-0.01813903
-0.01911983
-0.01626495
-0.01264211
-0.009222125
-0.004498883
-0.0006861688
0.002226963
-0.0006704234
-0.0005525919
0.001222686
-0.002440049
-0.002088957
-0.002562643
-0.0004506041
0.003202021
-0.0006453417
-0.003568299
-0.0008190221
-0.003002289
-0.005108317
-0.002983075
-0.009397067
-0.009379864
-0.006621160
-0.007164692
-0.004412367
-0.003393322
-0.0005468122
0.002945687
0.007667357
0.01573530
0.02027399
0.02081453
0.02393665
0.02110297
0.01085346
0.0002313826
-0.007267325
-0.01104324
-0.01680006
-0.02336337
-0.02638760
-0.02533055
-0.01972957
-0.01343934
-0.008927512
0.002287062
0.008898884
0.008612229
0.01400045
0.01506146
0.01125032
0.01553442
0.01552046
0.008449205
0.01000452
0.008607410
0.003291950
-0.001207362
-0.006241403
-0.009825715
-0.01129483
-0.01107205
-0.01080395
-0.005530582
-0.0004292158
-0.001860462
0.001283661
0.003627847
-0.001079994
-0.002693193
-0.008629217
-0.01022363
-0.008352996
-0.01113011
-0.009548998
-0.005388097
-0.003961936
-0.005212783
0.001258163
0.006065933
0.006914317
0.01139072
0.01351579
0.01364194
0.01350426
0.01404675
0.009766799
0.002412348
-0.002931045
-0.005312234
-0.004687991
-0.004561446
-0.003330438
-0.003548556
-0.003844022
-0.002725456
-0.003883653
-0.005918415
-0.004326247
-0.0009756693
-0.001030413
0.003975661
0.008895497
0.008995411
0.01211714
0.01174896
0.008708674
0.008223650
0.004575629
-0.0005881119
-0.001609440
-0.004965244
-0.006358524
-0.004858061
-0.008401966
-0.007310891
-0.005359849
-0.005757016
-0.001745826
-0.0005688617
-0.002137778
-0.0009187791
0.001522977
0.002651114
0.005432073
0.006351299
0.003666561
0.001902677
-0.0006932925
-1.114583e-05
-0.0006462339
-0.004216875
-0.002932319
-0.0006518692
0.001717417
0.004267793
0.004200073
0.006454183
0.002995628
-0.002302479
0.0009046480
-0.002309688
-0.006996183
-0.008784831
-0.007380015
-0.001826199
-0.002050975
-0.0009949164
-0.0009351783
-0.006350279
-0.005001988
-0.008234997
-0.01706064
-0.01254321
-0.008641840
-0.005186758
0.002097341
0.003155413
0.001774741
0.001584578
0.007749912
0.01125625
0.01158106
0.01539766
0.01722828
0.01785998
0.01407743
0.01261236
0.01291324
0.003739348
0.001665994
0.0002032802
-0.004213790
-0.002786257
-0.009540460
-0.01158729
-0.008032478
-0.01220848
-0.01466214
-0.01162109
-0.01166303
-0.01178068
-0.01107613
-0.01232449
-0.008421994
-0.001886964
0.0006507006
0.002012869
0.004994003
0.008543304
0.009843687
0.01038545
0.01541419
0.01487398
0.01512591
0.01969960
0.01731913
0.01288615
0.007733537
0.003926813
0.004596489
0.004446508
-0.001952249
-0.007495803
-0.01091455
-0.01160138
-0.008125446
-0.007078195
-0.007086672
-0.004300817
-0.001113250
-0.004809845
-0.009017218
-0.01029566
-0.01044442
-0.01383132
-0.01581961
-0.01251176
-0.01236616
-0.01043368
-0.007281039
-0.003144579
0.001689046
0.004468419
0.008695161
0.01195985
0.009380095
0.009835377
0.01247289
0.01365681
0.01530216
0.01329769
0.009700920
0.005795986
0.001069071
-0.005110815
-0.005876511
-0.0004050041
0.005437440
0.006900255
0.009964546
0.01452915
0.01050745
0.006488805
0.001354677
-0.003044102
-0.005148780
-0.01239238
-0.01114710
-0.008798106
-0.01194605
-0.007395086
-0.008311789
-0.007025972
0.0006007286
0.0003638372
0.001988635
0.001672320
0.001146175
0.002137651
0.001889493
0.001492746
-0.005299401
-0.007881237
-0.003434565
-0.002251012
-0.005159148
-0.005535326
-0.005867972
-0.004100464
0.0007559452
0.0006911011
0.001405318
0.001046410
0.001374030
0.001755285
0.002413552
0.005119427
0.004311548
0.007892049
0.006931601
-2.852697e-05
-0.0006035360
-0.004318818
-0.01141293
-0.009533131
-0.01002789
-0.009207341
-0.002769811
-0.004464160
-0.003268113
-0.0007753965
-0.0003087277
0.004099783
0.005726719
0.003818518
0.007179926
0.01033632
0.009094144
0.008953381
0.002402813
-0.002408355
-0.002785851
-0.003681284
0.002877960
0.004595830
0.002698188
0.007003983
0.005463563
0.002912442
0.004466624
0.001566356
-0.001776107
-0.001326589
0.002337384
0.007317327
0.006003771
0.003713464
0.003433955
0.001894150
0.0006402287
-0.003758340
-0.003716049
-0.001754460
-0.002226227
0.001122929
0.002537264
0.0008452741
-0.001112805
-0.003044019
-0.001207429
0.0002440711
-0.005002527
-0.008694342
-0.007837149
-0.004642928
-0.003411179
-0.004200238
0.001951627
0.004924657
0.005038689
0.009202505
0.008702417
0.002925815
0.003735287
0.002422053
-0.007856452
-0.006603622
-0.005534901
-0.005209792
0.0003717761
-0.001228570
-0.003561934
-0.004879424
-0.007720999
-0.01117740
-0.01285176
-0.01410898
-0.01498451
-0.01524370
-0.008024181
0.002144918
0.006413598
0.01166860
0.01123511
0.008658059
0.004242074
-0.003554584
-0.003861712
-0.003765821
-0.005711317
-0.007992895
-0.009151515
-0.004665378
-0.004034313
-0.003907161
-4.431819e-05
-0.002674898
-0.002096297
0.005116786
0.008868339
0.01033250
0.01253988
0.01548069
0.01726158
0.01283877
0.01118848
0.01073340
0.005563724
0.006939820
0.005355500
0.003091274
0.004219284
0.002565681
0.001577873
0.003277929
0.003535307
0.0009622257
0.001008524
-0.005521043
-0.007427713
-0.003455331
-0.008800792
-0.006324397
-0.003074860
-0.005328111
-0.001506196
-0.003033702
-0.002351191
-0.003846061
-0.009369436
-0.004956832
-0.006024818
-0.002161003
0.003534892
0.002592513
0.006078778
0.008057157
0.006459692
0.003483419
0.001437965
-0.004394043
-0.003970227
-0.006320151
-0.006962511
-0.001166247
-0.004460306
0.002604383
0.004769273
-0.001293261
0.004915377
0.006897371
0.004548512
0.008046707
0.003532077
0.002835513
0.003682481
-0.008792700
-0.009476440
-0.008391222
-0.01286073
-0.009891200
-0.006185667
-0.003350919
-0.001540183
0.0003066011
0.0005997915
-0.0002221053
0.002221399
0.003377978
0.002402691
0.002921093
0.001173685
0.002025879
0.002863676
-0.0008464091
-0.002014222
0.001726936
0.003670388
0.007504377
0.01691956
0.01910052
0.02190376
0.02067450
0.01489972
0.01224786
0.009496327
0.005695559
0.0005313189
-0.004678248
-0.01168989
-0.01214785
-0.01362876
-0.009593754
-0.003571550
-0.002826982
0.0002165528
0.001811114
0.003530032
-0.001671571
-0.007476619
-0.009558491
-0.01013300
-0.01007385
-0.008542115
-0.01002420
-0.01184960
-0.008640406
-0.006793135
-0.007072359
-0.008493097
-0.003094119
0.001747525
-0.0007268976
-0.001136966
0.004268644
0.005913957
0.001212553
0.003388888
0.004730680
-0.004395663
-0.005401457
-0.005373843
-0.01094903
-0.006755902
-0.001965628
0.002017587
0.007991492
0.009597684
0.01186166
0.01389896
0.01426502
0.01570950
0.01081005
0.006144045
0.001054314
-0.005449170
-0.008760565
-0.009124197
-0.005863639
-0.006843027
-0.007812068
-0.01201883
-0.009152338
-0.005224791
-0.01024087
-0.009868069
-0.01023636
-0.003594966
0.005005125
0.01299174
0.01798001
0.01203230
0.01747533
0.01580380
0.005219851
0.01054897
0.005904689
-0.001790454
0.0003466689
-0.004607375
-0.002933329
0.001854268
-0.004831717
-0.002891662
-0.003038135
-0.01215046
-0.004423705
-0.005133065
-0.01186887
-0.005591366
-0.008144301
-0.003589621
0.003479490
0.002112250
0.004513968
0.002781312
-0.001606144
-0.001274850
-0.0004915904
-0.007060262
-0.002431867
0.002156249
-0.003424111
0.007340834
0.01006829
0.004958109
0.006550499
-0.002214665
-0.004341094
-0.006445671
-0.01097547
-0.01316552
-0.01742920
-0.01435197
-0.01848027
-0.01783166
-0.01097826
-0.007342701
-0.003999021
0.0002373466
0.002750274
0.004621318
0.01073498
0.01176672
0.01371018
0.01296472
0.01505193
0.01874107
0.02160673
0.02483755
0.02017514
0.01806001
0.01782082
0.01494435
0.006128055
0.004101660
0.005649238
-7.486530e-05
-0.0003856702
-0.002578076
-0.001440983
-0.001907722
-0.007530418
-0.007031536
-0.007817183
-0.005440634
-0.004746503
-0.003327054
0.002822090
0.001471555
0.001346423
0.003388392
0.002647021
0.0009744311
-0.002595806
-0.001442611
-0.004699566
-0.008021336
-0.003801912
-0.004174774
-0.006075048
-0.006037806
-0.006266952
-0.005929998
-0.003035198
-0.0002351324
0.002077657
0.0004687479
-0.004636649
-0.004689611
-0.005314609
-0.006337182
-0.008731495
-0.007864669
-0.003145243
-0.003740065
0.001602065
0.0002568686
-0.002845615
0.001229726
-0.003440141
-0.006879020
-0.002791492
0.001158744
0.002182374
0.003100617
0.009201342
0.01637173
0.01253145
0.01145029
0.01332151
0.009058988
0.007838511
0.007890659
0.002055020
-0.001262629
-0.002752828
-0.01340471
-0.01239428
-0.01270548
-0.01561523
-0.007501366
-0.008858318
-0.004094971
0.005933078
0.005481232
0.006275134
0.01196506
0.01288389
0.01291185
0.01023432
0.003204492
0.001307938
-0.002703501
-0.008173043
-0.01225659
-0.01495716
-0.01510853
-0.01227942
-0.009689473
-0.007600104
-0.001403556
0.002103400
0.005468326
0.01116277
0.01663261
0.02054810
0.02052823
0.02060140
0.01800559
0.01393900
0.008741811
-0.002312322
-0.01059421
-0.01289438
-0.01692088
-0.01852916
-0.01389484
-0.008836946
-0.004488444
0.0002381126
0.007123705
0.009747813
0.008595232
0.007183189
0.001883731
-0.002936279
-0.005791275
-0.009889307
-0.007011034
-0.003227347
-0.008169807
-0.008781872
-0.01310884
-0.01403978
-0.008513806
-0.01261462
-0.01116882
-0.008094392
-0.01255887
-0.009205636
-0.004945357
-0.003921389
0.002334948
0.002097709
0.002063535
0.006828474
0.004616479
0.003061316
0.003728934
9.489975e-06
0.002503337
0.006207902
0.007114161
0.01147501
0.01261432
0.01524829
0.01165979
0.01126480
0.01395373
0.008404626
0.01097268
0.009697243
0.007474185
0.008153002
0.001464045
-0.005111403
-0.01226944
-0.01783491
-0.02155818
-0.02105292
-0.01935505
-0.01876500
-0.01183354
-0.009371600
-0.003349353
0.003784192
0.006065540
0.004205106
-0.003486431
0.001213677
0.001402525
0.0005736408
0.008273932
0.009930212
0.01206505
0.01800758
0.01768615
0.01681595
0.02183693
0.01705171
0.01365161
0.01330996
0.005139965
-0.0001673126
-0.001185789
-0.002478137
-0.003348698
-0.004349962
-0.008961324
-0.007985138
-0.005549151
-0.007702296
-0.003680073
-0.002946991
-0.001225799
0.001165953
0.001914863
0.003992539
-0.001563554
-0.003512525
-0.005546174
-0.009024922
-0.01115750
-0.009835931
-0.007810472
-0.008383600
-0.002387675
0.0004072363
-0.001005699
-0.002174882
-0.0008465250
0.003785427
0.003378816
0.004392692
0.009427600
0.007006578
0.01003776
0.01504505
0.01311273
0.01664317
0.01690022
0.01518136
0.01318806
0.01068844
0.004404082
-0.002273047
-0.003509465
-0.01143828
-0.01361188
-0.01280028
-0.01497586
-0.01406902
-0.008575512
-0.004061210
-0.004855086
-0.003282345
-0.001920896
-0.002817567
-0.001677724
0.0005923963
-0.009414657
-0.01316615
-0.01198075
-0.01468611
-0.01282110
-0.01494235
-0.01029800
-0.008187167
-0.007797943
-0.003840212
-0.006946815
-0.006939511
-0.002141097
-0.002917922
-0.003414726
-0.003941198
-0.007291620
-0.004404188
-0.006223844
-0.002122382
0.006703617
0.008423404
0.01230878
0.01148054
0.01522418
0.01941523
0.01815910
0.01746773
0.01872948
0.02019016
0.01925091
0.02250410
0.01949860
0.01740216
0.02109194
0.01842697
0.01787817
0.01832171
0.01503083
0.01346703
0.007609492
0.002618712
-0.001862946
-0.009853390
-0.01358407
-0.01985477
-0.02588196
-0.03366188
-0.04079529
-0.04394130
-0.04770404
-0.04778744
-0.04187993
-0.03885116
-0.03924957
-0.02845903
-0.02435288
-0.02236007
-0.007886018
-0.005214520
-0.005956917
0.007090237
0.01112574
0.01101959
0.01944305
0.01720771
0.02078624
0.03227735
0.02897176
0.02590464
0.02723420
0.02615446
0.02547290
0.01954910
0.01645751
0.01374257
0.008239386
0.01277165
0.01275776
0.009878740
0.01074697
0.009710534
0.01009968
0.009874895
0.007718139
0.007905586
0.008160608
0.005904006
0.008906433
0.004580942
0.002307172
0.003156165
0.0001749000
0.002507262
0.001434676
-0.0001029027
-0.003609800
-0.007893948
-0.009024905
-0.01018898
-0.01667292
-0.02093462
-0.02551020
-0.02785903
-0.02705831
-0.02940531
-0.02595318
-0.02584810
-0.02365095
-0.01866456
-0.01510583
-0.01178418
-0.01015549
-0.002574569
0.005877137
0.01172108
0.01611413
0.01873959
0.02144132
0.01871128
0.01627052
0.01064890
0.003262448
0.002279792
-0.001584989
-0.001364395
-0.001327743
0.001970737
0.006671511
0.004472059
0.007781215
0.01041049
0.01101337
0.009358371
0.009121311
0.009250316
-0.002037627
-0.002783079
0.002209186
-0.002856618
-0.003096283
-0.006270061
-0.006077520
-0.0002309533
0.001210601
0.003805526
-0.001713404
-0.005934373
-0.003001804
-0.008787990
-0.01079184
-0.008473557
-0.01384124
-0.01206256
-0.009051139
-0.01178029
-0.007647021
-0.008372625
-0.01362911
-0.005498191
-0.002238223
-0.006743481
0.004335344
0.01120762
0.01243609
0.01859681
0.01765740
0.02301148
0.02520847
0.01833818
0.01784092
0.01781207
0.009462970
-0.003772655
-0.003896077
-0.008769878
-0.02172742
-0.01826221
-0.01979037
-0.02206128
-0.01383234
-0.01317179
-0.01042262
-0.005561741
-0.003768399
0.0009395645
0.004273035
0.006735804
0.01424721
0.02188369
0.02410378
0.03122078
0.03199935
0.03301873
0.02878568
0.01398420
0.01079210
0.001821557
-0.002753819
-0.007284286
-0.01139145
-0.005529938
-0.004524819
-0.003402151
-0.005590622
-0.003833669
0.001330793
-0.0006489989
-0.002080640
0.001103643
-0.002111156
-0.003237276
0.0006951605
0.001716803
0.004796112
0.0008257929
-0.003665777
-0.002227502
-0.01043871
-0.01665585
-0.01950979
-0.02518318
-0.02601860
-0.02399599
-0.01691151
-0.01598650
-0.01153670
-0.008948013
-0.009720011
-0.005398917
-0.008129079
-0.002495225
5.431928e-06
0.003475212
0.008496445
0.008475739
0.02167384
0.02615832
0.02482584
0.02864063
0.02489029
0.02125442
0.01479226
0.003213299
-0.002146867
-0.006521808
-0.006207043
-0.001568928
-0.002758616
0.0003213903
0.0003282706
-0.0007286191
0.003729549
0.002935299
0.002136314
0.001671474
0.0009114248
-0.003732871
-0.004976327
-0.0009244378
-0.007060046
-0.009991115
-0.01017100
-0.01753645
-0.01855669
-0.01386525
-0.01562767
-0.01372085
-0.01323955
-0.01641914
-0.01779450
-0.02462254
-0.02159392
-0.02093296
-0.01989770
-0.01545358
-0.01306131
-0.006368568
-0.005181162
0.002432720
0.006250335
0.008227888
0.01392228
0.01058384
0.009820642
0.01245333
0.01329205
0.01798316
0.01819959
0.01756212
0.02439935
0.02481139
0.02759124
0.03002619
0.02061499
0.01762738
0.02182004
0.01491183
0.01285169
0.01354510
0.008317546
0.01029002
0.008074025
0.002308960
-0.007996876
-0.01520755
-0.01814527
-0.02211281
-0.02406328
-0.02539377
-0.01978045
-0.01345054
-0.007927575
-0.002686372
0.002503741
0.006152602
0.005339539
0.004031364
0.004847391
-0.001370769
-0.008025700
-0.008737264
-0.009862536
-0.007303284
-0.004884041
-0.001901714
0.003254187
0.009822011
0.01311388
0.01404141
0.01347084
0.01209749
0.01383386
0.01221005
0.007669793
0.008925731
0.008468421
0.005934522
0.006023901
0.001664946
-0.0005770666
-0.0008907076
0.0003987426
0.001390528
0.003796899
0.0007427268
0.0006131083
0.01069294
0.007036231
0.001070354
-0.004682526
-0.01310286
-0.01503062
-0.01593380
-0.02022195
-0.02246113
-0.02145073
-0.02660041
-0.02433006
-0.01746318
-0.02069880
-0.01816099
-0.01218872
-0.01011590
-0.008942883
-0.01240213
-0.01436127
-0.01269198
-0.01296918
-0.009979802
-0.007817732
-0.007508974
0.0002486426
0.003184861
0.005523025
0.01341920
0.01763439
0.02205508
0.02674393
0.03110778
0.03587934
0.02965218
0.02435596
0.02575263
0.009695254
0.004097562
0.006815852
0.0007830118
0.004363795
0.001394729
0.0004802094
0.009207741
0.01291521
0.01612612
0.01889309
0.01342961
0.007333608
0.006717894
0.001476721
-0.006125273
-0.01011536
-0.01747807
-0.02247073
-0.02074233
-0.01880078
-0.01506741
-0.01291331
-0.01272814
-0.006555224
-0.003623377
-0.004055659
-0.001517962
0.001229884
0.001509472
-0.001971273
0.0008453812
-0.006432402
-0.01070333
-0.004666228
-0.01071386
-0.01393186
-0.01189604
-0.007041430
-0.003822271
-0.001661192
0.002741227
0.004823530
0.008588971
0.01618438
0.02219007
0.02517252
0.03033623
0.02637555
0.02110229
0.01965328
0.009301492
0.0003343217
-0.003447808
-0.006470305
-0.01404018
-0.02109061
-0.02163159
-0.02519464
-0.02895019
-0.02415593
-0.02358296
-0.01947391
-0.01191448
-0.01156480
-0.0005231831
0.004034218
-0.003259931
-0.003851182
-0.005852140
-0.007409833
-0.003602185
-0.0007636479
0.004936616
0.009111693
0.01357999
0.01648432
0.01743019
0.02203085
0.01613705
0.01298240
0.01380303
0.007716441
0.008908154
0.005866783
-0.0003751753
0.004252404
0.0007858159
-0.002308074
0.001633036
-5.483402e-05
0.0002104699
0.001337869
-0.001042972
-0.003002908
-0.003244687
-0.007071811
-0.01203789
-0.005702581
-0.001620811
-0.004040351
0.001219933
0.002648162
0.003982891
0.005970957
0.005999072
0.004096521
0.001693802
0.002345508
-0.004675670
-0.006645586
-0.006160053
-0.01145743
-0.02217690
-0.02815058
-0.02753076
-0.03027065
-0.02092727
-0.01902463
-0.02347955
-0.01223979
-0.004298799
-0.002542370
0.01058550
0.01587112
0.01220463
0.02411871
0.03018537
0.02976887
0.02742902
0.02750601
0.03701997
0.03545380
0.02984999
0.02680070
