EVENT_NAME: 
EVENT_DATE_YYYYMMDD: 20201105
EVENT_TIME_HHMMSS: 032527
EVENT_LATITUDE_DEGREE: 38.6957
EVENT_LONGITUDE_DEGREE: 13.8490
EVENT_DEPTH:   4.90
MAGNITUDE_L: 3.6
MAGNITUDE_W:
FOCAL_MECHNISM:
NETWORK: IV
STATION_CODE: HVZN
STATION_NAME: Vizzini
STATION_LATITUDE_DEGREE: 37.1783
STATION_LONGITUDE_DEGREE: 14.7155
STATION_ELEVATION: 790
LOCATION:
VS30_M/S: '0' (0=missing)
SITE_CLASSIFICATION_EC8: A
MORPHOLOGICAL_CLASSIFICATION: T1
EPICENTRAL_DISTANCE_KM: 184.960144
EARTHQUAKE_AZIMUTH_DEGREE: 155.487061
DATA_TIME_FIRST_SAMPLE_YYYYMMDD_HHMMSS: 20201105_032527.0
DATA_TIME_FIRST_SAMPLE_PRECISION: milliseconds
SAMPLING_INTERVAL_S: 0.01000000
NDATA: 30000
DURATION_S: 300
STREAM: HNE
UNITS: cm/s^2
INSTRUMENT: TRIDENT-FS-40-VPP_____EPISENSOR-FBA
INSTRUMENT_ANALOG/DIGITAL: D
INSTRUMENTAL_FREQUENCY_HZ:
INSTRUMENTAL_DUMPING:
FULL_SCALE: '2.0' (999=missing)
N_BIT_DIGITAL_CONVERTER:
PGA_CM/S^2: 0.0216911
TIME_PGA:
BASELINE_CORRECTION: REMOVED
FILTER_TYPE: BUTTERWORTH
FILTER_ORDER: 4TH
LOW_CUT_FREQUENCY: 0.20
HIGH_CUT_FREQUENCY: 45
LATE/NORMAL TRIGGERED:
DATA_VERSION: ISMD_2.0
DATA_TYPE: AUTOMATIC_PROCESSED_ACCELERATION
DATA_TIMESTAMP_YYYYMMDD_HHMMSS:
UNUSED1:
UNUSED2:
USER1: MEAN_REMOVED
USER2:
USER3:
[...]
0.0002850415
0.003175304
0.004181887
0.008877794
0.01119596
0.009956980
0.009148499
0.006084736
0.003493180
-0.001544558
-0.004538174
-0.005301320
-0.007156405
-0.006848979
-0.003170963
-0.001015128
-0.002906564
-0.002964547
-0.002954428
-0.002896627
-0.0008361704
0.001612216
0.0002833763
-0.002946175
-0.001034230
0.002278098
0.002325236
0.004055825
0.007670157
0.006529176
0.004479354
0.005044973
0.004251026
0.003053010
0.003312267
0.002744714
0.002895984
0.001189181
-0.001197363
-0.001810916
-0.001910732
-0.003022245
-0.006391601
-0.006089956
-0.004848775
-0.0009797653
-0.002131931
-0.003965804
-0.0003144645
-0.002934797
-0.002725723
-0.001588441
-0.003035326
-0.004512297
-0.003517678
-0.001351761
-0.0003088042
0.0003547201
0.0001599842
-0.0008160901
-0.002642534
-0.0004147878
0.001314396
0.004735304
0.009870092
0.008686010
0.007380125
0.005795953
0.003121830
0.003968451
0.003182084
0.002719786
0.002928746
0.003718592
0.0004601810
-0.003895847
-0.001192267
-0.002310743
-0.004442497
-0.003024266
-0.001989380
-0.002070535
-0.0007213620
-0.0006545847
-0.004594905
-0.006581554
-0.006523799
-0.005879152
-0.004776211
-0.003464201
-0.0008158577
0.001150470
0.003634500
0.004064988
0.002161450
0.003611158
0.004534229
0.005680943
0.003178201
0.001392801
0.001364465
-0.002246924
-7.749991e-05
0.002559922
0.004477711
0.003613303
0.002934921
0.004931447
0.003285013
0.002916950
0.002545844
0.001005487
-0.001962837
-0.002297955
-0.002361836
-0.005328662
-0.008397108
-0.009611494
-0.009239966
-0.01076680
-0.009764235
-0.007823754
-0.003620479
0.004902252
0.008167816
0.006833958
0.006496296
0.003824601
0.001915919
0.002762203
0.001253244
0.0002406670
0.0005868962
-0.0008195771
-0.0005541965
0.0005635978
-0.0002304247
-0.0002408082
0.001295588
0.003143954
0.004027223
0.002137934
-0.001357985
-0.001778944
-0.0001543157
-3.257637e-05
0.0002957979
0.002468165
0.002439463
0.002776920
0.0006706546
-0.003825507
-0.001505303
0.001484161
0.004501321
0.003788481
0.001950021
0.003910962
0.002764749
-4.695934e-05
-0.002885835
-0.002691385
-0.002730706
-0.005275292
-0.006784678
-0.004398878
-0.001782264
-0.001810051
-0.0001864476
0.002211386
0.001935890
0.001535843
0.001905602
0.001278934
0.001225413
-0.0002948172
0.0003859152
0.001250218
0.002282174
0.003282459
0.002184193
0.003660884
0.004215375
0.002155070
-0.003139535
-0.005667465
-0.003910909
-0.003428416
-0.002223840
0.001252632
0.003151230
0.001747401
0.0002193033
-0.003183319
-0.003671836
-0.003206323
-0.004172677
-0.002414499
-0.005754795
-0.009128026
-0.009364002
-0.008213451
-0.007327373
-0.006355039
-0.003996627
-0.004350023
-0.002757607
-7.236024e-06
0.001280933
0.001793249
0.004420686
0.005240642
0.004662847
0.003774792
0.002917460
0.005064964
0.006726970
0.005229642
0.002823394
0.006010909
0.007368986
0.005680426
0.004478296
0.004911207
0.004504358
0.002666358
0.001870258
-0.0001318123
-0.0001943058
-0.0008051152
0.0002632933
0.003621113
0.004179954
0.003620606
0.002471563
0.001393303
-0.0001899342
-0.003567033
-0.004771476
-0.006845986
-0.008358034
-0.004962161
-0.001683160
0.001377115
0.002748720
0.003815426
0.005952147
0.005259289
0.004516216
0.005954547
0.005049048
0.0005100971
-0.002491388
-0.002744500
-0.001687066
-0.001586794
-0.0006471042
0.001802929
0.002311537
0.001813286
0.0008017986
-0.002043955
-0.008120106
-0.01124102
-0.01315683
-0.01356658
-0.008599889
-0.004185062
-0.0005395822
0.0002257377
0.0002198112
-0.0005456142
-0.003179957
-0.004245951
-0.006359708
-0.006451863
-0.003909423
-0.002537469
-0.0009486447
0.0006197701
0.002519095
0.003032666
0.001080740
0.0003099687
0.001097842
0.003973173
0.007486349
0.01008129
0.01388985
0.01470250
0.01245164
0.01149248
0.007311713
0.001925588
0.002172487
0.002646722
0.002913855
0.005112009
0.006057801
0.006901274
0.003014629
-0.003525927
-0.008379995
-0.01102119
-0.01287862
-0.01709619
-0.01902966
-0.01955721
-0.01948924
-0.01494725
-0.009615660
-0.006217107
-0.002867987
-0.002211191
-0.0007194783
4.016428e-05
0.002170010
0.006004489
0.006941288
0.008404856
0.005455612
0.005530466
0.007807773
0.005145022
0.004519642
0.004259692
0.001724961
0.002645269
0.007264758
0.01008860
0.009639828
0.007945188
0.007874879
0.005528614
0.002203972
0.002625418
0.0009304819
0.0009553722
0.006785892
0.01027430
0.01048439
0.009500259
0.009308582
0.008216210
0.002993406
-0.002135971
-0.004551207
-0.005381994
-0.004735465
-0.005931493
-0.007627437
-0.01037256
-0.01596969
-0.01866020
-0.02096034
-0.01903614
-0.01544317
-0.01304609
-0.008157615
-0.007871016
-0.005697012
-0.001524449
-0.0005225212
0.001159772
0.002661764
0.005588818
0.007541237
0.008307251
0.009248591
0.008540859
0.009526868
0.01143062
0.01326952
0.01454599
0.01579334
0.01374631
0.007745205
0.005152795
0.003314882
0.002003143
0.0005719335
-0.001141360
-0.001663382
-0.004566054
-0.005329488
-0.003607873
-0.002608966
-0.004116908
-0.008731959
-0.01293524
-0.01733580
-0.02050238
-0.01958050
-0.01408687
-0.007361418
0.0001626698
0.007828520
0.01117855
0.01350960
0.01209714
0.009160178
0.009103590
0.006001743
0.004924263
0.007722647
0.007855834
0.006511292
0.004163801
0.0006344063
-0.001719115
-0.001585557
-0.001692608
-0.003840139
-0.005299613
-0.007612376
-0.007152742
-0.005271226
-0.003626203
0.001036484
0.002779123
0.001522555
-0.0006730952
-0.004080730
-0.006121237
-0.006216701
-0.006948630
-0.006845966
-0.005106268
-0.004272039
-0.004744695
-0.001692886
-0.0004482944
0.0008388578
0.006148947
0.002987540
-0.001327124
-0.005275644
-0.008493729
-0.006443625
-0.005630287
-0.006345461
-0.006243093
-0.004485385
-0.001516489
-0.0003553592
-0.002502241
-0.002761736
-0.003569154
-0.002653695
0.0004800242
0.002357520
0.003820681
0.003157176
0.005250765
0.006610525
0.004983966
0.006147087
0.008622872
0.01011264
0.01053354
0.01090088
0.009741323
0.006784688
0.004300511
0.003142939
0.004762711
0.007330492
0.009402854
0.01028980
0.007174154
0.003200823
0.001028525
-0.001453057
-0.005340304
-0.005887769
-0.003333076
-0.003517677
-0.004441536
-0.006119519
-0.004269633
-0.001151584
0.0008025627
0.003855516
0.003602531
0.003053015
0.0006964783
-0.003828175
-0.002489490
0.0003589295
-0.002542116
-0.002987024
-0.001669423
-0.0006710283
0.0009308906
-0.0001094073
-0.001072336
-0.002549708
-0.005960003
-0.008723084
-0.006622220
-0.004899006
-0.003815789
0.0008779457
0.004128875
0.005932152
0.007901371
0.007304453
0.005791447
0.003781914
0.002676442
0.0003048698
-0.003940475
-0.004057864
-0.007720513
-0.01054126
-0.009337311
-0.01040757
-0.008716868
-0.007610116
-0.007588384
-0.002359783
0.003337078
0.005097784
0.005449605
0.003712399
0.002913416
0.004049036
0.002806623
0.003678053
0.005625762
0.005262407
0.006508065
0.008287905
0.007171353
0.006138769
0.003949592
0.001967107
0.001796872
-0.004275176
-0.007598166
-0.007170429
-0.007392791
-0.007611691
-0.01163068
-0.01266825
-0.01100081
-0.01035426
-0.007182205
-0.003139885
0.001532123
0.004097319
0.002847444
0.004042698
0.007036361
0.007484329
0.007730559
0.01271069
0.01473029
0.01308216
0.01337905
0.01270845
0.01155596
0.01231598
0.01171706
0.008455402
0.008249778
0.006260910
0.002360805
-0.0001016635
-0.006000167
-0.009135048
-0.01191830
-0.01501102
-0.01212446
-0.01166916
-0.01199109
-0.01256405
-0.01329388
-0.01125497
-0.008245043
-0.005982337
-0.004968766
-0.002844768
-0.001283554
0.002089727
0.001353015
-0.003968865
-0.005577131
-0.004160677
-0.001695354
-0.0004562135
0.001477115
0.002004732
0.002686805
0.004736734
0.004091661
0.005325362
0.006174040
0.006197058
0.003343950
-0.001781075
-0.0001677529
0.002921446
0.005695747
0.008813224
0.007653801
0.005132373
0.005950124
0.005111306
0.001799857
0.0009386610
-0.0004171983
-0.001983396
-0.001422755
-0.001466168
-0.002926718
-0.003388417
-0.004686738
-0.005553985
-0.004471406
-0.004071323
-0.003483179
-0.002137213
-0.0009864616
-0.0004854664
0.002774236
0.003343066
0.001387207
0.001814046
-0.0005526940
-0.003567333
-0.005497598
-0.004975953
-0.002142651
-0.0002324541
0.0004628147
0.002067245
0.002822710
0.002146143
0.0003126422
-0.002729838
-0.002867056
-0.002773282
-0.002305591
-0.0009035402
0.001229144
0.001687361
0.001079526
0.002347084
-0.0003427764
-0.005035755
-0.007684648
-0.007983578
-0.005479149
-0.002338105
0.0006370096
0.005772065
0.007480382
0.007737231
0.009225231
0.005453093
0.002487087
0.001118861
0.003412008
0.005092979
0.006769713
0.01061188
0.006817808
0.004015725
0.002323105
0.002415855
0.004888529
0.003280487
0.001582613
0.001182680
-0.0007262235
-0.003630238
-0.002763758
-0.002583445
-0.006999357
-0.007660446
-0.006085896
-0.006142172
-0.004144576
-0.002473354
-0.002886503
-0.003018933
-0.002562930
-0.002878863
0.001731211
0.004342741
0.001599832
0.001569969
0.0008918931
-0.001110248
-0.001865153
-0.001007236
-0.002748265
-0.001316313
0.001957663
0.0005905655
-0.002384454
-0.003429502
-0.003725982
-0.005321728
-0.005703323
-0.008795138
-0.008804180
-0.004989791
-0.001811624
0.0002750526
0.001492991
0.002138623
0.002293265
0.005542302
0.005715259
0.002881441
-0.0004667156
-0.003193986
-0.003212806
-0.0007071093
0.003634257
0.004680337
0.006108210
0.005878359
0.001953307
0.001965344
0.001674783
-0.001423316
-0.002298648
0.0003466740
0.0005860523
-0.001321690
-0.002629435
-0.004022183
-0.003327409
-0.003361056
-0.001508369
-0.0002947711
-0.001388523
0.0003317187
0.0009102689
-0.0002409472
0.0002496297
0.0001811382
0.002751825
0.006290029
0.004931962
0.004405259
0.001378521
-0.0003521532
0.002944023
0.005669377
0.007239557
0.007232219
0.006195502
0.003585846
0.002272164
0.0006174815
-0.001606791
-0.002622693
-0.001797357
-0.001936666
-0.003236023
-0.003410680
-0.004985537
-0.003586941
-0.002384811
-0.0005380915
-0.001009310
-0.004646386
-0.002729399
-0.003720885
-0.004344828
7.630512e-05
0.001432379
0.0006599840
0.004298000
0.003916585
0.001514610
0.002088795
-0.001627475
-0.0008291003
1.119774e-05
-0.001948027
-0.0001035192
-0.0008498807
-0.003170419
-0.002669371
-0.002350107
-0.001268255
-0.001548859
-0.002812281
-0.001455131
0.0002551697
0.003596388
0.004988520
0.003781123
0.005778294
0.005944774
0.004327236
0.004492825
0.002057316
0.001167598
0.001674223
0.001816307
0.001998538
2.380303e-05
-0.003070304
-0.004718084
-0.003711860
-0.001880617
0.001310621
0.004855997
0.004880814
0.004706217
0.007015659
0.006958657
0.006014874
0.005246431
0.003570699
0.0003323118
-0.001567999
-0.0006448741
-0.001344008
-0.001339550
-0.001395380
-0.002999794
-0.004144884
-0.005401623
-0.005415645
-0.003149702
-0.0005551146
0.001304495
0.001370091
-0.0006275570
-0.005022152
-0.007982065
-0.008671391
-0.01025306
-0.007341673
-0.003522456
-0.002286938
-0.003431322
-0.003857484
0.0001218438
0.002122674
0.001032771
-0.001505640
-0.004147977
-0.007128207
-0.009792322
-0.008354216
-0.006840536
-0.004707129
-0.0006469788
-0.002605676
-0.001981832
0.002642371
0.004032256
0.003030886
0.0009118418
0.0007991111
-0.001312709
-0.0006199403
0.002051082
0.002633537
0.006166952
0.009289912
0.01104171
0.01029739
0.007329645
0.006178063
0.005303163
0.003560198
0.001044691
-1.724272e-05
0.0004498755
0.002046922
0.004278352
0.007521425
0.009613927
0.007301584
0.006680360
0.003833536
-0.002834155
-0.006260748
-0.006475608
-0.002614422
0.002137735
0.003965692
0.003660295
0.002185367
0.0007967893
-0.0001136569
0.001393113
0.002224807
0.001749859
0.0006554559
-0.001116229
-0.002332431
-0.006007984
-0.007950265
-0.006788475
-0.005191921
-0.006368260
-0.007328794
-0.004217958
-0.003615046
-0.005218816
-0.003605414
-0.002517645
-0.004858701
-0.003199644
-0.0002716747
-0.0009183112
-0.001079065
-0.002075400
-0.006053877
-0.007152078
-0.007586187
-0.007118737
-0.003160335
-0.001058579
0.003828769
0.004656333
0.001564502
0.001042141
0.0004976443
0.001647805
0.004026270
0.006244914
0.006500783
0.006505520
0.008163743
0.01027251
0.007547353
0.004296097
0.004683726
0.005444762
0.004274288
0.001676804
0.001192363
-0.0001613302
-0.001127758
0.0004415733
-0.001977183
-0.004111640
-0.004753300
-0.007263128
-0.006452693
-0.006350031
-0.005120269
-0.001332251
-0.003503463
-0.007381865
-0.009680014
-0.01424132
-0.01136445
-0.006690411
-0.005689137
-0.004724231
-0.004034694
-0.001649553
-0.0003257324
0.001590866
0.002235284
0.005480325
0.006622649
0.006521561
0.005821951
0.004358651
0.006316389
0.006252291
0.006944798
0.005069769
0.002789022
0.003302129
0.004098207
0.003930990
0.004225036
0.002327332
0.001163795
0.003702593
0.0007314098
-0.0004856586
0.002208323
0.004902083
0.007135608
0.008042748
0.01016006
0.007930014
0.009070248
0.01319645
0.01211154
0.01191885
0.01187759
0.01023472
0.007153959
0.006413144
0.003846201
0.0006576276
0.001777810
0.001720931
0.001483287
0.001013379
9.094832e-06
-0.001203173
-0.002905300
-0.003446396
-0.004812185
-0.007929007
-0.008885295
-0.008283168
-0.006308731
-0.003505782
-0.002012325
-0.003135868
-0.004600377
-0.007877564
-0.01558171
-0.01989807
-0.01928666
-0.01738676
-0.01912485
-0.01949154
-0.01775070
-0.01818889
-0.01779302
-0.02014162
-0.01948843
-0.01453505
-0.01014190
-0.006216914
-0.003519126
-0.0003164117
0.001105803
0.003648325
0.006462090
0.006120448
0.004507468
0.001670187
0.003839174
0.007468155
0.01054743
0.01474993
0.01795039
0.01890609
0.01889779
0.02169112
0.02120452
0.01918818
0.01778938
0.02041769
0.01975017
0.01376642
0.01077316
0.005996768
0.003418949
4.632758e-05
-0.002837911
-0.005492553
-0.008811117
-0.009560321
-0.01089195
-0.01235464
-0.01229320
-0.01165047
-0.01230181
-0.008165425
-0.005276428
-0.004389479
-0.0009475801
-0.0006505526
-0.001718980
-0.0008809913
0.002948279
0.004486634
0.003230710
0.001020731
-0.002628636
-0.0009510532
0.002282882
0.003444873
0.004531149
0.002152499
0.002172447
0.003521452
0.003002870
0.005897942
0.007230588
0.005357435
0.005074741
0.003348088
0.0009470220
-0.0003474811
-0.001514403
-0.0005493184
-0.001096682
-0.003146718
-0.004644310
-0.004490379
-0.006488477
-0.007808640
-0.005833780
-0.009242639
-0.01244491
-0.01320276
-0.01214599
-0.01227567
-0.01382387
-0.008116728
-0.006483071
-0.006877101
-0.003031392
-0.003269353
0.001257601
0.003934220
0.0006733926
0.003562020
0.005189413
0.003716743
0.006261094
0.009998430
0.01002991
0.007457566
0.007177708
0.006392575
0.006263366
0.006358573
0.003554621
0.003730641
0.002943156
0.0007056353
-0.001901531
-0.003016277
-0.003570044
-0.004798080
-0.002245669
-0.002722932
-0.005030291
-0.005587850
-0.006083393
-0.004533490
-0.002965526
-0.001528750
-6.807119e-05
0.002174937
0.007288735
0.01170505
0.01470410
0.01285273
0.01037757
0.01179863
0.01190172
0.01005737
0.009449228
0.01107499
0.008153278
0.005044320
0.001919655
-0.001972259
-0.002062307
-0.004154500
-0.004502851
-0.003691635
-0.004223165
-0.003961291
-0.004454439
-0.005427347
-0.007415646
-0.007597623
-0.009173571
-0.01074643
-0.008450889
-0.004633896
0.0001870901
0.0006681430
0.001292662
0.003718174
0.004863033
0.005064817
0.005949246
0.007932343
0.005745548
0.004985749
0.004995477
0.003780357
0.004251750
0.002305013
0.0008372267
0.001304972
-0.002329888
-0.006073526
-0.004250648
-0.003923945
-0.007857868
-0.01135073
-0.01146106
-0.01020025
-0.01187812
-0.01541841
-0.01499727
-0.01351479
-0.01373543
-0.01278332
-0.01057969
-0.005848643
-0.003819247
-0.001309377
0.002671441
0.002729187
0.003310210
0.003055293
0.002991996
0.004111456
0.002661768
0.001753221
0.0006029938
-0.001342203
-0.002660610
-0.003247981
-0.001464195
-0.0005477816
0.002229091
0.006049544
0.006414599
0.006041557
0.005675922
0.007523087
0.006892455
0.004575504
0.007418974
0.009164628
0.01070019
0.01347385
0.01472711
0.01386751
0.01407373
0.01528413
0.01237600
0.01089313
0.01085243
0.008023564
0.004635841
0.005432975
0.005258958
0.002351501
0.0007661235
-0.001766968
-0.001213077
-0.0007905597
-0.004628114
-0.004735243
-0.003120007
-0.006757405
-0.007933368
-0.007349894
-0.007591099
-0.006689330
-0.007053045
-0.008418398
-0.01075310
-0.009340717
-0.008385954
-0.008754478
-0.006513933
-0.006225852
-0.007803803
-0.007888933
-0.007352395
-0.005909040
-0.003175633
-0.003742528
-0.003354747
-0.003574803
-0.004753242
-0.002646928
-0.002770314
-0.002643918
-0.003278933
-0.004342786
-0.004019321
-0.006078212
-0.005938461
-0.005401931
-0.006367129
-0.004724925
-0.002393069
-0.001830737
0.0003461433
0.003530671
0.005012562
0.008694067
0.01110613
0.01045310
0.009591629
0.008773909
0.01078518
0.01345924
0.01418702
0.01472023
0.01439065
0.01182042
0.006255603
0.002787882
-0.0003875364
-0.004088420
-0.002780732
-0.003217884
-0.004102153
-0.006579597
-0.008583808
-0.009924127
-0.01214905
-0.009240499
-0.008486477
-0.007698384
-0.004923184
-0.003388922
-0.001655242
-0.0002629402
-0.002102369
-0.0007903042
0.002114955
0.0005951294
4.163263e-05
0.001634961
0.003225381
0.003052048
0.007993166
0.01074223
0.009145641
0.01008696
0.009291220
0.007265030
0.005226993
0.004974561
0.004804323
0.003935872
0.003875495
0.001192668
-0.003197206
-0.004223674
-0.005882974
-0.006441772
-0.003403939
-0.004531326
-0.004561087
-0.004109839
-0.006962641
-0.007805916
-0.004528527
9.857551e-05
-0.001201210
-0.002452449
-0.0003912569
0.001899379
0.001874204
0.001831818
0.001477269
-0.001000284
0.0001953248
0.0004737899
-0.0002528564
-9.207647e-05
-0.0006408642
-0.001686692
0.0007256216
0.002092917
0.001832810
0.003475895
0.003341233
0.004966153
0.003517528
0.003108708
0.005119572
0.006399638
0.008232123
0.007416434
0.005789849
0.002949434
0.003923594
0.004053542
0.002580807
0.001982702
0.0004490642
0.001955740
-0.0007965961
-0.002403224
0.0001202227
0.0001046349
-0.0001639726
-0.001832895
-0.002137972
-0.0003515920
-0.0004359319
-0.001557256
-0.001686285
-0.002752291
-0.005406948
-0.006370924
-0.009155060
-0.01120450
-0.01043874
-0.01190578
-0.01044705
-0.007499850
-0.008231053
-0.007265182
-0.004782361
-0.004844654
-0.004736747
-0.004167118
-0.002958681
-0.0007972914
0.001509965
0.001118366
-0.001408507
-0.0003500850
3.192731e-05
-0.0007951023
-0.0005114449
-9.702978e-06
-0.0005565940
-0.001696283
-0.002774711
-0.006125071
-0.006168828
-0.002747744
-0.002186643
-0.001589790
0.001324388
0.001500948
0.0009380125
0.001641177
0.002747143
0.003035110
0.002061270
0.003750363
0.004501925
0.003291892
0.003717958
0.006048882
0.008057174
0.006622396
0.004528316
0.006243497
0.004893068
0.001462536
0.002091446
0.001785312
-0.0009035053
-0.001862624
-0.0001708280
-0.0004201376
0.0003740261
0.001228123
0.002889831
0.002658805
0.001169838
0.004201604
0.002002382
0.001964707
0.002240821
0.002467260
0.004466037
0.003371626
0.005109739
0.003631528
0.002468987
0.005728849
0.006791174
0.003572414
0.003598846
0.003553340
0.003132817
0.005514401
0.003100008
-0.0002971542
5.625864e-05
8.536220e-05
-0.001098492
-0.0001809242
-0.001121551
-0.002076790
-0.004641349
-0.004432659
-0.001770455
-0.004157750
-0.002475926
-0.002759623
-0.002869212
-0.001128906
-0.004773867
-0.004083195
-0.002337784
-0.003314652
-0.001388042
0.001133510
0.0007848883
