EVENT_NAME: 
EVENT_DATE_YYYYMMDD: 20201105
EVENT_TIME_HHMMSS: 032527
EVENT_LATITUDE_DEGREE: 38.6957
EVENT_LONGITUDE_DEGREE: 13.8490
EVENT_DEPTH:   4.90
MAGNITUDE_L: 3.6
MAGNITUDE_W:
FOCAL_MECHNISM:
NETWORK: IV
STATION_CODE: JOPP
STATION_NAME: Joppolo
STATION_LATITUDE_DEGREE: 38.6068
STATION_LONGITUDE_DEGREE: 15.8856
STATION_ELEVATION: 500
LOCATION:
VS30_M/S: '0' (0=missing)
SITE_CLASSIFICATION_EC8: A
MORPHOLOGICAL_CLASSIFICATION: T1
EPICENTRAL_DISTANCE_KM: 177.045334
EARTHQUAKE_AZIMUTH_DEGREE: 92.5628357
DATA_TIME_FIRST_SAMPLE_YYYYMMDD_HHMMSS: 20201105_032527.0
DATA_TIME_FIRST_SAMPLE_PRECISION: milliseconds
SAMPLING_INTERVAL_S: 0.01000000
NDATA: 30000
DURATION_S: 300
STREAM: HNE
UNITS: cm/s^2
INSTRUMENT: TRIDENT-FS-40-VPP_____EPISENSOR-FBA
INSTRUMENT_ANALOG/DIGITAL: D
INSTRUMENTAL_FREQUENCY_HZ:
INSTRUMENTAL_DUMPING:
FULL_SCALE: '2' (999=missing)
N_BIT_DIGITAL_CONVERTER:
PGA_CM/S^2: 0.0048797
TIME_PGA:
BASELINE_CORRECTION: REMOVED
FILTER_TYPE: BUTTERWORTH
FILTER_ORDER: 4TH
LOW_CUT_FREQUENCY: 0.20
HIGH_CUT_FREQUENCY: 45
LATE/NORMAL TRIGGERED:
DATA_VERSION: ISMD_2.0
DATA_TYPE: AUTOMATIC_PROCESSED_ACCELERATION
DATA_TIMESTAMP_YYYYMMDD_HHMMSS:
UNUSED1:
UNUSED2:
USER1: MEAN_REMOVED
USER2:
USER3:
[...]
-0.002594102
-0.001227024
-0.0006389521
0.0002706470
-0.0004353350
-0.001892276
-0.001207152
-0.001625324
-0.001951570
-0.001627175
-0.001208209
-0.0009044015
-0.001194174
-0.0009202424
0.0002938013
0.0007769687
0.001046227
0.001500409
0.001048550
0.001506997
0.002260201
0.002259313
0.002242230
0.002031227
0.0009995807
0.0008182424
0.001239713
0.0003195370
0.0005263686
0.0005317196
0.0003171524
0.001234542
0.001322404
0.0009730051
0.0003502128
-0.0002554615
-0.0008780523
-0.001966276
-0.001867656
-0.0009706179
-0.001401205
-0.0004489543
0.001018079
0.001292478
0.001741036
0.0003095678
-0.0009425232
-0.001424881
-0.001906257
-0.001435252
-0.0006783901
0.0002890304
0.0002839585
0.0003155459
0.0002534719
0.0003453497
0.0009655112
0.001339518
0.001946155
0.0008355956
-0.0002363148
-0.0001731361
-0.0002082492
0.0002926306
0.001039121
0.001256188
0.0003162603
-0.0007129894
-0.001149364
-0.001696396
-0.001149201
0.001007134
0.001779979
0.002004549
0.002011816
0.001028933
0.0005489452
2.718209e-05
0.0005833040
0.0009655369
0.001119545
0.0009244732
-0.0003201111
-0.001052370
-0.001056868
0.0001946014
0.0006207303
0.001229222
0.001050766
0.0005525406
0.001004834
9.028628e-05
1.778359e-05
-0.0001655813
-0.0004484137
-0.0004405791
-0.001151186
-0.002187639
-0.002839314
-0.003188775
-0.003808137
-0.003188355
-0.002346384
-0.002190197
-0.002122784
-0.001918499
-0.002396145
-0.002380294
-0.0007027132
0.0008232050
0.001986542
0.003276952
0.004198939
0.003754859
0.003237412
0.003243394
0.002524847
0.001259680
0.001077199
0.0009952318
-0.0001357858
-0.001213213
-0.001615114
-0.0007010293
-0.0006663538
-0.0001713435
0.001013095
0.0001035507
-0.0004773316
-0.0001277877
-0.0004857514
-0.0003681275
0.0004986046
0.0001104081
-0.0004612456
-0.001384403
-0.002153810
-0.001155484
-0.0006733033
6.773613e-05
0.0005558041
5.993919e-05
0.0008190930
0.0007698238
0.0008492668
0.0009901933
-0.0001172918
0.0002576329
-0.0001338100
-0.0009419959
-0.0006509731
-0.0006716000
-0.0004256816
-0.0001640932
-0.0006836588
-0.0008901749
-0.0006848786
-0.0008975849
6.949721e-05
0.0007930454
0.0008343392
0.0007674596
0.0003639464
0.0002679976
0.0001173761
0.0005279310
0.0008279676
0.001053521
0.0005422307
0.0008513308
0.001242059
0.0001379781
0.0005051318
-0.0001233830
-0.001426782
-0.002118582
-0.002373037
-0.001900981
-0.001862907
-0.0006839186
0.0005916816
5.324800e-05
-0.0001481291
0.0003101549
-0.0004130167
9.372940e-05
0.0007829404
0.0001192930
0.0002785960
0.0001230195
0.0005299403
0.001094649
0.001029114
0.001581881
0.001027898
0.0003607401
0.0002910159
-0.0001334878
-0.0001861526
-0.0001541177
0.0003335064
-0.0004324869
-0.001349045
-0.0007028614
-0.0008439507
-0.0009506144
-0.0003586056
-0.0002017772
-0.001113431
-0.001156748
-0.0001589412
0.0008290726
0.001540225
0.001818796
0.002278918
0.0005792069
-0.0006427025
-0.0004176791
-0.001371126
-0.0006560919
0.0003303447
0.0005880971
0.001051929
0.001331394
0.002035281
0.001565098
0.001318904
0.001545796
0.0008449957
0.001046221
0.001340911
0.0005530059
-0.0008624486
-0.002391497
-0.002819283
-0.002394530
-0.001101475
0.0007974901
0.001584516
0.001551018
0.0008269633
0.0003502547
6.856564e-05
-0.0003662784
5.836891e-05
-0.0003634830
-0.001164040
-0.0008584904
-0.0009120506
-0.001112688
-0.0001615501
-0.0006407613
-0.001859479
-0.001631848
-0.001858479
-0.001133350
-0.0006430802
-0.001126445
-0.0006393435
-0.001631342
-0.001352821
0.0003109451
0.0001267169
0.001052944
0.002071338
0.002056056
0.001313141
0.0008492880
0.001793545
0.001584464
0.0008225879
0.0005889067
-0.0001394592
-0.0009040470
-0.0001128625
0.0005396413
0.0004015783
0.0007686318
0.0008985575
0.0007724775
0.0003946520
6.039454e-05
0.0003621949
0.001083447
-0.0001792967
-0.0005779369
-0.0009622991
-0.002511539
-0.001695847
-0.002054851
-0.001880603
-0.002376527
-0.002292149
-0.001460794
-0.002256036
-0.0007230557
-0.001071247
-0.0001618049
0.001051281
0.001142409
0.002709876
0.001660025
0.001977057
0.002125915
0.001029990
0.0008674108
0.0003192706
0.0008527566
0.0003251583
-0.0003761746
0.0003319448
0.0005889125
0.001827339
0.002275190
0.001855338
0.001519874
0.0001445785
5.887707e-05
0.0001210979
8.998233e-05
0.0003322169
0.0001217157
-0.0006755605
-0.001821780
-0.001908375
-0.001826802
-0.001403381
-0.0008689604
-0.0006404761
-0.001389745
-0.002083603
-0.001901752
-0.002073082
-0.001410851
-0.0006136353
-0.0001664588
-0.0006374713
-0.001123906
-0.0009019776
-0.001603818
-0.001395243
-0.0001356918
0.0003252089
0.0005925613
0.001070344
0.0005782207
0.001085008
0.002528235
0.002556850
0.003272741
0.002785157
0.001081197
0.001060720
0.0003434040
-0.0001575807
-0.0001559703
-0.0008899267
-0.0008881721
-0.001391438
-0.001610392
-0.001158689
-0.001115217
0.0003146526
0.001082085
7.821374e-05
-0.0003957822
-0.0004098485
-0.001131596
-0.001395951
0.0001058383
0.0003002015
-0.0003630084
-0.0006993799
-0.001825027
-0.002415340
-0.002081466
-0.0001898049
0.001079918
0.001550897
0.002531746
0.001804174
0.001549793
0.001556935
0.0005655045
0.0005873081
5.450329e-05
-0.001104290
-0.001934415
-0.001569477
-0.0007290998
0.0001559168
0.001727468
0.002093697
0.002746125
0.002779182
0.001818428
0.001500881
0.001129175
0.0002343516
0.0001787830
0.001197611
0.001403534
0.001216291
-0.0001047295
-0.0009401903
-0.001880122
-0.002353351
-0.001439221
-0.001095032
-0.0007178001
-0.001592391
-0.001675205
-0.001627614
-0.001638544
-0.0004341285
9.896785e-05
0.0007810239
0.0008338002
5.225928e-05
-0.0004050511
-0.0004218274
-0.001160894
-0.001628393
-0.001176628
-0.001131504
5.059418e-05
0.001556909
0.002266733
0.002282332
0.001537384
0.001053221
0.0008001266
0.001057331
0.0007938189
0.0003248776
0.0003058139
-0.0006682494
-0.0009001916
-0.0009387835
-0.0006316637
2.504346e-05
-0.0003834780
3.638856e-05
-0.0001643870
-0.0006650792
-0.0009379814
-0.0008754146
1.431376e-05
0.0003672656
0.0009889855
0.001097271
0.0007560223
9.917586e-05
-0.0002077083
8.513329e-05
0.0002883241
0.0008242965
0.0005177399
0.0006035318
0.0002420973
0.0001412273
0.0009578629
0.0003904660
0.0002337466
-0.0006159196
-0.001695162
-0.001386388
-0.0009272543
-0.0001909806
0.0003259124
2.772487e-05
0.0001039846
8.589447e-06
-0.0003769813
0.0002558180
0.0003426890
0.0002815657
-0.0001810378
-0.0004196524
-0.0004571718
-0.001379743
-0.001201430
-0.0008933046
-0.0009441164
-0.001157757
-0.0009220752
-0.0009352281
-0.0009055541
0.0002839716
0.0008033857
0.001774017
0.002000910
0.001803354
0.001975880
0.001081506
0.0007483385
0.0003352053
3.149692e-05
6.579117e-05
0.0005468553
0.001023408
0.0008077599
0.001015994
0.0005599053
0.0007795395
0.001039636
4.884585e-05
-0.0004283596
-0.001189899
-0.0008994625
-0.0004756537
-0.0006390004
-0.0002354925
-0.0006486653
-0.0004580264
-0.0006819806
-0.0006667697
-0.0002249850
-0.0008897721
-0.001214247
-0.002367462
-0.002177730
-0.001898465
-0.001918671
0.0003091660
2.276952e-05
-0.0001502843
0.0002371358
-0.0003786655
0.0007321234
0.0005721636
0.001272106
0.001982198
0.001822270
0.001686891
0.0006274710
0.0006977636
0.0003661365
0.0009792524
0.001541175
0.001525346
0.001241980
0.0005880810
0.0009688886
0.0005961976
0.0007336493
0.001061016
0.001504338
0.001510511
0.0005630575
-0.0009761988
-0.002599779
-0.002702794
-0.002605202
-0.001458216
-0.0006720659
-0.001182774
-0.001681858
-0.001895088
-0.001697575
-0.001644892
-0.0007117068
-0.0006788321
-0.0009392461
-0.0004492383
-0.0006864083
4.117131e-05
0.001023248
0.001275036
0.001505265
0.001036333
2.725854e-05
-0.0004281529
-0.001449957
-0.002143655
-0.0009510526
-0.0004477932
0.0005478770
0.001483528
0.0008168489
0.0004877703
-0.0001596386
-0.0004894502
7.601520e-05
0.0005039374
0.0005498085
0.0005229994
-0.0002072620
-0.0009277092
-0.0009596169
-0.0001827802
0.001247406
0.001520137
0.001761384
0.001733370
0.001305763
0.0009633999
0.0008450646
0.001186217
0.0003668396
-0.0005339750
-0.0003713067
-3.575411e-05
0.0005952163
0.0009664572
0.0003182304
0.0007626223
0.0005158901
-0.0001727953
-0.0002547668
-0.001135496
-0.0009886860
-0.001401188
-0.0009548851
3.069029e-05
-0.0001836927
0.0002481131
0.0003244869
-6.539030e-06
-0.0001639491
-2.032443e-06
-0.0001742334
1.141144e-05
-0.0006772585
-0.002189945
-0.001405783
-0.001227952
-0.0006466244
0.0002241825
0.0003378712
0.001958427
0.0007866325
-0.0001912436
0.0002368533
-0.0006309131
-0.0007790235
-0.0008584383
-0.0005345103
-0.0006278011
-1.829114e-05
0.0008120185
0.0007472140
0.001278011
0.001254902
0.0002863271
-0.0002112653
0.0002890623
-0.0002218976
-0.0006761709
-0.0002369843
-0.0001745805
2.743788e-06
0.0003155234
0.0009894375
0.001040831
0.001246185
0.001768201
0.001002384
0.0007937708
0.0005016813
-0.0004218695
-0.0002399457
0.0005609064
0.0009882024
0.001289762
0.001736581
0.001025607
0.0007789245
0.0007593593
0.0003021753
0.001248720
4.662826e-05
-0.001187956
-0.0004519812
-0.002418389
-0.002888761
-0.001696812
-0.002150169
-0.001437565
-0.001443757
-0.001153778
-0.0009918096
-0.001859930
-0.0007596266
9.752336e-05
0.0007297608
0.001296281
0.001742310
0.001755282
0.001278314
0.001493629
0.001528458
0.001746273
0.001265363
0.001036385
1.231536e-05
-0.001394105
-0.001465434
-0.002631041
-0.002172300
-0.0007082304
7.559550e-05
0.0004798114
0.0005953808
0.0004638551
-0.001121660
-0.001723916
-0.001890354
-0.002171198
-0.002183094
-0.0008972623
0.0004718754
0.0006025105
0.001687900
0.002064341
0.002448871
0.001783442
0.0007706141
0.001261582
0.0007912796
0.0007618590
0.001283246
0.001010203
5.098366e-05
-0.0004522933
-0.0002021158
4.372127e-05
0.0005312381
0.0007782949
0.0002895519
-0.0006988270
-0.0004379027
0.0002755780
-0.0004370750
-0.0004545679
-0.0004455018
-0.001428498
-0.001183594
-0.0006933050
-0.001183578
-0.001182097
-0.0009404739
-0.001426743
-0.001184866
-0.0009358259
-0.001191391
-0.0006752510
-0.001216351
-0.0008902760
-0.0002635341
-0.0003838626
0.0009642135
0.0008201108
0.0007558734
0.001021058
0.0007984790
0.001231142
0.001066765
0.001220276
0.0008209749
-0.0002426341
-0.0001737456
0.0007573633
0.0007814174
0.001031130
0.001244254
0.0003157647
-0.0004824348
-0.001156446
-0.0009608663
-0.001668076
-0.002162909
-0.001197760
-0.0009264548
-0.0007080601
-0.0006909327
4.391013e-05
0.0002695536
0.0003054496
0.001733524
0.002015203
0.002241170
0.001500313
5.784938e-05
-0.0004772832
-0.001654502
-0.001695705
-0.001180575
-0.0009405399
0.0002697759
0.0007959069
0.0002461282
0.001557711
0.002181429
0.001328262
0.001447127
7.989811e-05
-0.001210393
-0.002424008
-0.002625619
-0.001494708
-0.0008710595
0.0004443308
0.0006038704
-3.571384e-05
-0.0003996124
0.0002402470
0.0005452064
2.890037e-05
-0.0002185825
-0.001179093
-0.001943226
-0.001426357
2.985246e-05
0.0005122263
0.001285605
0.001950170
0.002048841
0.002176779
0.001806592
0.002435517
0.001530976
0.0007584761
0.0005102179
-0.0006825983
-0.0004858840
-0.0006841828
-0.0009621477
-0.0004634092
4.888314e-05
-0.0004994982
-0.0006502374
-0.0002868761
-0.0003841924
-4.831480e-05
-0.0003954948
-0.0002668853
-0.0009257430
-0.001448019
-0.001214116
-0.001660367
-0.001234400
-0.001164494
-0.0004941390
0.001029956
0.001971320
0.002485609
0.001985599
0.0007530240
-0.0002043936
-0.0009815647
-0.001413036
-0.001242568
-0.0004205921
0.0002206625
0.0003141566
0.0009653360
0.001275711
0.001235568
0.0007547910
4.056691e-05
-0.0005012737
-0.0006701410
-0.0002747629
7.405491e-05
0.0007063214
0.0005531727
0.0004784442
0.0002868361
-0.0007292714
-0.0009532952
-0.0009661996
-0.001693921
-0.001702545
-0.001685809
-0.002950158
-0.001896949
-0.001031223
0.0001019712
0.002624555
0.002302916
0.003146194
0.002742323
0.001484129
0.001961782
0.0002831328
-0.0002508790
-0.0004609477
-0.0009744378
-0.0004702191
-0.0004846989
3.016647e-05
-0.0007496725
-0.001418954
-0.0007683004
-0.0004311230
-2.735370e-05
0.0002828786
0.001234418
-1.266748e-05
-0.0006731728
-0.0005493895
-0.001629809
-0.0002992987
-0.0006853291
2.327017e-06
0.0009675840
-0.0006814959
-4.524562e-05
6.366803e-05
0.0002044492
0.001521934
0.001688984
0.001261998
0.0004768979
2.003286e-05
-0.0002404931
-0.0007394888
-0.0004566674
-0.0002837394
0.0003138086
0.0004195890
-0.0001556155
0.0001683042
-0.0004141161
-0.0002928993
0.0005244441
0.0009809351
0.001208049
0.001521847
0.001405757
0.0008240314
0.0006446860
0.0005871759
0.0008988939
-0.0001769786
-0.0002841245
-0.0004730865
-0.001708234
-0.001490489
-0.001931938
-0.001990615
-0.001441290
-0.001006791
-0.0002209158
0.0002237194
0.0007539387
0.0007204717
0.0002518209
2.594382e-06
-0.001001145
-0.001189882
-0.001528463
-0.001893240
-0.001550752
-0.001642841
-0.0005573921
0.0002876785
0.0004669162
0.0007227373
0.001509620
0.0006562189
9.897387e-05
0.0001215567
-0.001356701
-0.0005957394
-0.0004282661
0.0009512893
0.002180297
0.002015516
0.002603550
0.001810674
0.001365784
7.681495e-05
-0.0005546578
-0.001452639
-0.001716286
-0.0005315954
4.436075e-05
0.001649917
0.002008962
0.001418305
0.0005101308
0.0002280762
-0.0002638649
-0.0009653008
-0.001509712
-0.003417376
-0.003204263
-0.002966363
-0.001931713
-6.690295e-05
0.0003011821
0.001643645
0.001264904
0.0006958510
0.0007333185
9.576953e-07
-0.0005287479
-0.0009518927
-0.0007921219
-0.0006995059
-5.418858e-05
0.001006137
0.001923213
0.003191987
0.004644547
0.004879698
0.004428372
0.003137138
0.0005239220
-0.001284411
-0.002664640
-0.002992408
-0.002185232
-0.001755582
-0.0007243617
0.0004620255
0.0007317070
0.0007263372
0.0002183302
-0.0004745462
-0.001277802
-0.001677781
-0.001539802
-0.001178777
-0.0003118067
0.0005231055
0.001921666
0.002201954
0.002699635
0.003633193
0.002974824
0.002145493
0.001261367
0.0001953960
-0.001460403
-0.001728970
-0.001503978
-0.001194954
0.0001758089
0.001282498
0.001634529
0.001033710
0.0006742353
-0.0007184950
-0.001485266
-0.001994649
-0.002420943
-0.001780246
-0.002409403
-0.002016759
-0.001943222
-0.002229654
-0.001240471
-0.0007291710
-0.0002847039
0.0007627849
0.001415360
0.001507000
0.001661224
0.001495495
0.001193342
0.0002367518
0.0007435870
0.0009307760
-0.0002042902
0.0001785690
-0.0002061553
-0.0005397526
0.0005012969
0.001458176
0.0009473701
0.001505978
0.001148984
-0.0009190835
-0.001302953
-0.002910470
-0.002472983
-0.001265491
-0.0009291284
-0.0001032278
-0.0006381183
-0.001109427
-0.001614928
-0.001093696
-0.001402043
-0.001543487
-0.0004620837
-0.0005297835
-0.0007308190
-0.001007288
-0.0007350650
-0.001010181
-0.001466109
-0.001012634
-0.001224320
-0.0007599863
0.0002376815
0.0007166330
0.0007268781
-2.551489e-05
4.602713e-06
-0.0005343828
-0.0007143397
0.0006824835
0.0009976081
0.001679128
0.002198672
0.001950774
0.001193044
6.945746e-06
-0.0005313876
-0.001713212
-0.002234519
-0.001487401
0.0002389988
0.001678595
0.002459509
0.003635976
0.002940752
0.001937135
0.001693217
0.001221897
0.0006951874
7.321424e-06
-0.0002906133
-0.0007299725
-0.0005293614
0.0004864372
0.0007062730
0.0007198853
0.0009658602
0.0002103061
-0.0002384336
-0.0005461756
-0.0004694734
-0.0003032831
-0.001220908
-0.0002677458
-0.001027694
-0.001928370
-0.001073341
-0.001413946
-0.0005810178
-0.001196182
-0.001517132
-0.001002778
-0.001223811
-6.035164e-05
0.0007638513
0.0009042120
0.0007702849
0.0006599671
0.0002724476
-6.453360e-05
-0.0002303105
-0.0007892963
-0.0009741288
-4.856048e-05
0.001231619
0.001906928
0.003205707
0.003850537
0.003223496
0.002364382
0.001516581
0.0008913077
0.0002844962
0.0006612181
0.0007524733
0.0004417321
-8.027391e-06
-0.0002739974
0.0002263974
-0.0002744808
-0.0002534537
-0.0002905669
-0.0007282012
-0.0005456083
-0.0009724092
-0.001518011
-0.002460462
-0.002720551
-0.002485748
-0.002207212
-0.001276801
-0.0009724124
-0.0007878240
-0.0004867738
-4.328895e-05
0.0004823200
0.0007047743
0.0007145655
0.0004719385
-3.243597e-05
-0.0004991435
-0.0007749459
-0.001476027
-0.001512027
-0.0004934046
0.0002003453
0.0002478787
0.0004373046
0.001239846
0.0004234906
-0.0002197761
0.0001769098
-0.0007249688
-3.600698e-05
0.0002113074
0.0007461396
0.001890762
0.001007750
0.001163791
-0.0002498771
-0.0007518919
0.0004390153
-0.0004698755
-0.0008092182
-0.0009508890
-0.001053970
-0.0009573171
-0.0007993400
0.0002587447
0.0006822017
0.0007356367
0.001681923
0.002426728
0.003182922
0.003130345
0.002476935
0.002126931
0.001264308
0.0001636033
-0.0007068081
-0.0007946505
-0.001476118
-0.001242806
-0.0007838977
-0.001205785
-0.0008085736
-0.001195172
-0.001051670
-0.0004693745
-0.0007933617
-0.001218679
-0.001760093
-0.001968007
-0.001009899
0.0002256623
0.001451195
0.002428979
0.001691110
0.0007260294
-0.0007785778
-0.001953152
-0.001769667
-0.001463124
-0.0007751934
-0.0007547336
-7.225678e-07
0.0001810924
-0.0002023273
0.0001468964
-0.0001823399
-0.0001014533
5.015041e-05
0.0009063230
0.0009938899
0.0004572004
0.0007101729
0.0004896755
0.0004403953
0.0007525253
0.0006754395
1.947290e-05
-5.389450e-05
0.0002517938
0.0004547265
0.0004756216
0.0004783407
0.0004522296
-0.0002346420
-0.0003043285
0.0007680319
0.0004088755
0.0002967841
0.0004017646
-0.001430917
-0.001525859
-0.001726945
-0.001711206
-0.001048747
-0.0004391253
0.001131492
0.001034556
0.001397764
0.001241406
0.0009554397
0.0009488603
0.0005042871
0.001170545
0.001000613
0.0009368917
0.0009761396
0.001216324
0.0002029393
-0.001201086
-0.0007994397
-0.0009499951
-0.0002983556
0.0002541472
0.0004649349
0.0007178371
0.0004861850
0.0009516875
0.0004879447
0.0002224187
0.0002347156
-0.0005072206
-0.0007457706
-0.001738421
-0.002453686
-0.002479086
-0.003189664
-0.002960870
-0.001977446
-0.0007368598
0.0004568398
0.001240683
0.001915643
0.001984050
0.001422727
0.001001265
0.0009413045
0.0002502938
0.0004723141
0.0007190684
0.0002437001
0.0004683021
-0.0002528458
-0.0004955973
-0.0005194195
-0.0007197250
-4.376066e-05
-0.0002225205
-0.0005331557
-0.0009632705
-0.001261775
-0.0007222145
-0.0002805912
0.0007528410
0.0009400081
0.0002652472
0.0009443887
0.0002547016
-0.0007604601
0.0002505070
-0.0002746364
-0.001210028
-0.001019476
-0.0007150746
-0.0002803242
0.0002529758
0.001214529
0.0004640300
2.892096e-05
0.0001812564
-0.0001887758
-7.410840e-05
-0.0001989993
0.001429222
0.001222645
0.0005050343
0.0004380390
-0.001180511
-0.001528127
-0.001937465
-1.250873e-05
0.001193543
0.001757542
0.003365016
0.001762763
0.001920663
0.001957805
0.001491323
0.001654874
0.0003100997
-0.0003321010
-0.001890225
-0.003019237
-0.002399846
-0.001276774
-0.0007131323
0.0002242047
0.0007338859
-0.0004992791
-0.0004883629
-0.001006584
-0.001445050
-0.001519162
-0.002167016
-0.001518233
-0.001937567
-0.001246779
0.0004866459
1.221669e-08
-1.519242e-05
0.0009852356
0.001211302
0.001224390
0.001470091
0.0004667931
2.727409e-05
0.0004378750
0.0002975693
0.0004197525
0.001043425
0.001889604
0.001770563
0.001661085
0.001993657
0.001686442
0.0007397594
-7.481994e-08
-0.0002707795
-0.0004611200
-0.001033561
-0.0009281918
-0.0003134544
-0.0004339683
-0.0003040171
-0.0002112230
-0.0002699527
-0.0009907370
-0.001199896
-0.001533587
