EVENT_NAME: 
EVENT_DATE_YYYYMMDD: 20201105
EVENT_TIME_HHMMSS: 032527
EVENT_LATITUDE_DEGREE: 38.6957
EVENT_LONGITUDE_DEGREE: 13.8490
EVENT_DEPTH:   4.90
MAGNITUDE_L: 3.6
MAGNITUDE_W:
FOCAL_MECHNISM:
NETWORK: IV
STATION_CODE: NOV
STATION_NAME: Novara_di_Sicilia
STATION_LATITUDE_DEGREE: 38.0278
STATION_LONGITUDE_DEGREE: 15.1367
STATION_ELEVATION: 775
LOCATION:
VS30_M/S: '0' (0=missing)
SITE_CLASSIFICATION_EC8: B
MORPHOLOGICAL_CLASSIFICATION: T2
EPICENTRAL_DISTANCE_KM: 134.547974
EARTHQUAKE_AZIMUTH_DEGREE: 123.083237
DATA_TIME_FIRST_SAMPLE_YYYYMMDD_HHMMSS: 20201105_032527.0
DATA_TIME_FIRST_SAMPLE_PRECISION: milliseconds
SAMPLING_INTERVAL_S: 0.01000000
NDATA: 30000
DURATION_S: 300
STREAM: HNE
UNITS: cm/s^2
INSTRUMENT: TRIDENT-FS-40-VPP_____EPISENSOR-FBA
INSTRUMENT_ANALOG/DIGITAL: D
INSTRUMENTAL_FREQUENCY_HZ:
INSTRUMENTAL_DUMPING:
FULL_SCALE: '0.5' (999=missing)
N_BIT_DIGITAL_CONVERTER:
PGA_CM/S^2: 0.0339638
TIME_PGA:
BASELINE_CORRECTION: REMOVED
FILTER_TYPE: BUTTERWORTH
FILTER_ORDER: 4TH
LOW_CUT_FREQUENCY: 0.20
HIGH_CUT_FREQUENCY: 45
LATE/NORMAL TRIGGERED:
DATA_VERSION: ISMD_2.0
DATA_TYPE: AUTOMATIC_PROCESSED_ACCELERATION
DATA_TIMESTAMP_YYYYMMDD_HHMMSS:
UNUSED1:
UNUSED2:
USER1: MEAN_REMOVED
USER2:
USER3:
[...]
0.0008106947
-0.0005928595
-0.0009980354
0.005255168
0.007055949
0.003161533
0.002696751
0.005345310
0.001938630
0.0006316165
6.892507e-05
-0.002522768
-0.0005637769
-0.0002502073
-0.002641775
-0.001852255
0.001169496
0.0003998556
-0.005432106
-0.005750779
-0.002879377
-0.005094890
-0.003182801
-0.002124486
-0.003449278
0.002935354
0.007169269
0.004328137
0.004866960
0.006811514
0.005313771
0.004238294
0.003456231
-0.0009347892
-0.003777093
0.001369443
0.001361940
-0.003694847
-0.0007993649
0.001339207
-0.0004494729
-9.303018e-05
-0.003697925
-0.005966247
-0.002044104
-0.0004110309
-0.003223292
-0.006061562
-0.004836874
-0.006254341
-0.008674303
-0.005728084
-0.003444502
-0.002501093
-0.0009609614
-0.001318298
-0.0005431329
0.004570315
0.006444188
0.0004494890
-0.0004554012
0.002267312
0.0002095473
0.001580392
0.003621947
0.004680177
0.008420585
0.009935419
0.006716351
0.005451278
0.008264151
0.007996715
0.002418926
0.0001587548
0.0002938048
-0.004256349
-0.003338127
-0.002490288
-0.006822642
-0.008484046
-0.006378269
-0.005394539
-0.01050116
-0.007901991
-0.002874102
-0.003765986
-0.0009787258
-0.0009050326
-0.002789453
0.003849585
0.007903783
0.003857355
0.004624190
0.007409346
0.004524993
0.001605047
0.006918691
0.007167032
0.002194944
0.004647191
0.004407609
0.002606615
0.003655253
0.002281452
-0.002482289
-0.001672424
-0.0001888194
-0.005273205
-0.006670544
-0.005867468
-0.005816077
-0.004093994
-0.004763878
-0.006754240
-0.004535581
0.0009634116
0.0003351377
-0.004191062
0.002841768
0.008342605
0.004960951
0.007284300
0.009739108
0.008268857
0.008515825
0.005318005
-0.001472705
-0.002822117
-0.001680773
-0.006043289
-0.009746683
-0.006722699
-0.003392292
-0.004536349
-0.004806158
-0.004130668
-0.005076482
0.001030920
0.001250144
-0.007872095
-0.008084971
-0.004513078
-0.003705773
-0.003201413
-0.0005361420
0.001776283
0.001650088
0.005971123
0.005857229
0.001238575
0.009233077
0.01277122
0.005370928
0.003778976
0.002818196
-0.0004662860
-0.0007182537
-0.0007335357
-0.001619650
-0.0009293156
-0.001126610
-0.004668184
-0.006405102
6.792599e-05
0.0004404304
-0.005703243
0.0008076504
0.003445263
-0.0004898527
0.001523800
0.0005253091
5.773738e-05
0.001106295
-0.0003280789
-0.003416703
-0.001940353
0.003975409
0.001974944
0.001060785
0.006239352
0.005785680
0.002144238
0.003616107
0.005064419
0.001218168
0.002955289
0.001169404
-0.006890161
-0.005237755
-0.006174557
-0.01095349
-0.009104895
-0.004843709
-0.002828317
-0.0007746848
0.002622464
0.001410505
0.001250634
0.005656766
0.002762588
-0.005181903
-0.004583049
-0.003797390
-0.004693032
0.0004519779
-0.0005841855
-0.002534960
0.004858214
0.007944041
0.002042062
-0.0006987351
0.002596558
-0.0005881343
-0.007633743
-0.004007580
-0.0004892790
-0.001849881
0.002901653
0.002144606
-0.002559133
0.002719950
0.007751113
0.004433441
0.0002073813
0.002669694
0.005580476
0.004521121
0.004295636
0.002786833
0.002421093
0.005400605
0.004209853
0.0006699687
0.002388017
0.001019559
-0.003496428
0.0006861661
0.001342575
-0.002188776
0.003747947
0.003476633
-0.003398005
-0.001660292
0.0003469251
-0.004023515
-0.007250137
-0.002520576
-0.004307311
-0.009020934
-0.007634678
-0.008579138
-0.006718424
-0.002696066
-0.001817534
-0.005384942
-0.002146465
0.002644689
-1.248745e-05
0.002621805
0.004340748
0.001762152
0.004418817
0.004308395
0.0009451275
0.003883963
0.006552526
0.003505132
0.0002347794
0.004322911
0.007438000
0.0005438566
-0.0005396599
0.001975600
-0.001340909
-0.0007206253
-0.0006586587
-0.002714783
-0.0007697963
0.002808196
0.0006793754
-0.003111610
-0.004234465
-0.004173428
-6.938521e-05
0.004247710
0.002766914
-0.001331388
0.003126929
0.004092881
-0.002840508
-0.002488586
-0.003382236
-0.004896980
0.001816910
0.001637140
-0.002007676
0.001923449
0.004909779
0.003186438
0.001167407
0.004998863
0.006930992
0.006780820
0.008535675
0.004720668
0.001853891
0.003181227
-0.0006520053
-0.007801617
-0.005778902
-0.004201327
-0.008984182
-0.004987742
-0.0003979636
-0.002578310
-0.004409199
-0.005484721
-0.008069738
-0.007521600
-0.005349192
-0.009160821
-0.01085996
-0.002191203
0.001739977
-0.002452248
0.002920376
0.006368848
0.005087636
0.008139281
0.009782274
0.01016070
0.01054441
0.01078416
0.004063181
-0.002573183
-0.001027661
-0.001783825
-0.007389283
-0.007745323
-0.006254867
-0.009710619
-0.008539808
-0.007698959
-0.009994106
-0.005132631
-0.002330565
-0.007108606
-0.003094255
0.006585925
0.008809487
0.008073034
0.006071838
0.002123648
0.0009079917
0.0008151511
-0.003574381
-0.006503279
-0.002406583
-0.0009682431
-0.006382432
-0.004246818
6.160674e-05
0.002537848
0.008700166
0.01150385
0.01289691
0.01528911
0.01375309
0.005377112
0.002868468
0.004350485
-0.002114952
-0.008491323
-0.008033619
-0.007469300
-0.01060355
-0.009840714
-0.005919303
0.0004353174
0.009125800
0.01020414
0.009409125
0.01839590
0.02106444
0.01212128
0.01063904
0.01063530
0.002500722
-0.007565834
-0.01364039
-0.01585650
-0.01813292
-0.01335232
-0.01310453
-0.01565018
-0.002221504
0.002761084
0.001517706
0.008551436
0.01001509
0.005812854
0.0003809850
-0.002399773
-0.007385875
-0.008458399
-0.005670799
-0.004141611
0.002633520
0.005943360
0.003386697
-0.0003660687
0.003416156
0.002599847
-0.008650684
-0.007771127
-0.005801106
-0.006445124
-0.0003577703
-0.001506448
-0.003066291
0.004638256
0.008244080
0.002345454
-0.0001333039
0.006022430
0.007075118
0.006241706
0.01091302
0.01133185
0.006023288
-0.0007644747
-0.009395305
-0.01367804
-0.01061412
-0.009237968
-0.006327536
0.004121823
0.01439593
0.01502024
0.01483121
0.01779857
0.01329215
0.007185807
-0.0001493462
-0.01055718
-0.01428407
-0.01216706
-0.01611750
-0.02295642
-0.01604541
-0.005434299
-0.002583707
0.004744049
0.006089525
0.001699621
0.007644271
0.006412827
-0.001708560
-0.0004053629
0.0009255106
-0.004385360
-0.009800893
-0.01033328
-0.009917526
-0.009865797
-0.004722109
-0.003061092
-0.001177292
0.01223903
0.01364976
0.006166006
0.01352192
0.01316587
-0.0008766793
-0.006320009
-0.004693803
-0.007774572
-0.01017094
-0.005522593
-0.006259644
-0.008200920
-0.003381144
-0.001975935
0.002242337
0.01054476
0.009255685
0.005627231
0.008660857
0.007377683
0.002062408
0.002291979
0.002836297
0.004286001
0.008811846
0.01080396
0.009536413
0.009451925
0.01127571
0.008181592
0.003734647
0.004318926
0.003125010
-0.001884351
-0.002915034
-0.008660251
-0.01804321
-0.01414293
-0.01081936
-0.01394178
-0.005432395
0.005679951
0.006364405
0.005257119
0.0005712428
-0.006349907
-0.006691944
-0.004185334
-0.005964863
-0.006585158
0.001614414
0.006337867
0.005008825
0.007666594
0.008582599
0.005797016
0.005998497
0.002417967
-0.002269687
-0.002043310
-0.005928665
-0.01049486
-0.007051671
-0.001389130
-0.004225703
-0.007085891
-0.004035698
-0.001173215
-0.0007834724
-0.003787697
-0.004810663
-0.005616668
-0.002721367
-0.002488093
-0.006013250
0.001911951
0.005581515
0.003283413
0.005802070
0.008444909
0.009849064
0.01069202
0.009891103
0.002411055
-0.001672988
0.001478546
-0.0009456736
-0.003767344
0.0007433352
0.003735493
0.002302212
0.005255862
0.004454882
0.0003839086
0.005756435
0.006513654
0.003080433
0.004844589
0.006505610
0.001875676
-0.006195705
-0.009580537
-0.01471455
-0.01524296
-0.01372068
-0.01858567
-0.01720956
-0.007158667
-0.002313946
-0.003527147
0.002879025
0.007594526
0.005941649
0.006422597
0.007544320
0.008248727
0.008602116
0.007248342
0.004331789
0.004407224
0.008646874
0.004627177
-0.002258313
0.003257935
0.007214212
0.004355531
0.007450744
0.009962105
0.004807588
0.003518602
0.0006150256
-0.006259150
-0.007062075
-0.01006162
-0.01655435
-0.01588871
-0.01134012
-0.01155335
-0.01302947
-0.01005445
-0.008390944
-0.006932206
-0.001177804
-0.001316834
-0.001249964
0.007389686
0.01149318
0.007080546
0.008441762
0.01099515
0.003576177
-0.002918149
-0.003442903
-0.001148597
0.002060460
0.004336878
0.003605012
0.007030086
0.01305656
0.008830315
0.0009202946
0.001215063
-0.002047551
-0.009719401
-0.003116972
0.001279863
-0.0004888988
0.004918741
0.006998669
0.005663034
0.009430746
0.01286585
0.007721115
0.0001316812
-0.003219005
-0.006630377
-0.01198278
-0.01359784
-0.01471535
-0.01350258
-0.005049194
-0.003514139
-0.005966236
0.0006723528
0.002204575
-0.004311973
-0.004500454
-0.003264449
-0.005487416
-0.008397924
-0.009990807
-0.007554318
-0.003376659
0.0005573792
0.0009404007
0.006291074
0.01809040
0.01784909
0.01250196
0.01436374
0.01193550
0.004378138
6.014402e-05
-0.003264691
-0.005393366
-0.005855177
-0.005612959
-0.006191554
-0.005831952
-0.002283446
-0.004360566
-0.005962945
0.001914125
0.004223410
0.002460202
0.005167212
0.005591871
0.004515820
0.007257306
0.006500832
0.002033129
0.008602539
0.01330055
0.009185702
0.006102772
0.005823549
0.002749538
-0.002824197
-0.004349179
-0.01044329
-0.01138573
-0.004840267
-0.006079549
-0.009285832
-0.004386880
-0.004417235
-0.01118651
-0.005042804
0.001043080
-0.001327490
-0.002165671
-0.0002290872
0.001487884
-0.001470322
-0.001216811
-0.001301078
-0.0004095055
0.005767515
0.001673146
-0.005172744
-0.001306724
0.001853611
0.0008456188
0.002917985
0.002941976
0.004144478
0.006625384
0.001539979
-0.001595044
-0.0006076095
-0.0003728334
-0.003406163
-0.009491972
-0.006025224
-0.003452918
-0.009264661
-0.005750078
-0.001051485
-0.002744179
0.002391548
0.006376246
0.003484054
0.003912428
0.004317820
0.003780668
0.002719267
0.005196073
0.009659489
0.009987277
0.01147767
0.01228916
0.01203584
0.01224854
0.008064708
-0.0007347148
-0.001530218
-0.001575998
-0.006098091
-0.007629977
-0.009290886
-0.008607126
-0.007632399
-0.007152349
-0.009613039
-0.01146113
-0.007332917
-0.006016985
-0.005674378
-0.0001760438
-0.0006236790
-0.004061687
-0.002165978
-0.003903023
-0.006339225
-0.001773165
-0.0004140236
-0.005960114
-0.004632664
-0.0008011388
0.001262669
0.002989901
0.006285627
0.009767104
0.008835025
0.01211962
0.01091257
0.006996200
0.01261562
0.01306301
0.005262171
0.003455391
0.002298148
-0.0005199749
0.0003627430
-0.002849741
-0.006652103
-0.004492353
-0.0009506416
-0.003888422
-0.005722282
0.0002950834
0.001156478
-0.001899771
-0.0007613552
-0.0007092587
-0.002760588
0.001125969
0.001590833
-0.0009764975
0.004662327
0.004972607
-0.001738306
-0.005621767
-0.003695014
-0.003297945
-0.004806735
-0.001902660
-0.003787333
-0.006386344
7.224988e-05
0.0009871416
-0.006416761
-0.005950101
-0.004124722
-0.004839820
-0.005487805
-0.004584846
0.001573112
0.008558918
0.01174984
0.009570595
0.007216440
0.01027713
0.01114400
0.005321569
0.008555242
0.01364175
0.01016612
0.008681978
0.007447527
0.004425195
0.003303989
0.002509740
-0.002080417
-0.005215609
-0.001642215
-0.0004475645
-0.004819453
-0.004612194
-0.001820715
-0.005656631
-0.007940248
-0.01061405
-0.01687378
-0.01547544
-0.01665770
-0.01818023
-0.01283957
-0.01007226
-0.008902473
-0.007109301
-0.001606760
0.002683595
0.002573986
0.007279001
0.008277028
0.006085027
0.01620024
0.01785919
0.008224769
0.007548468
0.009107151
0.004562906
-0.001678795
-0.003230723
-0.005949611
-0.002482035
0.003046225
0.002399653
0.007965520
0.01201519
0.006599957
0.002253653
0.006164833
0.004367478
-0.002556214
0.0007778899
0.003352304
-0.0006065956
-2.128815e-05
-0.002459618
-0.006762253
-0.007330653
-0.01199697
-0.01871000
-0.02365951
-0.02060480
-0.02327066
-0.03129704
-0.02621016
-0.01810876
-0.01344005
-0.007921611
-0.004051058
-0.004718039
-0.001158597
0.002120842
0.0009962276
0.006182096
0.01204499
0.01151133
0.01215403
0.01945017
0.02147766
0.01521447
0.01266556
0.009797329
0.004888035
0.006688028
0.002956583
-0.002551984
0.005621559
0.009990905
0.007143047
0.008032514
0.01252961
0.01441972
0.01359883
0.01307732
0.007361688
0.005063456
0.006902122
0.003371289
-0.003896162
-0.004543738
-0.002379083
-0.007102645
-0.005454263
-0.003767656
-0.006325610
-0.003925748
-0.002878769
-0.006491607
-0.007202212
-0.0004197623
-0.0006807016
-0.007540607
-0.005689615
-0.002658618
-0.002986096
-0.0005519206
-0.002606239
-0.006741596
-0.002481626
0.0004268904
-0.003412350
-0.002664136
0.001931956
0.003518248
4.372104e-05
0.0003666664
0.004579878
0.002028172
-0.001067182
-0.004692079
-0.005899362
-0.002629800
-0.002077995
-0.007668109
-0.01207406
-0.008791389
-0.008110924
-0.01118689
-0.008009355
-0.001323942
-0.0009377521
0.003350261
0.008108728
0.006910258
0.01206946
0.01088526
0.003809755
0.008259729
0.01156200
0.009519387
0.01191995
0.01747258
0.01938316
0.01567267
0.01681401
0.01784786
0.01329902
0.01285322
0.01100153
0.004351060
0.008309840
0.009439490
-0.002031303
-0.005519456
-0.008218874
-0.01394175
-0.01917064
-0.02389766
-0.02377701
-0.02201831
-0.01961174
-0.01885484
-0.01759830
-0.01046824
-0.001931731
-0.002438661
-0.002157635
0.003376529
0.004071203
0.004542537
0.003311645
0.0008403860
0.004439214
0.006460213
0.002544400
0.0005347821
0.0007905971
0.001383196
0.0006733168
-0.0007666117
-0.003232018
-0.006563975
-0.004884555
-0.006279388
-0.007313401
0.0001606814
0.003190992
0.002430656
0.004224407
0.009486013
0.01336533
0.01098423
0.01220567
0.01078063
0.007432870
0.01369260
0.01244972
0.007401775
0.01085754
0.01012067
0.006637270
0.004949139
0.004335263
0.004803140
0.0001851532
-0.006860529
-0.01039153
-0.01407273
-0.01892277
-0.02631786
-0.03396377
-0.02977247
-0.02554571
-0.02914973
-0.02244354
-0.01610478
-0.01257071
-0.004665630
-0.001886953
0.005243277
0.01193812
0.01325216
0.01313525
0.01392111
0.02139468
0.01879519
0.009239957
0.008591473
0.005441698
-0.002499087
-0.005407598
-0.007159904
-0.009831412
-0.01184875
-0.01749049
-0.02084210
-0.01825472
-0.01327587
-0.01190167
-0.01180709
-0.001818535
0.006031582
0.005839171
0.008196121
0.009477401
0.01173226
0.01875862
0.02131229
0.01917521
0.02242507
0.02726397
0.02675343
0.02608764
0.02576043
0.02562367
0.02100828
0.01497718
0.01158581
0.006081607
0.006742037
0.001206644
-0.009595001
-0.008833797
-0.01149789
-0.01860493
-0.02049041
-0.02033784
-0.01796605
-0.01629415
-0.01492141
-0.01231876
-0.01127808
-0.003603339
-0.001625467
-0.004943042
0.001674353
0.003634972
0.003756323
0.006853995
0.005330403
0.003429763
0.001782192
-0.004078851
-0.01091754
-0.01199153
-0.008259262
-0.01252313
-0.01968269
-0.01431753
-0.009883144
-0.01112537
-0.006131412
-0.003311588
-0.005124287
-0.002953022
-0.002379602
-0.007403322
-0.008118018
-0.002624063
0.001224446
0.0006342866
0.001047466
0.005213785
0.007499806
0.01328001
0.01165713
0.006599782
0.01188987
0.01315859
0.01011629
0.006478248
0.007890151
0.01216991
0.01127862
0.009942940
0.01136296
0.01322382
0.01610957
0.01369934
0.006161912
0.006531801
0.006115066
0.0001626096
-0.0005774463
-0.0009785177
-0.005590923
-0.005372547
-0.009488995
-0.01430063
-0.01148169
-0.01317705
-0.01510462
-0.01623420
-0.01151447
-0.006905559
-0.006642171
-0.0009419431
-0.0004623464
-0.0003430439
0.006464956
0.008789903
0.006703873
0.009055697
0.01445768
0.01705787
0.01460883
0.01193820
0.01342858
0.01224324
0.01129238
0.006733960
-0.001933372
0.0009575625
0.001158435
-0.006039804
-0.006235801
-0.004239970
-0.005817988
-0.005955557
-0.007081738
-0.01184122
-0.01279312
-0.01101886
-0.01485560
-0.02102462
-0.01385892
-0.01188822
-0.01877418
-0.01286743
-0.007127994
-0.005718235
-0.001181542
1.466705e-06
5.335972e-05
0.005061201
0.006406625
0.006098017
0.009334208
0.01488355
0.01416065
0.006290895
0.009491185
0.01228448
0.004098953
0.003176704
0.0009972826
-0.005576288
-0.005334256
-0.008258240
-0.01032467
-0.007345788
-0.005154559
-0.008416760
-0.01132514
-0.006021232
-0.004988017
-0.008480823
-0.002962802
0.002377033
0.001832443
0.004438896
0.002964532
0.004687184
0.01239834
0.01673995
0.01865041
0.01454894
0.01554429
0.01862400
0.008879526
0.002808386
0.001293620
-0.007610535
-0.008037409
-0.01117017
-0.01958436
-0.01640635
-0.01461892
-0.01333050
-0.01020610
-0.005940974
-0.002901654
-0.0005670398
0.004072552
0.004490508
0.005982949
0.01075948
0.01016434
0.004639793
0.005479928
0.007083197
0.003603761
0.003438518
0.004375682
0.001486491
0.001379657
0.002272433
-0.0008259991
-0.0002861059
0.007298233
0.009197048
0.001338356
0.002510488
0.004819284
-0.003375708
-0.006485299
-0.008761371
-0.01183100
-0.009392350
-0.008907986
-0.009519241
-0.008378590
-0.002426100
0.001744695
0.0004941493
0.003511637
0.008202329
0.01212494
0.01551767
0.01321473
0.009022219
0.009864518
0.007451353
-0.0008147873
-0.005706143
-0.006904409
-0.007953233
-0.01163684
-0.01383351
-0.01186131
-0.01038878
-0.003140184
0.0005627821
-0.0004513326
0.008964309
0.01291077
0.009732882
0.01128244
0.01386812
0.01512418
0.01278113
0.008003882
0.003600614
0.002287768
0.005710522
0.003485502
-0.003588495
-0.002753179
-0.001725995
-0.003013389
-0.0006569659
-0.003540599
-0.009261642
-0.006809726
-0.005451976
-0.009703115
-0.01136561
-0.008833999
-0.006205739
-0.007641579
-0.005168547
-0.003593706
-0.005258812
-0.0002063029
-0.002563066
-0.007477916
-0.001836963
-0.0003822317
-0.005855670
-0.005191224
-0.001282390
-0.0007804448
-0.001000311
-0.0004852649
-0.0008883059
-0.003767069
-7.913098e-05
-0.0003068226
-0.005212668
0.0006485926
0.0007624246
-0.006764839
-0.006301659
-0.002815424
-0.004207088
-0.006906660
-0.006392782
-0.0006543416
0.003334296
0.004331628
0.003939331
0.003145474
0.009267304
0.008207753
0.0009546240
0.004719356
0.008823096
0.008693653
0.009386471
0.007753109
0.005122944
0.008270902
0.01056598
0.006041402
0.003400078
0.006788440
0.008154589
0.002281287
0.005670575
0.005963679
-0.0002457419
-0.0001189039
-0.005787658
-0.01047772
-0.01144845
-0.01179937
-0.01471365
-0.01677470
-0.01465613
-0.01174802
-0.01090020
-0.008731202
-0.001610468
0.003118825
0.009158959
0.008912916
0.007305015
0.01550089
0.01638046
0.009501668
0.005406681
0.003424190
0.002485073
-0.0008962859
-0.005511872
-0.009562233
-0.01126711
-0.006785674
-0.005669081
-0.009739839
-0.005104873
0.0005567563
-0.002443527
-0.001628348
-0.001578038
-0.001937028
0.002736747
0.004436919
0.003025104
0.002205589
0.007690188
0.007806365
0.003870434
0.01116114
0.01544502
0.01056578
0.01004202
0.01069844
0.009523546
0.01204720
0.008573846
0.003079134
0.002845154
0.002712291
-0.001651497
-0.008039970
-0.005427865
-0.004678589
-0.007664016
-0.005498966
-0.005327924
-0.004082619
0.001836088
0.001503551
-0.002170222
0.001621005
0.002888273
-0.001516800
-0.006726388
-0.008762759
-0.007737251
-0.009066865
-0.009056864
-0.01260872
-0.01568871
-0.01006109
-0.008641799
-0.01335152
-0.01142667
-0.005341570
-0.004202129
-0.003341943
-0.001010098
0.001749122
0.005724149
0.01137729
0.01253503
0.007724860
0.01119823
0.01192073
0.005579276
0.006426455
0.003981272
0.001058777
0.004021953
0.0009982061
-0.003013870
0.0009248372
0.005391530
0.003916455
-0.0005357001
0.001192899
0.005150860
0.001844327
0.002761442
0.002806514
-0.0003042619
0.003649539
0.0002120271
-0.002968318
0.001568238
0.001891762
0.0007329418
-0.003007296
-0.003297057
0.0008388329
0.0003143276
0.001294988
-0.0001496081
