EVENT_NAME: 
EVENT_DATE_YYYYMMDD: 20201105
EVENT_TIME_HHMMSS: 032527
EVENT_LATITUDE_DEGREE: 38.6957
EVENT_LONGITUDE_DEGREE: 13.8490
EVENT_DEPTH:   4.90
MAGNITUDE_L: 3.6
MAGNITUDE_W:
FOCAL_MECHNISM:
NETWORK: IV
STATION_CODE: SCIAR
STATION_NAME: Sciara
STATION_LATITUDE_DEGREE: 37.9406
STATION_LONGITUDE_DEGREE: 13.7492
STATION_ELEVATION: 490
LOCATION:
VS30_M/S: '0' (0=missing)
SITE_CLASSIFICATION_EC8: B
MORPHOLOGICAL_CLASSIFICATION: T1
EPICENTRAL_DISTANCE_KM: 84.3737717
EARTHQUAKE_AZIMUTH_DEGREE: 185.951187
DATA_TIME_FIRST_SAMPLE_YYYYMMDD_HHMMSS: 20201105_032527.0
DATA_TIME_FIRST_SAMPLE_PRECISION: milliseconds
SAMPLING_INTERVAL_S: 0.01000000
NDATA: 30000
DURATION_S: 300
STREAM: HNE
UNITS: cm/s^2
INSTRUMENT: GAIA2-FS-40-VPP_____EPISENSOR-FBA
INSTRUMENT_ANALOG/DIGITAL: D
INSTRUMENTAL_FREQUENCY_HZ:
INSTRUMENTAL_DUMPING:
FULL_SCALE: '2' (999=missing)
N_BIT_DIGITAL_CONVERTER:
PGA_CM/S^2: 0.0732039
TIME_PGA:
BASELINE_CORRECTION: REMOVED
FILTER_TYPE: BUTTERWORTH
FILTER_ORDER: 4TH
LOW_CUT_FREQUENCY: 0.20
HIGH_CUT_FREQUENCY: 45
LATE/NORMAL TRIGGERED:
DATA_VERSION: ISMD_2.0
DATA_TYPE: AUTOMATIC_PROCESSED_ACCELERATION
DATA_TIMESTAMP_YYYYMMDD_HHMMSS:
UNUSED1:
UNUSED2:
USER1: MEAN_REMOVED
USER2:
USER3:
[...]
-0.009762195
-0.01841172
-0.02838498
-0.02965606
-0.02245609
-0.01660745
-0.007379134
-0.001850375
0.003520393
0.001189686
-0.0003977981
0.006326837
0.01004994
0.01396277
0.01675231
0.01441577
0.01381227
0.01174271
0.005549321
-0.001784143
-0.008724079
-0.009278760
-0.01126150
-0.01076284
-0.003243214
0.002717605
0.005109746
0.004631328
0.005705511
0.007755626
0.006331474
0.004304235
0.002321512
-0.001076237
-0.005354852
-0.01339945
-0.01388806
-0.007998935
-0.006836992
-0.007857469
-0.009194392
-0.01014856
-0.01411039
-0.008022685
0.004035972
0.0009050111
-0.001735601
-0.001757347
-0.0003514799
0.006578493
0.008685705
0.01133721
0.01476092
0.01654099
0.01106460
0.001554418
-0.007311350
-0.01282938
-0.006609998
0.002944897
0.007577801
0.007110068
0.005625625
0.004659934
-0.001247490
-0.006283512
-0.002096052
0.003538988
0.01026554
0.01264976
0.01207096
0.01179369
0.006957733
0.002615959
0.0008000807
-0.003638179
-0.01172890
-0.01223117
-0.01380802
-0.01915698
-0.02497942
-0.02577366
-0.01520553
-0.001006932
0.01246764
0.02205802
0.02564124
0.01596888
0.007784591
0.0007471623
-0.006942003
-0.004423124
0.001266181
0.004595366
-0.003165958
-0.005245111
-0.004270016
-0.008217752
-0.004362945
-0.002268422
0.001580833
0.005477723
0.007232171
0.007336405
0.003756298
0.006201818
0.007316062
0.008919750
0.01081115
0.009467076
0.004990534
-0.003780820
-0.01007353
-0.01808658
-0.02128399
-0.01812931
-0.01811621
-0.01289225
-0.003690451
-0.0005519320
0.005208515
0.01047422
0.009141963
0.007488623
0.005246916
-0.0001338088
-0.006175408
-0.008322489
-0.005195194
-0.002092996
-0.005554351
-0.006364145
-0.005369822
-0.007786959
-0.009558422
-0.005169596
0.007483365
0.01548589
0.01957042
0.02616355
0.03100482
0.03189283
0.02681248
0.01770705
0.006689015
-0.002068971
-0.01031791
-0.01656932
-0.01760232
-0.02055653
-0.02479247
-0.02463514
-0.02160135
-0.01634958
-0.005503417
0.002404888
0.01537294
0.02703889
0.02436734
0.02060169
0.01764418
0.01522524
0.01298931
0.01338209
0.01479323
0.01347522
0.008445944
-0.005727541
-0.02599278
-0.03580394
-0.03270508
-0.02661129
-0.02815556
-0.02996221
-0.02347955
-0.02133042
-0.01425319
-0.005676041
-0.001204283
0.008090497
0.01961768
0.02874715
0.03322630
0.03356393
0.02743753
0.01413504
0.001619039
-0.005509897
-0.01402403
-0.02129889
-0.02633328
-0.02673153
-0.01997778
-0.009082023
0.001351924
0.01227634
0.02118654
0.01950103
0.01620572
0.01632248
0.01849317
0.01898560
0.01772763
0.01537146
0.01168039
0.005525678
-0.0009399689
-0.005509265
-0.008972683
-0.007704536
-0.01026424
-0.01042544
-0.001945196
0.003076210
0.002946678
-0.0005640289
-0.008073833
-0.01510140
-0.01941224
-0.02122693
-0.01888808
-0.01427920
-0.01210843
-0.007360953
-0.002156331
-0.002716853
0.003548092
0.01179739
0.01274684
0.006957954
-0.002063572
-0.005958410
-0.006313620
-0.006368639
-0.005919878
-0.004252015
-0.003375925
-0.0008618982
0.007568919
0.01282731
0.01505481
0.01785432
0.01745232
0.01769977
0.01474452
0.01296508
0.01322686
0.01416456
0.01299165
0.004371600
-0.005208874
-0.01646470
-0.02328272
-0.02337611
-0.01727519
-0.007266392
-0.0003357326
0.001670622
-0.0005500132
-0.001848078
-0.006387264
-0.01223390
-0.01031710
-0.009264050
-0.007046517
-0.002850969
-0.005084083
-0.006637638
-0.005080075
-0.007228640
-0.01045739
-0.003358588
0.007451746
0.01211480
0.008485600
0.005780591
0.006114093
0.004362086
0.004478747
0.005615772
0.01544894
0.02483598
0.02648758
0.02408993
0.01598988
0.006866956
-0.0004851246
-0.007489668
-0.01173142
-0.01115644
-0.01341851
-0.01409982
-0.01735788
-0.02232476
-0.02187974
-0.01941586
-0.01256541
-0.002297211
0.01122006
0.02404338
0.02889916
0.01783858
0.006153223
-0.0002642095
-0.002894536
0.003232242
0.01036780
0.01405864
0.01098731
0.005735168
-0.005399215
-0.01086594
-0.009079908
-0.008763586
-0.005837516
-0.003022847
0.0003321572
0.001965181
0.004759033
0.003410642
0.003340558
0.004212124
-0.003421189
-0.008927883
-0.01464131
-0.01825871
-0.02152248
-0.02698975
-0.02241477
-0.01366235
-0.004858335
0.007428489
0.01894486
0.02383865
0.02466552
0.01875871
0.008816492
0.0003755214
-0.01059876
-0.01130794
-0.007383334
-0.002659907
0.004562221
0.007797646
0.01286521
0.01409317
0.01159688
0.007231279
-0.001168680
-0.007444893
-0.01017476
-0.01030146
-0.006053100
-0.007263305
-0.01377740
-0.01385140
-0.01033819
-0.005106073
0.001473135
0.005856676
0.008263448
0.008128007
0.006901464
0.01107936
0.01702142
0.02029974
0.02120206
0.02515492
0.02510134
0.01247633
0.003235462
-0.002802905
-0.01201155
-0.02123477
-0.02724029
-0.02907452
-0.02470922
-0.01599341
-0.007584577
-0.0003386599
0.0004041985
-0.002360478
-0.01038682
-0.01276028
-0.004324472
0.002636525
0.01213991
0.02041345
0.02526297
0.02441447
0.01565716
0.01001637
0.009173751
0.007758420
0.006769043
0.001739789
-0.006239139
-0.01079078
-0.01524568
-0.01360756
-0.008068332
-0.003653694
0.0004026620
-0.002810564
-0.008824626
-0.01573853
-0.02114246
-0.02055621
-0.01758930
-0.01442383
-0.008158701
0.002055737
0.008370316
0.01143452
0.01112705
0.01024225
0.008901101
0.005892289
0.008304522
0.01330582
0.01901129
0.02158588
0.01823152
0.006768817
-0.004056505
-0.007699382
-0.01239332
-0.008048349
-0.004264642
-0.008097316
-0.004783853
-0.002647766
-0.0002180088
0.002749116
0.003414715
0.005070197
0.005728109
0.003119354
-0.0004899623
-0.0002512264
-0.005301808
-0.01158723
-0.01427095
-0.01132625
-0.003620173
0.002945454
0.01050569
0.01404078
0.007543674
-0.002671363
-0.006564147
-0.005132209
-0.006239969
-0.01267799
-0.01204880
-0.006902264
-0.005034234
-0.006426221
-0.006157581
0.002219404
0.01227259
0.02155690
0.02967948
0.03661145
0.03735134
0.03331991
0.02380628
0.006628493
-0.01119903
-0.02885680
-0.03865780
-0.03944690
-0.03554692
-0.02353643
-0.01342104
-0.004224336
0.007535111
0.01215882
0.01584888
0.01065163
0.001782177
-0.0005081673
-0.0005196735
0.003735416
0.0004610248
-0.006850418
-0.01050534
-0.01331626
-0.01590763
-0.01538052
-0.007307621
0.005331762
0.01187672
0.007031403
0.001450645
0.0006271748
-0.0005754009
0.0001662053
0.002380975
0.006233956
0.008813133
0.005054207
0.005366057
0.01157654
0.01664379
0.01679260
0.01612501
0.01761000
0.01873901
0.01780207
0.01448672
0.009282060
0.003346860
-0.007613015
-0.02188735
-0.03219916
-0.03727247
-0.03513597
-0.02724044
-0.009868351
0.004799571
0.01391627
0.01594082
0.01020242
0.005705746
0.001940229
5.150444e-05
-0.005309906
-0.005678521
-0.006532767
-0.01001028
-0.01345176
-0.01743628
-0.01940655
-0.01807842
-0.01090574
-0.007330406
-0.002565332
0.001729872
0.006485074
0.01417961
0.01740316
0.01979660
0.02050359
0.02105766
0.02205756
0.01698538
0.008999220
0.0007288886
-0.005920348
-0.007417124
-0.005891490
-0.004944805
-0.007441195
-0.01055851
-0.007759816
-0.0005670840
0.006233333
0.01164589
0.009275892
0.002995277
0.0001648489
-0.003189744
-0.001745334
0.003397363
0.004430092
0.001607392
-0.007833823
-0.01480106
-0.01542264
-0.01534602
-0.01328526
-0.006615574
0.002659251
0.004506008
0.004675087
0.007137341
0.01077959
0.01506527
0.01374531
0.01180029
0.008898338
0.001050639
-0.004038377
-0.008147700
-0.007022793
-0.004488383
-0.004535518
-0.0003174750
-0.007893570
-0.01557114
-0.01763165
-0.01487266
-0.007381550
-0.002129580
0.007096318
0.01227696
0.02021543
0.02309411
0.01628001
0.01269331
0.01169514
0.01262360
0.01111503
0.009168546
0.002090025
-0.008631597
-0.01250041
-0.01527818
-0.01829861
-0.01853999
-0.01409243
-0.008409082
-0.007398621
-0.008857306
-0.009770851
-0.005229570
-0.001866220
-0.004423398
-0.002648553
-0.004593858
-0.009040590
-0.008759854
-0.007743895
0.0009216785
0.01026097
0.01849260
0.02572078
0.02391256
0.01594265
0.005310165
-0.001610339
-0.005194436
-0.006084474
-0.001010470
0.002489614
0.004766854
0.005756009
0.0005440474
-0.005276348
-0.009016935
-0.01191193
-0.007389082
-0.0001002332
0.002255737
0.007773911
0.009291248
0.005443903
0.002573413
0.0009309010
-0.0006891409
-0.006123781
-0.01043759
-0.01043251
-0.007347615
-0.005753009
-0.007330730
-0.01170910
-0.01383687
-0.01143384
-0.009136061
-0.003027337
0.004591284
0.009113027
0.01677889
0.02279706
0.02428061
0.02093988
0.008946147
-0.001088354
-0.01020906
-0.01403232
-0.01500796
-0.01552542
-0.008744897
-0.009106786
-0.01319984
-0.01531758
-0.01441814
-0.01443903
-0.009366230
-0.001682682
0.007415907
0.02405958
0.03047949
0.03573883
0.03647362
0.02918341
0.02243453
0.01704142
0.01215368
0.004846003
0.005692644
0.01096642
0.01051123
0.008004636
0.005712130
-4.635626e-06
-0.005570099
-0.007131672
-0.006521972
-0.005568117
-0.001827147
0.0003366121
-0.003989476
-0.005277918
7.145856e-05
0.01092473
0.02379686
0.02615679
0.01824457
0.002416200
-0.01664291
-0.02843005
-0.03321521
-0.02926693
-0.02055278
-0.01072843
-0.002613791
1.459128e-05
0.002869862
0.002640157
-0.001007230
0.001557305
0.001627479
-0.0007694116
-0.006286561
-0.01007054
-0.001858296
0.0003505356
0.007466143
0.01529878
0.01122370
0.009712514
0.003993690
-0.006722105
-0.01356015
-0.02094686
-0.02554470
-0.02418597
-0.02765878
-0.03105767
-0.02954623
-0.01917361
-0.005566899
0.004205928
0.01755764
0.02125248
0.01798879
0.01740814
0.01494353
0.01394958
0.01431255
0.01866967
0.02017353
0.02153617
0.02326774
0.01432969
0.006847614
-0.005145026
-0.01825111
-0.02427857
-0.03315980
-0.04296774
-0.05164079
-0.05496221
-0.05592021
-0.04253111
-0.02501632
-0.01207366
0.01102878
0.02815154
0.03667684
0.03890336
0.03906692
0.03835817
0.03057626
0.01973111
0.01240369
0.006753838
0.002894442
0.006970787
0.01290197
0.01946830
0.02342613
0.02145148
0.01736039
0.01569740
0.01187407
0.007155306
0.003293188
-0.004255367
-0.009254517
-0.01575213
-0.01955720
-0.01854012
-0.01866192
-0.01971194
-0.02345429
-0.02485291
-0.02614159
-0.02058989
-0.01074990
-0.0001751406
0.01536343
0.02505874
0.03011888
0.02892944
0.01945386
0.01054232
0.01015351
0.005142436
-0.005319001
-0.01241428
-0.01991200
-0.02645344
-0.03148833
-0.03321469
-0.02572581
-0.01489365
-0.009541666
-0.001979769
0.0005151324
-0.001054666
-0.001390591
0.0002477384
0.005097516
0.009021028
0.01442724
0.02149037
0.02412005
0.01985959
0.01831239
0.02063827
0.01881366
0.01728966
0.01972202
0.01382342
0.001409949
-0.01091764
-0.02028077
-0.02539347
-0.02732386
-0.02488181
-0.01788278
-0.009974604
-0.003528427
0.003779098
0.005731512
0.009521816
0.01587173
0.02306240
0.02699836
0.02246553
0.01645730
0.003296327
-0.008562032
-0.02130470
-0.03258155
-0.03592003
-0.03547664
-0.02641059
-0.01949013
-0.009300144
0.002973389
0.007186164
0.008651375
0.003655811
0.0006663266
-0.003629835
-0.009547716
-0.007371723
-0.007451151
-0.009388063
-0.01423072
-0.01409828
-0.007042286
0.003952755
0.01952934
0.03250453
0.04092425
0.04002765
0.03160038
0.01717543
0.006185552
-0.0004636993
-0.005778479
-0.001587472
0.006880054
0.01069375
0.01392810
0.01426127
0.01063947
0.01136774
0.01504084
0.01637505
0.009358003
0.002778552
-0.0004494250
-0.006109457
-0.01400059
-0.01937953
-0.02096214
-0.02336546
-0.02067088
-0.01277721
-0.002860087
0.001199517
-0.001247717
-0.002883724
-0.004980853
-0.003486361
-0.002828580
0.0002832061
0.01338559
0.02144816
0.02092557
0.01609181
0.007259547
-0.002646752
-0.01142717
-0.01822535
-0.02828975
-0.03874898
-0.04642290
-0.05023388
-0.04489655
-0.03274919
-0.01778491
-0.0009396597
0.01712976
0.03147898
0.04176052
0.04864160
0.04765210
0.04214935
0.03356181
0.02382171
0.009818581
-0.001408177
-0.004783238
-0.01244665
-0.01080853
-0.007703386
-0.006827505
0.001471402
0.004810702
0.005820145
0.003201214
-0.001237512
-0.005050680
-0.008230833
-0.003677531
0.008187423
0.01481570
0.01650588
0.01806627
0.01602107
0.01455516
0.01076245
0.007696634
0.006696785
-0.0006950561
-0.01203920
-0.02495883
-0.03580112
-0.03856508
-0.03874477
-0.03372325
-0.02549906
-0.02297617
-0.02062942
-0.01570237
-0.007931810
0.004639760
0.01601632
0.02369349
0.03254018
0.03707141
0.03321693
0.02765417
0.01959315
0.006021671
-0.005497629
-0.02034427
-0.03026015
-0.02919966
-0.02646330
-0.01638085
-0.01347921
-0.01310634
-0.007083807
-0.002073131
0.007814552
0.01883301
0.02811475
0.03777143
0.04726226
0.04663565
0.03905696
0.02864800
0.01713227
0.008831379
0.001994210
-0.005591245
-0.01481439
-0.01894961
-0.02645028
-0.03907140
-0.04967630
-0.05667637
-0.05918610
-0.05714884
-0.04964765
-0.03989546
-0.02822024
-0.01520243
0.003844168
0.02350588
0.03744512
0.05135550
0.05196662
0.04244534
0.03628341
0.02784400
0.02162586
0.01784648
0.01449579
0.01219374
0.009857290
0.007805233
-0.001973578
-0.01434102
-0.01877729
-0.01875652
-0.01807953
-0.01604085
-0.01204068
-0.008695130
-0.005958839
-0.008551279
-0.01202738
-0.01024924
-0.008181673
-0.005633435
-0.003169967
0.004355290
0.01238752
0.01716875
0.02141864
0.02151736
0.02645068
0.03206729
0.03209811
0.02895249
0.02020598
0.01221328
0.0001252903
-0.01320654
-0.02026851
-0.02245294
-0.01721746
-0.007457787
0.005549009
0.009032395
0.006827672
0.007480572
0.002711339
-0.003925887
-0.01243745
-0.01990446
-0.02984719
-0.03459787
-0.03101719
-0.02445038
-0.01052187
0.002345260
0.01452639
0.02117518
0.02505839
0.02962868
0.03375771
0.04120112
0.04679633
0.04657465
0.04264381
0.03174432
0.009097472
-0.01073084
-0.03013894
-0.05285633
-0.06655367
-0.07320388
-0.06957870
-0.05957132
-0.04521159
-0.02932435
-0.02067738
-0.01511656
-0.01596617
-0.01507913
-0.01668105
-0.02090607
-0.01862760
-0.01433548
-0.008934024
0.002082830
0.01868748
0.03327428
0.05056680
0.05927720
0.05984769
0.05433061
0.03765409
0.02136231
0.005741882
-0.003454004
-0.003741577
-0.005829547
0.0008062255
0.01054269
0.009600814
0.01087968
0.007608669
0.002633909
0.0002335033
-0.005587908
-0.01086331
-0.01166732
-0.008498269
-0.008159905
-0.01041050
-0.01471357
-0.01754607
-0.01883580
-0.01653493
-0.008632284
-0.0008782382
0.01031471
0.02412776
0.03329901
0.04229464
0.04754796
0.04453554
0.03255380
0.01021114
-0.008832492
-0.02421190
-0.03643630
-0.04275483
-0.04877659
-0.04973777
-0.04367954
-0.03458108
-0.02735627
-0.02411058
-0.01818684
-0.01364881
-0.01465089
-0.01778619
-0.01711377
-0.01091290
-0.005358489
0.005446967
0.01500551
0.01440527
0.01100538
0.01124060
0.008851115
0.01181150
0.02141509
0.02191370
0.02977727
0.04123779
0.04256484
0.03967381
0.03163416
0.02753326
0.02631783
0.02033953
0.01265694
0.0005909032
-0.01028072
-0.02014170
-0.02510144
-0.02306105
-0.02287087
-0.01806892
-0.01139929
-0.007064915
-0.007158386
-0.01254949
-0.01696043
-0.01366838
-0.009909063
-0.008297097
-0.006180905
-0.005569051
0.0002192492
0.003522895
0.008647108
0.009395390
0.006497296
0.005052653
-0.0004870868
-0.002811922
-0.007097730
-0.007930813
-0.01205986
-0.01413302
-0.008687664
-0.002250058
0.005341792
0.01109008
0.01732307
0.01773198
0.01760571
0.01832838
0.01641782
0.01637014
0.01933172
0.02278537
0.03069628
0.03979350
0.04016255
0.03783342
0.03150577
0.01936698
0.006335266
-0.007231239
-0.01849112
-0.02824106
-0.03302158
-0.03364756
-0.03575115
-0.03493742
-0.02857092
-0.02493463
-0.02802336
-0.03165943
-0.03632065
-0.03453839
-0.02505127
-0.009328682
0.008050819
0.02299885
0.03750901
0.04303905
0.03842346
0.02740294
0.01515314
-0.0008267920
-0.009884053
-0.01070659
-0.01063181
-0.007103333
-0.005255858
-0.002751188
-0.002495775
-0.002972346
-0.002305710
0.0009069522
0.004727925
0.007884781
0.01212494
0.01509027
0.01277353
0.001276369
-0.004204291
-0.01109534
-0.01957784
-0.01875095
-0.02351472
-0.02474291
-0.01909872
-0.02105781
-0.01904072
-0.01173864
-0.01281953
-0.01416898
-0.01198262
-0.009996554
-0.007750239
-0.001435546
0.008005567
0.01802181
0.02816726
0.03337122
0.03654058
0.03900707
0.03559789
0.02621530
0.02097297
0.02182168
0.02598520
0.03397767
0.03812638
0.03557063
0.02966534
0.02284260
0.01090318
0.0001328467
-0.009057333
-0.02080021
-0.02452120
-0.02784658
-0.02771634
-0.02652712
-0.02781539
-0.02262624
-0.01993585
-0.01797180
-0.01590500
-0.01261869
-0.008797350
-0.008192813
-0.007907740
-0.008788730
-0.008539204
-0.01035090
-0.01694816
-0.02313825
-0.02660606
-0.02532990
-0.02253198
-0.02194036
-0.01841455
-0.01204875
-0.002110117
0.004698020
0.007614742
0.01279097
0.01380488
0.01257955
0.009295125
0.004965054
0.002233222
0.004556288
0.007322626
0.008169802
0.01248312
0.01636120
0.02335982
0.02820327
0.02992929
0.03285904
0.03243160
0.03348688
0.03055786
0.01881871
0.008466194
4.318815e-05
-0.01326247
-0.02656884
-0.03026065
-0.03453815
-0.03818666
-0.03593763
-0.03558324
-0.03350459
-0.02652654
-0.01850943
-0.009151325
0.005951910
0.01652712
0.02489023
0.03312230
0.03664207
0.03699813
0.03396255
0.03163338
0.02835490
0.02265099
0.01296138
0.005052771
0.0002790770
-0.005930347
-0.01431842
-0.01781662
-0.01988043
-0.02101995
-0.02408726
-0.03499599
-0.03992089
-0.04390094
-0.04370619
-0.03986007
-0.03213571
-0.01525770
-0.0006463808
0.006906731
0.01300445
0.02011504
0.02467523
0.02347965
0.02060533
0.02702177
0.02820067
0.02633982
0.02606728
0.01941073
0.01495281
0.01085002
0.002659301
-0.004009557
-0.006131213
-0.008668533
-0.007662766
-0.004356962
-0.002917778
-0.0006873166
0.003080441
0.008282857
0.01250312
0.01569914
0.01849404
0.01750536
0.01512329
0.01310363
0.006097235
-0.007147364
-0.01639143
-0.01921545
-0.02588921
-0.02431549
-0.01613052
-0.01039263
-0.004761040
8.840750e-06
0.006413468
0.008411337
0.01178544
0.01454281
0.01345701
0.01132916
0.007289661
0.006003774
0.002911595
-0.0001847757
-0.004633138
-0.009163812
-0.008415463
-0.005409975
-0.004650934
-0.01139767
-0.01888770
-0.02555610
-0.03090534
-0.03504501
-0.03608909
-0.02982394
-0.02171564
-0.01640364
-0.01461406
-0.01004531
-0.006368418
-0.002363948
0.003087211
0.007186362
0.01070546
0.01262574
0.01652840
0.02328250
0.02929764
0.02947978
0.02751179
0.02685709
0.02424590
0.01200722
0.001703779
-0.0003551913
-0.001251276
0.0004702282
0.001916392
0.003596504
0.001539815
0.001206448
-0.002320792
-0.008048457
-0.007974748
-0.007150724
0.0005658222
0.002937796
0.002990108
-0.0001097887
-0.006791783
-0.003337842
-0.002414469
0.002342963
0.01024604
0.01245850
0.01540331
0.01789919
0.01931212
0.01524387
0.005114362
-0.0007763163
-0.008494269
-0.01711246
-0.02266900
-0.02887598
-0.02610691
-0.01926898
-0.009794488
-6.262495e-05
0.008094031
0.01574191
0.01562860
0.01323508
0.01155178
0.008921929
0.002121248
-0.003146042
-0.007317596
-0.01586964
-0.01918951
-0.01992385
-0.02011465
-0.01681330
-0.01731292
-0.01743402
-0.01449626
-0.01622726
-0.01630530
-0.01442750
-0.01437614
-0.009792964
0.0002969441
0.01140107
0.01929841
0.02390370
0.02610257
0.02335254
0.01602779
0.01287570
0.01245863
0.01176756
0.01419841
0.01624930
0.01751710
0.02258798
0.02210381
0.01951881
0.02181348
0.01940629
0.01796152
0.01694650
0.01486573
0.005664300
-0.004710210
-0.009957931
-0.01471518
-0.01826343
-0.02396352
-0.02294303
-0.01937438
-0.02029019
-0.02022176
-0.01626193
-0.01900922
-0.01775738
-0.01469049
-0.01716110
-0.009880544
-0.004938790
0.001681089
0.004954863
