EVENT_NAME: 
EVENT_DATE_YYYYMMDD: 20201105
EVENT_TIME_HHMMSS: 032527
EVENT_LATITUDE_DEGREE: 38.6957
EVENT_LONGITUDE_DEGREE: 13.8490
EVENT_DEPTH:   4.90
MAGNITUDE_L: 3.6
MAGNITUDE_W:
FOCAL_MECHNISM:
NETWORK: MN
STATION_CODE: CEL
STATION_NAME: Celeste
STATION_LATITUDE_DEGREE: 38.2603
STATION_LONGITUDE_DEGREE: 15.8939
STATION_ELEVATION: 702
LOCATION:
VS30_M/S: '0' (0=missing)
SITE_CLASSIFICATION_EC8: B
MORPHOLOGICAL_CLASSIFICATION: T2
EPICENTRAL_DISTANCE_KM: 184.380646
EARTHQUAKE_AZIMUTH_DEGREE: 104.577599
DATA_TIME_FIRST_SAMPLE_YYYYMMDD_HHMMSS: 20201105_032527.8
DATA_TIME_FIRST_SAMPLE_PRECISION: milliseconds
SAMPLING_INTERVAL_S: 0.01000000
NDATA: 30000
DURATION_S: 300
STREAM: HNE
UNITS: cm/s^2
INSTRUMENT: Q330_____EPISENSOR-FBA
INSTRUMENT_ANALOG/DIGITAL: D
INSTRUMENTAL_FREQUENCY_HZ:
INSTRUMENTAL_DUMPING:
FULL_SCALE: '2' (999=missing)
N_BIT_DIGITAL_CONVERTER:
PGA_CM/S^2: 0.00879072
TIME_PGA:
BASELINE_CORRECTION: REMOVED
FILTER_TYPE: BUTTERWORTH
FILTER_ORDER: 4TH
LOW_CUT_FREQUENCY: 0.20
HIGH_CUT_FREQUENCY: 45
LATE/NORMAL TRIGGERED:
DATA_VERSION: ISMD_2.0
DATA_TYPE: AUTOMATIC_PROCESSED_ACCELERATION
DATA_TIMESTAMP_YYYYMMDD_HHMMSS:
UNUSED1:
UNUSED2:
USER1: MEAN_REMOVED
USER2:
USER3:
[...]
-0.0001783350
-0.0004390981
-0.0003767255
0.0004687248
0.001046302
0.001394528
0.001281375
0.001169178
0.0005660898
1.864259e-05
-0.0003858964
-0.001370537
-0.001327328
-0.0009004047
-0.0006243887
0.0002675274
0.001015791
0.0004974490
0.0003196250
0.0004970209
-0.0001538242
0.0002792860
5.891599e-05
-0.0003999554
0.0002789396
-0.0001624073
-0.0001801765
5.687577e-05
-0.0001617532
-0.0004271424
-0.0006153442
-0.0002002654
-0.0008472700
-0.001833476
-0.001084851
-0.0004238547
-0.001095141
-0.0004065103
0.0005235754
-0.0001571789
-0.0006535667
0.0003125248
0.001692134
0.001230916
0.001251541
0.001202005
0.0003416416
0.0004870896
0.0008102412
0.001203058
0.0003154430
-0.0001610906
-0.0004279563
-0.0008225656
1.026796e-05
0.0003643636
0.0004739893
-0.0001096737
-0.0006789237
-0.001298820
-0.001592744
-0.0003797323
0.0002893345
0.001016950
0.001465368
0.001006409
0.001717524
0.001685252
0.001039691
0.0007333423
-0.0008233952
-0.002068312
-0.002004280
-0.001112696
-0.0008610014
-0.0008485178
-0.0008900006
-0.001056945
-0.001140030
-0.001518911
-0.0004306562
0.0003338451
0.0007624789
0.001480450
0.001014334
0.0007682888
0.0003193317
-0.0008718334
-0.001548015
-0.001340569
-0.001546528
-0.002044305
-0.0008384556
0.0005201698
0.001038193
0.001455133
0.001032527
0.001233048
0.001253678
0.0003076763
0.0003162409
0.0003034227
0.001260587
0.002166934
0.0007934388
0.0005390880
0.0007806889
8.330294e-05
0.0003072416
-0.0001489913
-0.001095290
-0.001315038
-0.001336786
-0.0003654945
-0.0004189797
-0.0005830856
-0.0001914518
-0.0008257065
6.971114e-05
-0.0003992621
-0.001052991
-0.0006715020
-0.001498671
-0.0009048418
-0.001051558
-0.0008695492
-0.0001564554
-0.0003642744
0.0002825328
0.0005902212
0.0005065401
0.001060102
0.001215118
0.0005744870
0.001246077
0.001001973
0.0001200790
0.0007305577
0.0006171976
8.360411e-06
0.0003975102
0.0004708345
0.0003907784
0.0009623592
-0.0003526539
-0.0001496096
0.0002879392
-0.0005648294
0.0002551148
0.0001466554
0.0002670630
-0.0001148337
-0.0001638441
8.316885e-05
-0.0003708242
0.0007738899
0.0005589466
-0.0001434422
-0.0006324954
-0.001057968
-0.0004113745
-0.0005876361
-0.0004038529
-0.0008343747
-0.001326369
-0.0006055621
-0.0008647215
-0.0005879262
-0.0004215761
0.0001397029
0.0007279007
-8.747741e-05
0.0005046873
0.0003548320
7.126019e-05
0.0005545373
0.0005668701
0.001005200
0.0008058741
0.001011496
0.0007924078
0.0003261920
0.0005459760
0.0005658949
0.0005496998
0.0003182681
0.001042029
0.001221169
0.001545125
0.001658386
0.0008617410
0.0009578780
-0.0003285882
-0.0006402114
-0.001310659
-0.002466987
-0.002274587
-0.003862058
-0.003663976
-0.002486320
-0.002462514
-0.001815791
-0.001031505
-0.0006706218
-0.0003113065
1.977712e-05
0.0003911982
0.001667910
0.001303688
0.001462996
0.003148634
0.002414227
0.001505900
0.001246111
0.0005707662
7.898996e-05
-0.0006025335
-0.0003825158
0.0005617449
0.0007881831
0.001031759
0.0003163858
-0.0003695985
0.0003230881
-0.0006198508
-0.001290376
-0.0008762220
-0.0008066224
5.342976e-05
-0.0001096525
-0.0004027256
0.0001111860
7.613802e-05
-0.0003641004
-0.001089028
-0.001299171
-0.0008579987
-0.0001249420
0.0003051664
0.0003484380
0.0007683629
0.001287258
0.0009995807
0.0005866001
0.0005354011
0.0003440167
0.0005503586
0.0005581146
-0.0001278148
-0.0008700669
-0.001503314
-0.002068258
-0.001472677
-0.001395074
-0.001452546
0.0002364349
0.0006399010
0.001197944
0.002476768
0.002636764
0.002207886
0.001500816
0.0007749489
0.0003580549
-0.0001806359
-0.0007980407
-0.0006510806
-0.0003379731
6.841762e-05
0.0005701761
0.001273417
0.0002940880
-0.0003208026
-0.0002066311
-0.001240304
-0.0009009192
-0.0008018192
0.0003148891
0.0007796694
0.0003678350
0.0005066765
-0.001016983
-0.0008906807
-0.0008073974
-0.001089502
-0.0006104413
-0.0005888622
-0.0004018178
-0.0003390643
-0.0004071528
-0.0008122744
-0.0006242697
-0.0006039579
-0.0005931037
-0.0006361320
-0.0003304363
4.558845e-05
-9.123866e-05
0.001227621
0.001047756
0.0005671633
0.0007715644
0.0003695604
0.0007468614
0.0006153597
0.0007465308
0.001542503
0.001930420
0.001522399
0.001486858
0.001030513
-0.0001304825
-0.0003823628
-0.001299669
-0.001777093
-0.001077084
-0.0005963178
-0.0001524835
0.0001151359
7.181842e-05
-0.0003429698
-0.0008733947
-0.001033408
-0.001118820
-0.0005541572
-0.0001920964
-0.0003184057
0.0007507324
0.001301898
0.001474133
0.001513121
0.001259005
0.001268410
0.0003248604
0.0003410841
0.0007799100
0.0001194754
-0.0006317925
-0.001045606
-0.001097439
-0.001521480
-0.001550995
-0.002006467
-0.002703773
-0.002017697
-0.001061628
-0.0001472361
0.0005711186
0.001028191
0.001264447
0.001971245
0.002195120
0.001734066
0.002209967
0.0007723623
-0.001031306
-0.001595543
-0.001945934
-0.001836704
-0.002188518
-0.001110290
-0.0003551959
0.0005683565
0.001711440
0.0008270186
0.001467595
0.001994559
0.001239227
0.001989764
0.001944646
0.001046087
0.001260591
0.0003165612
-0.0001080467
0.0002827633
0.0001516390
0.0002691449
-0.001018559
-0.001588185
-0.001039215
-0.001098119
-0.001529068
-0.002013708
-0.002246968
-0.002469989
-0.002487261
-0.002469186
-0.002249776
-0.002009602
-0.001070893
8.484556e-05
0.0005715184
0.001720727
0.001970779
0.001255841
0.001503854
0.0005487985
0.0001051523
0.001253826
8.819505e-05
-0.0001224764
0.0007610983
0.0008324767
0.001924335
0.001757196
0.001712576
0.001962722
0.001738958
0.001708520
0.0008134041
-0.0001614105
-0.001303076
-0.001543902
-0.001796525
-0.001987055
-0.0001791635
0.0003635777
-0.001125315
-0.001028997
-0.0008999367
-0.001965426
-0.001354101
-0.0005882944
-0.0003865992
-0.0001572434
-0.0001166609
4.133184e-05
0.001083254
0.001887276
0.001329070
0.001187283
0.0006115292
4.401721e-05
-0.0005905621
-0.001325091
-0.001557803
-0.001299966
-0.001340213
-0.002000154
-0.0001570606
0.0005443990
0.0001054377
0.001458710
0.001748227
0.002166444
0.001965772
0.0005479197
-0.0003905436
-0.0001397767
-0.0001639821
-0.001080723
-0.0006112425
-0.0006494032
0.0001354076
0.0007066323
0.0004053007
0.001155729
0.0001658316
-0.0002208501
-0.0008117181
-0.0008757510
0.0003153747
0.0003201940
0.001240794
0.001247654
0.001025006
0.0009907590
0.0003429803
-0.0001913350
-0.0008248810
5.281105e-05
8.872107e-05
-0.0001562587
0.0003004460
8.877750e-05
0.0005348449
7.485287e-05
0.0005555155
0.001222640
0.0003323938
0.0002911108
-0.001325037
-0.001549987
-0.0004189431
-0.001066518
-0.0004182153
-0.0008503819
-0.001328551
-0.0001742860
9.177304e-05
0.0005167451
0.0003285857
-0.0004201040
-0.0001380482
-0.0001895396
-0.0001374138
4.772472e-05
-0.001085822
-0.001334884
-0.001345549
-0.001545448
-0.0006621613
-0.0006018301
-0.0006649358
9.724790e-05
0.0005074993
0.0007911917
0.001219313
0.001008412
0.001238305
0.0007540637
-0.0001513514
0.0007509413
0.0003058712
-0.0001680061
0.0005225895
7.525947e-05
0.0005192090
0.001008716
0.0002846206
7.661512e-05
-0.0001911434
8.462163e-05
0.0005037775
8.280065e-05
0.0002795164
6.338337e-05
-0.0003986368
-0.0006643822
-0.0006091571
0.0002507354
0.0001052643
-0.0006947256
-0.0001222140
0.0004705667
0.0003401582
0.001653082
0.002188306
0.001675379
0.001467890
0.0005149659
-0.0004028334
-0.001600110
-0.002490461
-0.003259505
-0.003403649
-0.002811358
-0.001990579
-0.0009407837
-0.001305133
-0.0006798772
0.0005293802
0.0002910496
2.645619e-05
0.0003222662
0.0002309584
0.0003437999
0.0006857808
0.0008082252
0.001172791
0.0005341242
0.001696352
0.001169234
-0.0001159608
0.001132234
0.0001211044
0.0004580571
6.929115e-05
-0.0006522646
0.0007164445
0.0005542276
0.0009292319
0.001494000
0.0004672806
-0.001329851
-0.001610343
-0.002066188
-0.002746508
-0.002092723
-0.001330280
-0.0006905148
-0.001112711
3.893055e-05
0.0009554572
0.001005483
0.001870908
0.001239206
0.001186944
0.0009718274
0.001226925
0.001165133
0.0003203175
0.001153535
0.0005433061
0.0007123881
0.0007417263
-0.0001925920
0.0009567499
0.0007447808
0.0004968568
0.0009661050
0.0002713181
0.0002606269
0.0005035892
2.920700e-05
-0.0004364088
-0.0009008237
-0.001380802
-0.001357125
-0.001396220
-0.001341308
-0.001178927
-0.001094534
-0.0002541187
0.0005484366
0.0004416720
0.0005511428
0.0004416695
-0.0006256006
-0.0004796287
-0.0006447692
-0.001398903
-0.0004204494
-0.0002296078
-0.0001836783
0.0007031657
0.0002801887
0.0002429452
0.0009722665
0.0009503264
0.0009687188
0.001184272
0.0005019755
-0.0004574230
-0.0006580158
-0.0007070604
0.0002969236
0.0006744824
0.0003118918
0.0009039702
0.0005347704
0.0002257319
-0.0004337032
-0.0009074257
-0.001168963
-0.001818817
-0.001413357
-0.001122994
0.0009433221
0.001890135
0.0007315366
0.001645941
0.001195580
0.0002527509
0.0007192777
-0.0002134390
-0.001146985
-0.001390380
-0.001374048
-0.001160913
-0.001608662
-0.001156518
-0.0004453346
1.425074e-05
0.0009628116
0.001167707
0.001921917
0.001840149
0.0007794647
0.001119151
0.001490722
0.001584802
0.001485409
0.0008938462
6.657429e-05
-0.0002551973
-0.0006581009
-0.0004664563
-0.0002081715
-0.001394335
-0.001139735
-0.001171913
-0.001596770
-0.0002396150
-0.0009028894
-0.001629812
-0.0006790136
-0.0009275252
-0.0009046145
-0.0004745470
4.747297e-05
0.0004449311
0.0002924038
0.0002066436
-0.0004127853
-0.0007177684
-0.0008966189
-0.001166813
-0.0004482079
0.0009569146
0.001169489
0.0009724150
0.001161848
0.0005009919
0.0007096967
0.001178230
0.001205929
0.001148932
0.001232924
0.0008939423
0.001009772
0.001835190
0.0005152121
1.118698e-05
-0.001880815
-0.002972286
-0.001450057
-0.002732954
-0.001188872
-0.0002095386
-0.001136740
0.001153757
0.002393130
0.002315205
0.001688392
0.0006888732
0.0002714515
0.0002383475
-0.0002142033
-0.0004460811
-0.0006931138
-0.002080117
-0.002555521
-0.003030970
-0.003004132
-0.002110773
-0.001126600
0.0004675836
0.0009572090
0.001670552
0.001850499
0.002415782
0.002750425
0.001499072
0.001820827
0.001236738
0.001166146
0.0007153852
-0.0004203149
-2.087084e-05
-0.0008726611
-0.0009504926
-0.0008926918
-0.001388780
-0.002093000
-0.002294927
-0.0009432699
-0.0001820755
0.0006972980
0.001209301
0.0004808389
-0.0006809035
-0.001133521
-0.0007012711
5.413633e-05
0.0009223789
0.0007644049
0.0002177273
0.0009992517
0.002092745
0.001457225
0.0007060095
0.0005049852
-0.0006792882
-0.001848421
-0.001130282
0.0002420379
0.0009851031
0.002342774
0.003089770
0.002578747
0.002388191
0.001644711
0.0002819615
0.0004828797
0.0007419834
-0.0004454830
-0.0008959885
-0.0009126194
-0.001596735
-0.001611835
-0.002064180
-0.002784679
-0.001815761
-0.001637892
-0.001085615
0.0009096065
0.001739342
0.002302387
0.002213097
0.001364180
0.001049720
-0.0007452446
-0.001986697
-0.001436612
-0.001778090
-0.0004572828
0.0005069521
0.0005338069
0.001396001
0.0003346475
-0.001196510
-0.001055844
-0.0007290189
-0.001066603
-0.0002348660
6.631279e-05
0.0002761226
0.0009618133
0.0007773354
0.0009410530
0.0005544864
0.0002398397
0.0007831173
0.0009536774
0.0005329942
0.0007437479
0.0009746266
0.0005385118
-0.0002202468
-0.001307091
-0.001876434
-0.001055708
-0.0007175773
-0.001287609
-0.0002367109
-0.0001420046
-0.0006735733
-0.0001693148
-0.0004170199
-0.0001835656
0.0002959367
-0.0001915757
7.005197e-05
0.0005082402
0.0002982613
0.0009945403
0.0009720194
0.001497418
0.001875274
0.0005858426
0.0002315575
-0.0005901842
-0.001150915
-0.001083241
-0.001121999
-0.001576350
-0.002270006
-0.001353111
-0.0006295418
-0.0001813527
0.0003038136
0.0002863772
0.0003105854
-0.0004268900
-0.0006062356
2.158996e-05
0.0005822032
0.0004747844
0.0003575728
0.0007110854
0.0003431644
0.0009738030
0.001007637
0.0005468211
0.0005057123
-0.0008309772
-0.0009095535
-0.0003577063
-0.0002096351
0.0005811572
0.0002537450
-0.0001161339
0.0004902174
0.0001078077
0.0005082853
0.001258076
0.0002905802
-0.0006224700
-0.0008717779
-0.0006245823
-0.0004030703
7.716229e-05
0.001002536
0.0007734622
0.0005424144
0.001002513
0.0007775955
7.141020e-05
-0.0003990644
-0.0003832797
-0.001116740
-0.001534284
-0.001597881
-0.001996225
-0.001123481
9.009030e-05
0.001477567
0.001691290
0.001748839
0.001893994
0.001300027
0.001192360
-0.001056999
-0.002748083
-0.003668812
-0.004582217
-0.003692771
-0.003637765
-0.002752599
-0.001545242
-0.001570683
-0.0006199024
0.0005416520
0.001242867
0.002188069
0.002634674
0.002666908
0.002158195
0.001969218
0.001696742
0.0003124593
0.0005640665
0.0004972118
0.0003848003
0.0004466495
0.0006564868
0.001599286
0.0008795403
0.0009373654
0.0003480386
0.001017060
0.001902083
0.001322761
0.001852157
0.001111800
0.001154482
0.001320383
0.001895274
0.001743575
0.0002979325
0.0003147247
-0.0008614152
-0.001552610
-0.002507431
-0.004819320
-0.005311081
-0.005298000
-0.005294086
-0.004850672
-0.003870022
-0.004168424
-0.005028095
-0.004165370
-0.004813586
-0.005303578
-0.004147483
-0.003165507
-0.002540159
-0.001506157
1.899980e-05
0.001533200
0.003775488
0.004308235
0.004516500
0.005201829
0.005020827
0.004940082
0.004336671
0.003763851
0.002465075
0.0002636746
-0.0005856572
4.636275e-05
0.0005613050
0.002177946
0.003340774
0.003833282
0.005441675
0.005455564
0.006173125
0.006821729
0.005974410
0.005159415
0.003649467
0.003290447
0.002935810
0.001907199
0.001744993
0.001698351
0.0007832673
-0.0001434029
-0.0008806505
-0.001521636
-0.002534889
-0.004317879
-0.005338022
-0.006901312
-0.008593055
-0.008790717
-0.007171105
-0.004361664
-0.002018741
0.0007816053
0.003121958
0.004292336
0.005459815
0.005459937
0.003826099
0.001249031
-0.001550750
-0.003892673
-0.005529516
-0.005988557
-0.006473539
-0.005980573
-0.004603059
-0.004355020
-0.002473759
-0.0008794522
-0.0008058184
-0.0009026364
-0.0007950985
0.0005073764
0.001050223
0.002887734
0.003806041
0.002935133
0.002134835
0.0001449056
-0.0006634240
-0.001752568
-0.001557479
7.335198e-05
0.001055457
0.002147535
0.002242147
0.003078013
0.004109189
0.003554404
0.001993576
0.0009960288
0.0008124139
0.0005377870
0.0001070422
-0.0003985894
-0.0005859270
-0.001815300
-0.002439317
-0.001361097
-9.400720e-05
0.001681357
0.002233563
0.001463360
0.0005799155
-0.0008568671
-0.001542577
-0.0003676748
-0.0003958826
-0.001283279
-0.0008726880
-0.0005845487
7.863976e-05
0.0005589895
0.001747861
0.003098819
0.003879003
0.003786021
0.001538333
0.0003003636
-0.001069169
-0.002460422
-0.002984542
-0.002888139
-0.002310780
-0.002641758
-0.002771956
-0.003834034
-0.003903548
-0.004110155
-0.004800179
-0.003199648
-0.002218790
-0.0003887923
0.001745445
0.002427253
0.002677129
0.001487682
0.0008187912
0.0007718508
0.001299822
0.002870658
0.003868657
0.004054378
0.003375915
0.003389237
0.002398646
0.0001586540
-0.002546476
-0.005196636
-0.006290150
-0.007785558
-0.006486984
-0.004088379
-0.002470410
0.0007928141
0.003155914
0.005001845
0.005250826
0.004314861
0.004304353
0.004088697
0.004069224
0.004555221
0.004542977
0.003611072
0.002687245
0.001723669
0.001771722
0.002410216
0.001314206
-0.0003969710
-0.001026901
-0.001321107
-0.001278686
0.0003462559
0.0005536410
-7.816559e-05
-0.0004186885
-0.0007521086
-0.0001936742
-0.0005270108
0.0003026506
0.0003695155
-0.001057279
-0.002238008
-0.004070924
-0.004820375
-0.005473414
-0.006212321
-0.005722187
-0.004086106
-0.002705578
-0.0007877874
-0.0001503707
-0.001018646
0.0005721592
-0.0005914053
-0.002181250
-0.001337724
-0.001450181
0.0002925097
0.001814154
0.003354069
0.004832167
0.004071572
0.004827809
0.004773786
0.002721685
0.001981320
0.0008290435
0.0001420274
0.0003316800
0.001104426
0.002420869
0.002277172
0.002900439
0.003194154
0.002454633
0.002944688
0.003402100
0.002939515
0.002702784
0.003647574
0.003861304
0.003663108
0.003381878
0.001566947
-0.0001260987
-0.001239342
-0.003394038
-0.005221754
-0.005714943
-0.007350218
-0.007553768
-0.006441684
-0.006367524
-0.004804403
-0.003341057
-0.002441605
-0.002199853
-0.002879886
-0.003860464
-0.004732359
-0.004333991
-0.004268139
-0.004086676
-0.003583501
-0.002430934
-0.0005576548
0.0001492424
0.001312562
0.002953322
0.003653620
0.004121687
0.004589331
0.004590834
0.003652583
0.002722989
0.002717247
0.002255318
0.0006135851
-0.0003160729
0.0003818957
0.0008505918
0.001320283
0.002489009
0.002950948
0.003669399
0.003407608
0.002039217
0.001074932
-0.001719681
-0.003806196
-0.005257658
-0.006819923
-0.006204609
-0.004951250
-0.003147580
-0.002173619
-0.0007747272
0.0008341112
0.001352626
0.002463822
0.002279125
0.002253220
0.002249249
0.001817255
0.001756033
0.001366928
0.001751067
0.001595861
0.001063304
0.001344856
0.002487255
0.002727448
0.002270072
0.001552856
-0.001011320
-0.001697598
-0.002676705
-0.003076599
-0.001276327
-0.001933641
0.0004167844
0.001968978
0.002590999
0.004730694
0.003531362
0.003602157
0.001115598
-0.0007402083
-0.001087461
-0.002999501
-0.001831481
-0.001825159
-0.001568860
-0.0009404211
-0.0008032871
-0.0005396748
-0.0002715169
0.0001090467
-0.0002342588
0.0003269462
0.0002296535
0.0008166352
0.002068310
0.002724670
0.002499189
0.001121193
-9.746452e-05
-0.0009670204
-0.001037767
-0.001671730
-0.002663856
-0.003555461
-0.003818872
-0.003096957
-0.002879815
-0.001924935
-0.0007802192
-0.0002841528
0.0006234017
0.001581633
0.002737666
0.003439609
0.003686440
0.002961334
0.001587155
0.001095820
-0.0005318487
-0.001221182
-0.001017797
-0.001446280
0.0001582143
0.001105086
0.001590376
0.002478506
0.002082691
0.0005912514
-0.001417882
-0.002209389
-0.002835474
-0.003122662
-0.002859253
-0.002632323
-0.001942306
-0.0009825190
0.0001556514
0.0004199084
0.001329969
0.002752186
0.002267698
0.001350568
0.0003946038
-0.001220815
-0.002876352
-0.003799082
-0.003565782
-0.003115312
-0.001439672
0.0003703321
0.0006808079
0.001296635
0.002085360
0.002001755
0.001374178
0.001081923
0.0004179880
-0.0002974095
-0.001475847
-0.002384050
-0.002418048
-0.003327609
-0.002862675
-0.002426095
-0.002125197
-0.0008207887
-0.0004675855
-0.0001291797
-0.0002346215
-0.0001214914
0.0006891037
0.001293478
0.001612560
0.002237619
0.003945601
0.004576687
0.005113109
0.006688124
0.006966624
0.007414649
0.007404638
0.006039358
0.004576591
0.002545871
0.0003616857
-0.001664765
-0.003136841
-0.004952762
-0.006393208
-0.007071786
-0.007554068
-0.006837775
-0.006393920
-0.004953210
-0.003133701
-0.001908789
0.0001478927
0.0008727733
0.001586288
0.001531980
0.0009244770
-0.0001341670
-0.002105420
-0.001288384
-0.001675909
-0.001471836
0.0003791446
0.0004339165
0.001063937
0.001366120
0.001316818
0.0008657224
0.001358013
0.001757044
0.001395521
0.001264765
0.0009330668
0.002683837
0.003468940
0.004134379
0.004822406
0.004174005
0.004097223
0.002774975
0.002006051
0.001346211
0.0004002752
-8.738766e-05
-0.0007437093
-0.0008060827
-0.0007360796
-0.0003372189
-0.0002785199
-0.0007885962
-0.001936781
-0.002402514
-0.002424854
-0.003091451
-0.002427880
-0.001694881
-0.001715490
-0.001241223
-0.0005309353
0.0001430105
0.0004253157
-0.001051101
-0.001889233
-0.002470779
-0.004226210
-0.003622132
-0.003326558
-0.002877001
-0.001732850
-0.001208644
0.0003555082
0.0006584803
0.002242734
0.003908522
0.003195239
0.003667625
0.003424827
