EVENT_NAME: 
EVENT_DATE_YYYYMMDD: 20201105
EVENT_TIME_HHMMSS: 032527
EVENT_LATITUDE_DEGREE: 38.6957
EVENT_LONGITUDE_DEGREE: 13.8490
EVENT_DEPTH:   4.90
MAGNITUDE_L: 3.6
MAGNITUDE_W:
FOCAL_MECHNISM:
NETWORK: X3
STATION_CODE: T1573
STATION_NAME: Gallitello
STATION_LATITUDE_DEGREE: 37.8628
STATION_LONGITUDE_DEGREE: 12.9300
STATION_ELEVATION: 183
LOCATION:
VS30_M/S: '0' (0=missing)
SITE_CLASSIFICATION_EC8: C
MORPHOLOGICAL_CLASSIFICATION: 'missing'
EPICENTRAL_DISTANCE_KM: 122.465477
EARTHQUAKE_AZIMUTH_DEGREE: 221.182938
DATA_TIME_FIRST_SAMPLE_YYYYMMDD_HHMMSS: 20201105_032527.0
DATA_TIME_FIRST_SAMPLE_PRECISION: milliseconds
SAMPLING_INTERVAL_S: 0.01000000
NDATA: 30000
DURATION_S: 300
STREAM: HNE
UNITS: cm/s^2
INSTRUMENT: TRIDENT-FS-40-VPP_____CMG-5TC
INSTRUMENT_ANALOG/DIGITAL: D
INSTRUMENTAL_FREQUENCY_HZ:
INSTRUMENTAL_DUMPING:
FULL_SCALE: '2' (999=missing)
N_BIT_DIGITAL_CONVERTER:
PGA_CM/S^2: 0.0396018
TIME_PGA:
BASELINE_CORRECTION: REMOVED
FILTER_TYPE: BUTTERWORTH
FILTER_ORDER: 4TH
LOW_CUT_FREQUENCY: 0.20
HIGH_CUT_FREQUENCY: 45
LATE/NORMAL TRIGGERED:
DATA_VERSION: ISMD_2.0
DATA_TYPE: AUTOMATIC_PROCESSED_ACCELERATION
DATA_TIMESTAMP_YYYYMMDD_HHMMSS:
UNUSED1:
UNUSED2:
USER1: MEAN_REMOVED
USER2:
USER3:
[...]
0.004835349
0.006838597
0.007783283
0.006830987
0.008540574
0.008015552
0.006635324
0.005013649
0.003260191
0.002274732
0.001321836
7.378353e-05
-0.001901148
-0.001569772
-0.003720130
-0.007083780
-0.007280253
-0.007202235
-0.009116514
-0.009053998
-0.006260183
-0.008265879
-0.01167517
-0.01316499
-0.01387064
-0.01269478
-0.01065442
-0.007344193
-0.002019570
0.003125179
0.009336174
0.01554006
0.01824272
0.01840365
0.02051652
0.02031239
0.01196125
0.004884442
-0.001555530
-0.008308383
-0.009921626
-0.01147355
-0.01238722
-0.009494906
-0.006282005
-0.002607052
0.002274345
0.006967227
0.01329638
0.01555291
0.01425612
0.01535806
0.01270248
0.01031839
0.008177784
0.003556191
0.0005063327
-0.003019415
-0.007835308
-0.01186875
-0.01291808
-0.01515570
-0.01695409
-0.01995776
-0.02097989
-0.01762051
-0.01625283
-0.01077926
-0.005729167
-0.001919879
0.001343968
0.002260841
0.006753146
0.007852213
0.008774653
0.01000640
0.005854279
0.003898513
0.004572087
0.003742817
0.001998412
0.006104108
0.007706804
0.005045381
0.004387448
0.001209029
0.0006758797
-0.0005103419
-0.005423388
-0.008151980
-0.007816983
-0.007241052
-0.005777291
-0.002419020
0.001163531
0.004125524
0.005884832
0.005297666
0.006166568
0.008721216
0.005648184
0.003635521
0.003855877
0.002242106
0.002562713
0.003035868
0.002021614
0.0001417585
-0.0009625994
-0.002755531
-0.006649222
-0.005884599
-0.004004202
-0.005118513
-0.003757427
-0.002454342
-0.0005139658
0.002621641
0.003733539
0.004987583
0.007013881
0.008558799
0.007379236
0.001070368
-0.003991500
-0.01035008
-0.01514271
-0.01556805
-0.01783768
-0.01475455
-0.01405894
-0.01285276
-0.007145002
-0.002628049
0.002763828
0.006540739
0.009572385
0.009495191
0.01180048
0.01411654
0.01305715
0.01533463
0.01720745
0.01733434
0.01617547
0.01445693
0.01169812
0.009374660
0.008706420
0.006712747
0.004527261
0.001807270
-0.002068753
-0.007291845
-0.01109631
-0.01370365
-0.01621101
-0.01935258
-0.02284025
-0.02175644
-0.02070827
-0.01798487
-0.01148947
-0.005152076
0.0006971022
0.006419910
0.01292601
0.01965598
0.02398743
0.02155331
0.01942543
0.01899642
0.01487608
0.009093653
0.001978687
-0.005941117
-0.01436130
-0.01704755
-0.01891983
-0.02649516
-0.02682708
-0.02376431
-0.01827405
-0.01145738
-0.006852512
0.002927404
0.008595821
0.01155281
0.01366807
0.01311263
0.01333858
0.01220926
0.008865799
0.004412711
0.002468418
0.0007468878
0.0005093173
0.0005056441
-0.0009782107
0.003733939
0.006811930
0.005008880
0.005808712
0.005496955
0.004119769
0.002761922
0.001963032
0.0002649503
-0.004612838
-0.008096394
-0.009981593
-0.01032142
-0.007259920
-0.006424770
-0.006749388
-0.005196773
-0.004326151
-0.001705141
-0.001710877
-0.002102235
-0.001546131
-0.001311605
0.001139179
0.001839664
0.003432208
0.004899959
0.006043651
0.004477263
0.003774796
0.004072983
0.0009542807
0.0005791392
-0.001240410
-0.002571532
-0.003506613
-0.002988582
-0.001605771
-0.004178558
-0.003563314
-0.002737907
-0.001798638
-0.0008224088
-0.0005399095
0.002116790
0.003107713
0.004631827
0.005964835
0.005958700
0.006840703
0.008029999
0.007469419
0.003234508
0.001731608
0.002857206
-0.0003568672
-0.001897377
0.0004753775
0.001435481
-0.0006387728
-0.004810733
-0.007365796
-0.007405413
-0.008676040
-0.008316001
-0.003565722
0.0007571799
0.004556913
0.008294029
0.01126873
0.01112055
0.01091325
0.01122948
0.007615649
0.001796164
-0.002322393
-0.005400363
-0.009362051
-0.01156249
-0.01155862
-0.008598934
-0.004003311
-0.001177780
7.803112e-05
0.003835345
0.006083952
0.006411033
0.007448508
0.002087360
-0.002915775
-0.001758979
-0.003733595
-0.007796357
-0.01091789
-0.01386208
-0.01315821
-0.01114881
-0.009969199
-0.007483024
-0.001855003
0.005475922
0.01215748
0.02013929
0.02887716
0.03233256
0.03188798
0.03031028
0.02556836
0.02046625
0.01408370
0.006461845
-0.002780098
-0.01418961
-0.01984571
-0.02262776
-0.02635317
-0.02371009
-0.01742394
-0.01499978
-0.01166057
-0.007522752
-0.006406228
-0.006627843
-0.005853910
-0.004696217
-0.004880934
-0.005379738
-0.006936764
-0.005731584
-0.004411287
-0.003580716
-0.004603488
-0.005365313
0.0006468879
0.002826460
-0.0008979431
-0.002019034
-0.0006903685
0.003381675
0.005957370
0.003298697
0.004872179
0.007031179
0.007540035
0.007293792
0.004330750
0.002183175
0.001578459
0.0005455914
0.0009768961
0.002660105
0.001992440
0.003662528
0.003387718
0.003281204
0.002528941
0.0002056538
-0.001961996
-0.006631659
-0.005116619
-0.006469359
-0.009425849
-0.007790668
-0.004706803
3.402560e-05
0.002117372
0.005273947
0.007120548
0.008147773
0.009613484
0.01129627
0.01063424
0.006329353
0.001172289
-0.004845357
-0.009173254
-0.01563280
-0.01746366
-0.01349565
-0.01102064
-0.007439959
-0.006538616
-0.007524861
-0.005455673
-0.004714694
-0.004819801
-0.005361624
-0.004424221
-0.003292982
-0.001872802
-0.0004041360
-0.0001760987
0.004592609
0.004548894
0.003844230
0.002324950
0.0001763017
0.001125816
-0.003344374
-0.003873130
-0.002318647
-0.003646638
-0.005012063
-0.001688161
0.002842304
0.004638329
0.009795684
0.01234191
0.01682883
0.01951419
0.01992399
0.02309025
0.01921339
0.01480381
0.008077741
0.001705781
-0.0008911356
-0.005270432
-0.007371577
-0.006657902
-0.004489412
-0.004415836
-0.0005896520
0.004922668
0.002796137
0.002297485
0.004184212
0.005314970
0.005353386
0.002157217
0.001681646
0.001881672
0.0005024517
-0.001355568
-0.003122174
-0.002625575
-0.003572016
-0.004380207
-0.003276741
-0.002484627
-0.001964279
-0.0006315055
0.002092412
0.0009258474
-0.001406391
-0.004397674
-0.003207630
0.001370122
0.002477975
0.006307562
0.006777327
0.008199936
0.009263184
0.006458777
0.004649709
0.001731394
-0.002348854
-0.007241169
-0.006565992
-0.004530001
-0.004350046
-0.005035829
-0.004335164
-0.003071131
-0.005102978
-0.005451157
-0.007166455
-0.009736458
-0.01195694
-0.01230172
-0.01108748
-0.01074985
-0.008917773
-0.009531021
-0.008870940
-0.005681749
-0.005348405
-0.007501960
-0.007434788
-0.007624920
-0.008299838
-0.007715620
-0.005792395
-0.0001274071
0.002260458
0.006808054
0.01198083
0.01349646
0.01733542
0.01815638
0.01662983
0.01638997
0.01498699
0.01261971
0.01045296
0.005363785
0.006453745
0.01206766
0.01442542
0.01493324
0.01174714
0.009099352
0.006247955
0.003625299
-8.448805e-05
-0.003487298
-0.008917190
-0.01303885
-0.007915108
-0.005493030
-0.006612096
-0.004593944
-0.004318228
-0.004202535
-0.003945593
-0.006081549
-0.009859903
-0.01320940
-0.01247156
-0.01408758
-0.01423837
-0.01381487
-0.01083289
-0.006890998
-0.006298951
-6.321644e-05
0.001985916
0.003977589
0.005997541
0.004141826
0.004624334
0.004757933
0.005262407
0.004832739
0.003005733
0.004618656
0.005212691
-0.001059672
-0.004256985
-0.006325345
-0.009517715
-0.01036799
-0.01235249
-0.01339182
-0.01155159
-0.006328672
-0.002940757
1.866396e-05
0.005676089
0.009034926
0.01310025
0.01631441
0.01635602
0.01797753
0.01982897
0.01795074
0.01469807
0.01232143
0.008052281
0.005755727
0.005297742
0.002387434
-0.0003949992
-0.002456089
-0.003392601
-0.001900382
-0.003210980
-0.003802254
-0.002013017
-0.0008727706
0.001733155
-0.001237220
-0.006186855
-0.009025644
-0.008921575
-0.008242812
-0.007026070
-0.004943968
-0.007437071
-0.007652067
-0.006984324
-0.006342845
-0.004885196
-0.003028030
-0.003787696
-0.006582624
-0.005839589
-0.004313100
-0.001209327
0.0005945476
0.001257817
0.003517597
0.005204644
0.005213377
0.003023086
4.868951e-05
-0.001366682
-0.001680195
-0.003069195
-0.004378625
-0.004534431
-0.002662408
-0.0006032845
0.0002647371
0.003596191
0.009785553
0.01541638
0.01903945
0.02358211
0.02606911
0.02464331
0.02159545
0.01930103
0.01937084
0.01684783
0.01498871
0.01314127
0.009625052
0.007503642
0.001274417
-0.003240712
-0.006843850
-0.01254355
-0.01465033
-0.01923508
-0.02237868
-0.02401488
-0.02495221
-0.02165548
-0.02194559
-0.02144339
-0.01995569
-0.02122916
-0.02039289
-0.01982161
-0.01664107
-0.01106173
-0.008258203
-0.002506940
0.007441576
0.01538751
0.01944192
0.02276827
0.02528971
0.02575439
0.02377565
0.02383750
0.02497688
0.02163163
0.01741505
0.01397042
0.01285058
0.006022970
-0.002490739
-0.003843707
-0.01031513
-0.01901906
-0.02138195
-0.02362126
-0.02709544
-0.02596384
-0.02599983
-0.02655907
-0.02294300
-0.01933979
-0.01665840
-0.01314642
-0.01228109
-0.01266463
-0.009764436
-0.007891793
-0.003202962
0.001186242
0.004657578
0.01145429
0.01718415
0.01951946
0.02454836
0.03007374
0.02963195
0.02651860
0.02258336
0.01941564
0.01319815
0.006308848
0.0005222759
-0.002549429
-0.005346844
-0.007953146
-0.009485898
-0.01267238
-0.01207902
-0.009142216
-0.004789522
-0.001512511
0.001815485
0.004863217
0.007195846
0.01175335
0.01376224
0.01280211
0.008530188
0.003330816
-0.003563778
-0.01033115
-0.01780828
-0.02776306
-0.02776455
-0.02497075
-0.02146306
-0.01460766
-0.009054275
-0.003949348
-0.001619569
0.002866191
0.004524797
0.001873740
0.003314232
0.002829018
0.0001442176
0.001110197
-0.001099681
-0.003527742
-0.005027935
-0.01262576
-0.01526331
-0.01392834
-0.01274740
-0.006864348
-0.002196850
0.004907054
0.01567985
0.02231494
0.02744124
0.03383284
0.03650729
0.03333861
0.02965087
0.02475109
0.01935031
0.01154514
0.001628731
-0.004258729
-0.009591533
-0.009652349
-0.01085149
-0.01206596
-0.006698124
-0.003766326
-0.001716877
-0.0009478581
0.0003971863
-0.0001437028
-0.003590015
-0.006197461
-0.01128001
-0.01369210
-0.01481694
-0.01483015
-0.01340097
-0.01580445
-0.01482796
-0.01172389
-0.009325922
-0.004742297
0.0006134780
0.005895210
0.01081870
0.01553521
0.02226101
0.02615261
0.02780091
0.02897952
0.02492316
0.02185769
0.01484607
0.004255567
-0.006029771
-0.01435186
-0.01311867
-0.01391677
-0.01770486
-0.01447525
-0.009556105
-0.007182075
-0.003857091
-0.0001328047
0.003296973
0.007678476
0.01017276
0.01037776
0.009664448
0.009181376
0.007172110
0.002364807
-0.004151220
-0.009108033
-0.01227679
-0.01815484
-0.02282731
-0.02231630
-0.01842120
-0.01422281
-0.01181366
-0.007593986
-0.004467020
-0.003196142
0.0004769317
0.0008949124
-0.001630025
-0.005592361
-0.005682742
-0.002994893
-0.003170590
-6.930687e-05
0.002927510
0.006361792
0.01167378
0.01624755
0.01722971
0.01410803
0.01105550
0.01044951
0.01057731
0.007211330
0.006499162
0.005381157
0.004654418
0.006264012
0.003733126
0.002813505
0.001021486
-0.002301118
-0.003429747
-0.005205623
-0.007386953
-0.007868345
-0.006437899
-0.005391944
-0.003521054
-0.002424072
-0.005519953
-0.003850365
8.078181e-05
0.0003214045
0.002324031
0.001220043
0.001697862
0.001839166
0.001299806
0.004001087
0.0002974531
-0.0008197954
0.0001757163
-0.003624971
-0.007316878
-0.007656287
-0.007690088
-0.009020376
-0.008747122
-0.008734890
-0.008998651
-0.01072338
-0.007966729
-0.004166931
-0.003264042
0.0007192657
0.002844410
0.005666339
0.008667750
0.009886576
0.01230504
0.01333517
0.01549232
0.01797743
0.01845173
0.01844834
0.01748874
0.01475466
0.009906632
0.005669083
0.003063812
-0.001467005
-0.007688521
-0.01228527
-0.01378115
-0.01428021
-0.01301739
-0.009148914
-0.006400520
-0.003496726
0.0001924608
0.002170476
0.003342537
0.004664692
0.003291027
0.0003066880
-0.0001921900
0.0003552252
0.0004937982
0.0001616669
0.0006814722
0.003412897
0.004529238
0.004958583
0.006665697
0.006731448
0.006617824
0.005302409
0.002651356
-0.001507160
-0.006000840
-0.005330524
-0.006856034
-0.007414468
-0.003282163
-0.0004907196
0.001851079
0.001678769
0.003889521
0.008182498
0.01088334
0.01220515
0.01151962
0.007400808
0.003319795
0.001403774
-0.005181490
-0.01114735
-0.01519308
-0.02295295
-0.02986059
-0.03157251
-0.03227556
-0.03211097
-0.03098630
-0.03147152
-0.02743490
-0.02499926
-0.02484622
-0.02193219
-0.01888764
-0.01265761
-0.01006767
-0.008226720
-0.0005347681
0.004529878
0.008028781
0.01288148
0.01754749
0.02249407
0.02408819
0.02527377
0.02522612
0.02484522
0.02789175
0.02629889
0.02352821
0.02230339
0.02164474
0.01903990
0.01287752
0.008712932
0.007485458
0.007268804
0.003993831
0.005144294
0.009053300
0.009377525
0.01073239
0.008889107
0.006341184
0.004689078
0.0009795711
-0.001954143
-0.004393431
-0.006137866
-0.005847780
-0.006153094
-0.006084494
-0.003697027
-0.002674649
-0.002681348
-0.003943162
-0.004843784
-0.003733136
-0.0006574882
0.002153695
0.003472290
0.008848353
0.01389967
0.01658154
0.01645076
0.01598861
0.01534788
0.008479794
0.002304952
-0.004236999
-0.01437998
-0.02064559
-0.02639209
-0.03439109
-0.03712149
-0.03618989
-0.03530134
-0.03508421
-0.03272119
-0.02785996
-0.02230662
-0.01644335
-0.01168594
-0.005960646
-0.002094317
-9.736265e-05
0.001594443
0.003811999
0.006759699
0.006479805
0.005326077
0.004480877
0.004868407
0.008872768
0.01271912
0.01524951
0.01859120
0.02237557
0.02567366
0.02706866
0.02685180
0.02688707
0.02677462
0.02575585
0.02078812
0.01924574
0.01874183
0.01463113
0.01435711
0.01257818
0.009856207
0.003557460
2.843445e-05
-0.003022661
-0.01108046
-0.01193553
-0.01130488
-0.009930920
-0.01114144
-0.01276724
-0.009521432
-0.006070352
-0.003929575
-0.006054745
-0.004400096
4.123425e-05
0.003230910
0.006891869
0.006656827
0.007411305
0.009809603
0.008915395
0.009048853
0.009190852
0.005335928
0.0004211350
-0.003304817
-0.006610163
-0.009028153
-0.009692893
-0.01379952
-0.01888700
-0.02468915
-0.03008489
-0.03329151
-0.03845666
-0.03931131
-0.03960184
-0.03885862
-0.03296937
-0.02268646
-0.01359823
-0.006293737
0.003873854
0.01319478
0.02193852
0.02743107
0.03127528
0.03251864
0.02915121
0.02555714
0.02338171
0.01979359
0.01591325
0.009866739
0.004001954
0.003434547
0.0003354535
-0.001436782
-0.001188732
-0.003092778
-0.004679339
-0.004512002
-0.005453845
-0.005479101
-0.001507931
-0.002363162
-0.001894784
-0.002476491
-0.006950231
-0.004490047
-0.003511965
-0.005939309
-0.008692934
-0.008604415
-0.005277542
-0.004206694
-0.001556065
0.001357357
0.004170135
0.007141004
0.007209728
0.006307814
0.008283741
0.01234542
0.01473369
0.01546494
0.01503272
0.01786788
0.02218878
0.02148268
0.02250406
0.02141505
0.01567944
0.009167289
0.0001690659
-0.006632044
-0.01399835
-0.01815412
-0.02333684
-0.02793659
-0.02700191
-0.02825198
-0.02638152
-0.02353850
-0.02345435
-0.02332159
-0.02314482
-0.02196040
-0.02054125
-0.02339034
-0.02103542
-0.01629767
-0.01490923
-0.01136097
-0.004947663
0.003730399
0.005141316
0.007657416
0.01491313
0.01822847
0.02150091
0.02266702
0.02145907
0.02321473
0.02358746
0.02305146
0.02350852
0.02115285
0.01953647
0.01923197
0.01728953
0.01461245
0.01063685
0.007286622
0.005964111
0.003852649
0.001570539
0.0001428091
-0.0001010198
-0.0006465556
0.0002001977
-0.0002058253
-0.001979037
-0.001422225
-0.004971034
-0.005507034
-0.005796181
-0.01229988
-0.01489977
-0.01426034
-0.01389237
-0.01578066
-0.01578682
-0.01339960
-0.01278445
-0.01148583
-0.009319921
-0.006114426
-0.003915107
-0.001956911
0.001736018
0.006108765
0.01059449
0.01439461
0.01849929
0.02069317
0.02421480
0.02479489
0.02105951
0.02163003
0.01828891
0.01144873
0.006387258
-0.0004079762
-0.006767204
-0.01002910
-0.01431953
-0.01766467
-0.02015777
-0.02189590
-0.02054692
-0.02032264
-0.01815548
-0.01368071
-0.01055091
-0.009546869
-0.007304657
-0.004478375
-0.001581523
0.001810919
0.002170435
0.001989895
0.004191255
0.005123693
0.004229876
0.003147277
0.0007875123
0.001714521
0.003183172
0.003980211
0.004604552
0.002538268
0.001906323
0.001047016
0.0002276448
-0.0009576759
-0.003408005
-0.007602401
-0.01100054
-0.01051502
-0.01547597
-0.01777934
-0.01359820
-0.01282051
-0.009455539
-0.003504109
0.001828807
0.006289614
0.01213159
0.01928697
0.02215234
0.02644505
0.02994024
0.02992110
0.03139473
0.03040029
0.02726634
0.02421797
0.02096608
0.01482369
0.008551684
0.004211211
-0.001194353
-0.004154137
-0.006568070
-0.01151165
-0.01587898
-0.01665156
-0.01760163
-0.01640415
-0.01487754
-0.01671873
-0.01499307
-0.01322323
-0.01059767
-0.01224895
-0.01402023
-0.01075121
-0.01238269
-0.01232814
-0.01011264
-0.007945598
-0.002505070
0.006527795
0.01364884
0.01587134
0.01926351
0.02153491
0.02020889
0.01815772
0.01597195
0.01432651
0.01096741
0.005864912
0.001778605
0.0001080634
-0.002020377
-0.004188423
-0.004809599
-0.007550560
-0.009999053
-0.01193626
-0.01417679
-0.01609691
-0.01711980
-0.01584723
-0.01320456
-0.009463777
-0.005127735
-0.0001353984
0.003192517
0.004282410
0.004424814
0.002545153
0.003233959
0.004468848
0.001791317
4.335711e-05
-0.002127463
-0.005350526
-0.006776925
-0.006837201
-0.005526836
-0.004909744
-0.004999606
-0.001764157
0.001909636
0.0001360323
-0.0004713062
0.001782405
0.001787175
0.001501982
-0.0008910982
-0.003411531
-0.002351393
-0.003426273
-0.004305547
-0.001700341
-0.002137287
-0.004094818
-0.004659581
-0.003039794
-7.839669e-05
0.001194512
0.004759763
0.009344019
0.01056879
0.01236673
0.01611586
0.02054370
0.02289087
0.02380405
0.02259039
0.02063634
0.02359402
0.02081288
0.01436891
0.01018350
0.005121474
9.321697e-05
-0.007373263
-0.009934824
-0.01353612
-0.02143772
-0.01940368
-0.01756233
-0.02156395
-0.02274345
-0.02302465
-0.02274166
-0.02181678
-0.01978119
-0.01693993
-0.01682265
-0.01671660
-0.01606467
-0.01234947
-0.007416948
-0.007566173
-0.004073548
-0.0008954530
0.0002837321
0.002848735
0.004830066
0.008147233
0.008786392
0.009136066
0.007750413
0.006270864
0.007900080
0.007589732
0.006569581
0.006961745
0.008650243
0.01052455
0.008254802
0.009935195
0.01229144
0.009026679
0.01130092
0.009704119
0.006730727
0.007647185
0.006798537
0.005402817
0.0006622986
-0.001173875
-0.003822799
-0.008944364
-0.01148485
-0.01454693
-0.01566822
-0.01504572
-0.01736416
-0.01680893
-0.009933549
-0.009089058
-0.006605146
0.002778853
0.006494259
0.008084565
0.01268452
0.01538764
0.01589177
0.01931323
0.01830685
0.01322685
0.01116076
0.008344684
0.006244840
0.005163714
0.001577229
-0.004873693
-0.006535663
-0.002379718
-0.0009784790
-0.0005543735
-0.0001371729
0.001559179
0.003621419
0.005391457
0.007154731
0.008691407
0.01123879
0.01191716
0.01197205
0.01016391
0.007134734
0.003456475
0.001351319
0.0001660945
-0.002969109
-0.007015986
-0.01223590
-0.01414855
-0.01492980
-0.01732996
-0.01837375
-0.02050082
-0.02183633
-0.01971532
-0.01848510
-0.01667374
-0.01590644
-0.01484152
-0.009888440
-0.005195673
-0.001871891
0.001471403
0.003244427
0.003920938
0.006463111
0.008751281
0.01122101
0.01278667
0.01455366
0.01557065
0.01519308
0.01567810
0.01432519
0.01215252
0.009494387
0.005722554
0.001444361
-0.0001868640
-0.001236271
-0.004862482
-0.008077398
-0.01126380
-0.01148458
-0.01029838
-0.007822309
-0.0009342038
0.001640917
0.002376482
0.003704867
0.007169545
0.01241126
0.01166058
0.01138536
0.01216837
0.01162202
0.01070133
0.009894719
0.007782651
0.003474224
0.003688600
0.002153572
-0.001364592
-0.003068890
-0.004268836
-0.002328104
-0.002363873
-0.005418163
-0.007892742
-0.008433527
-0.01104219
-0.01163718
-0.01274775
-0.01461291
-0.01217930
-0.01205732
-0.01198200
-0.01035121
-0.007760155
-0.008003058
-0.007629151
-0.005211038
-0.002339593
-0.002151437
-0.006175594
-0.005867746
